{"type":"FeatureCollection","source":{"dataset":"geoBoundaries gbOpen PHL ADM3","commit":"9469f09","license":"CC BY 3.0 IGO","boundary_year":2020,"url":"https://media.githubusercontent.com/media/wmgeolab/geoBoundaries/9469f09/releaseData/gbOpen/PHL/ADM3/geoBoundaries-PHL-ADM3_simplified.geojson","upstream_sources":["NAMRIA","PSA","OCHA Philippines"],"reference":"https://ulap-nga.georisk.gov.ph/arcgis/rest/services/PSA/Municipal/MapServer/0","psgc_reference":"https://psa.gov.ph/classification/psgc/provinces/1400000000","notice":"Approximate planning/reference boundaries, not legal, cadastral, or survey-grade."},"features":[{"type":"Feature","properties":{"shapeName":"Bangued","shapeISO":"","shapeID":"30758251B80986632520556","shapeGroup":"PHL","shapeType":"ADM3","psgc_code":"1400101000","legacy_psgc_code":"140101000","province":"Abra"},"geometry":{"type":"Polygon","coordinates":[[[120.6192128990001,17.627506234000066],[120.6164864100001,17.625158361000047],[120.6087521930001,17.625961226000072],[120.60741931300004,17.628049109000074],[120.60872156300002,17.631996911000044],[120.59627463000004,17.65349307400004],[120.6040521760001,17.667085403000044],[120.5975660260001,17.67372702800003],[120.56505238800003,17.706890759000032],[120.54274383600011,17.735323652000034],[120.54183945800003,17.73156672700003],[120.5387641850001,17.722382364000055],[120.53877010400004,17.713123117000066],[120.52968731700003,17.692937735000044],[120.55274489200008,17.665293246000033],[120.56591556600006,17.626433956000028],[120.57507440200004,17.616753094000046],[120.5758472120001,17.608176055000058],[120.58020238300003,17.59789657500005],[120.59201771500011,17.588188209000066],[120.59925944800011,17.574621553000043],[120.59916400800012,17.571052294000026],[120.59755151900004,17.569592427000032],[120.61078048400009,17.562552519000064],[120.60982691600009,17.559518256000047],[120.60633336300009,17.557862981000028],[120.60665491100008,17.538309754000068],[120.61256634300003,17.53029657600007],[120.60916215500004,17.511359130000073],[120.61914064300004,17.50157660700006],[120.63775966600008,17.49067612400006],[120.654591922,17.500814779000052],[120.65539428200009,17.50800149500003],[120.64812934800011,17.520704477000038],[120.6266881250001,17.52170333300006],[120.63375233600004,17.529933810000045],[120.63235807,17.537824060000048],[120.63686653000002,17.547346944000026],[120.63850424000009,17.55568119000003],[120.6348221930001,17.55937551100004],[120.6382240910001,17.563011305000032],[120.63781101600011,17.568510725000067],[120.65165553500003,17.573666827000068],[120.658481907,17.57373009400004],[120.67421030800006,17.563415250000048],[120.6787464460001,17.562293553000075],[120.68079024100007,17.565014570000073],[120.68981081200002,17.56178519200006],[120.67699420800011,17.57578456500005],[120.67102296300004,17.580059168000048],[120.66542887800006,17.58187908700006],[120.65207541200004,17.595861567000043],[120.64053960000001,17.605660800000067],[120.62915352300001,17.613015134000022],[120.62715534000006,17.618047868000076],[120.62747943900001,17.622995478000064],[120.62315506000004,17.626591946000076],[120.6192128990001,17.627506234000066]]]}},{"type":"Feature","properties":{"shapeName":"Boliney","shapeISO":"","shapeID":"30758251B13786076452973","shapeGroup":"PHL","shapeType":"ADM3","psgc_code":"1400102000","legacy_psgc_code":"140102000","province":"Abra"},"geometry":{"type":"Polygon","coordinates":[[[120.99207446900004,17.400302743000054],[120.97393306200001,17.401726059000055],[120.90990036100004,17.41502527700004],[120.8811688400001,17.416487197000038],[120.78492762700012,17.41590240900007],[120.7668555240001,17.415173001000028],[120.76320421900004,17.416810589000022],[120.7601917510001,17.415871847000062],[120.76311919400007,17.37170073900006],[120.76748172300006,17.33929726100007],[120.91149813800007,17.342191307000064],[120.95622476800008,17.340714356000035],[120.96337297000002,17.367742754000062],[120.97422982600006,17.37953454600006],[120.98250925200011,17.382881326000074],[120.9891611590001,17.392206052000063],[120.99207446900004,17.400302743000054]]]}},{"type":"Feature","properties":{"shapeName":"Bucay","shapeISO":"","shapeID":"30758251B14856837893218","shapeGroup":"PHL","shapeType":"ADM3","psgc_code":"1400103000","legacy_psgc_code":"140103000","province":"Abra"},"geometry":{"type":"Polygon","coordinates":[[[120.78347734700003,17.576274779000073],[120.77469275100009,17.58243667200003],[120.76922141700004,17.576965338000036],[120.75843923500008,17.573328385000025],[120.75485180800001,17.57392629000003],[120.749957676,17.578147167000054],[120.74278014300012,17.581439807000038],[120.73844672100006,17.58140245000004],[120.73551419000012,17.583513125000025],[120.72882043600009,17.577816254000027],[120.72224720800011,17.585571901000037],[120.71532063100005,17.588713159000065],[120.70528365100006,17.582339110000078],[120.70225382900003,17.578150208000068],[120.6919371350001,17.570945323000046],[120.68981081200002,17.56178519200006],[120.6857636200001,17.547517449000054],[120.69482493700002,17.536261007000064],[120.6974903580001,17.509876191000046],[120.69064973400009,17.50323588300006],[120.65553472300007,17.507982853000044],[120.66525426800001,17.500483492000058],[120.67164904900005,17.491181992000065],[120.67409069300004,17.47990392300005],[120.67397442400011,17.470718692000048],[120.67582726700005,17.45674245300006],[120.69032066000011,17.456712715000037],[120.70551329700004,17.454299088000027],[120.70724449300008,17.452712158000054],[120.721310463,17.453000691000057],[120.72470072200008,17.455669619000048],[120.72881231400004,17.45660735000007],[120.7314812410001,17.463243602000034],[120.74534093900002,17.528927958000054],[120.74784730400006,17.534545527000034],[120.7614347650001,17.536260681000044],[120.784011,17.56023],[120.78119269900003,17.56342171600005],[120.785308772,17.568880829000022],[120.78563541900007,17.571820650000063],[120.78347734700003,17.576274779000073]]]}},{"type":"Feature","properties":{"shapeName":"Bucloc","shapeISO":"","shapeID":"30758251B79611971032611","shapeGroup":"PHL","shapeType":"ADM3","psgc_code":"1400104000","legacy_psgc_code":"140104000","province":"Abra"},"geometry":{"type":"Polygon","coordinates":[[[120.90990036100004,17.41502527700004],[120.89058739400002,17.47017910900007],[120.81714716600004,17.45208629600006],[120.7861349740001,17.450228550000077],[120.78492762700012,17.41590240900007],[120.8811688400001,17.416487197000038],[120.90990036100004,17.41502527700004]]]}},{"type":"Feature","properties":{"shapeName":"Daguioman","shapeISO":"","shapeID":"30758251B44200269930989","shapeGroup":"PHL","shapeType":"ADM3","psgc_code":"1400105000","legacy_psgc_code":"140105000","province":"Abra"},"geometry":{"type":"Polygon","coordinates":[[[120.99545500300007,17.489607008000064],[120.97230887500007,17.503707333000023],[120.93221681300008,17.485042431000068],[120.89058739400002,17.47017910900007],[120.90990036100004,17.41502527700004],[120.97393306200001,17.401726059000055],[120.99207446900004,17.400302743000054],[120.99281149800004,17.417806642000073],[120.9993776120001,17.432616061000033],[120.99983809200012,17.44454041700004],[120.99918727900001,17.465187627000034],[120.99280199000009,17.47821396200004],[120.99272570200003,17.483298011000045],[120.99545500300007,17.489607008000064]]]}},{"type":"Feature","properties":{"shapeName":"Danglas","shapeISO":"","shapeID":"30758251B62080674361927","shapeGroup":"PHL","shapeType":"ADM3","psgc_code":"1400106000","legacy_psgc_code":"140106000","province":"Abra"},"geometry":{"type":"MultiPolygon","coordinates":[[[[120.65653987700011,17.645732044000056],[120.65775022800005,17.64779803700003],[120.65478439600008,17.648650538000027],[120.65446554800008,17.645753727000056],[120.65540540300003,17.644599516000028],[120.65653987700011,17.645732044000056]]],[[[120.66853856400007,17.65129233400006],[120.66795999100009,17.653143815000078],[120.6658716930001,17.651784656000075],[120.66853856400007,17.65129233400006]]],[[[120.5975660260001,17.67372702800003],[120.60569519900002,17.676577036000026],[120.60899436600005,17.675590216000046],[120.6118384670001,17.677314583000054],[120.61386709600004,17.68106120300007],[120.61784066900009,17.682743601000027],[120.625071348,17.68003856100006],[120.62489397800005,17.67676725800004],[120.627425119,17.675220155000034],[120.62729235100005,17.672465527000043],[120.63069682900004,17.67160790500003],[120.63778574600008,17.67458373100004],[120.63990964700008,17.673638674000074],[120.65427326200006,17.674252915000068],[120.66254454300008,17.672333286000026],[120.66979201600009,17.677432794000026],[120.6756233960001,17.686388128000033],[120.6785020640001,17.693648903000053],[120.67395218800004,17.70232315000004],[120.67846253300002,17.70713260900004],[120.68202210700008,17.707998403000033],[120.67511338600002,17.718451472000027],[120.67281987600006,17.73327270900006],[120.6717216400001,17.828020168000023],[120.63328457800003,17.81909497500004],[120.62459554400004,17.814628300000038],[120.60222550600008,17.809284779000052],[120.58279342800006,17.799097519000043],[120.57182232500008,17.786033365000037],[120.57041428800005,17.78142848300007],[120.55265226400002,17.75370227600007],[120.54274383600011,17.735323652000034],[120.56505238800003,17.706890759000032],[120.5975660260001,17.67372702800003]]]]}},{"type":"Feature","properties":{"shapeName":"Dolores","shapeISO":"","shapeID":"30758251B59360530740420","shapeGroup":"PHL","shapeType":"ADM3","psgc_code":"1400107000","legacy_psgc_code":"140107000","province":"Abra"},"geometry":{"type":"Polygon","coordinates":[[[120.77803266600006,17.66674056100004],[120.76612164700009,17.666472790000057],[120.76425646200005,17.66479135000003],[120.75979061400005,17.664621046000036],[120.75744287500004,17.661731647000067],[120.75470397800007,17.663950740000075],[120.75300875800008,17.663156858000036],[120.75009150500011,17.664333800000065],[120.7469358510001,17.660588061000055],[120.7363480360001,17.662065600000062],[120.72908850300007,17.659575016000076],[120.72651338100002,17.66218305600006],[120.72407328700001,17.66912852100006],[120.70520705900003,17.67780545000005],[120.70406821100005,17.674468860000047],[120.7011975040001,17.673045279000064],[120.69923519800011,17.667714171000057],[120.69309743200006,17.664503875000037],[120.69079956300004,17.661150457000076],[120.68200567000008,17.65800645300004],[120.67190530900007,17.647583522000048],[120.66741853700012,17.64661860700005],[120.66555168100001,17.64409710500007],[120.66273291200002,17.646341920000054],[120.65905982400011,17.642255969000075],[120.64987504600003,17.636952348000023],[120.65702420100001,17.634821832000057],[120.66817902600008,17.636803281000027],[120.69166362600004,17.63373047300007],[120.70381196400001,17.623465451000072],[120.70863190700004,17.62425560500003],[120.71519449000004,17.622193780000032],[120.72171698500006,17.628781333000063],[120.73519640000006,17.625657430000047],[120.73924487300008,17.622728641000037],[120.74029422500007,17.617019108000022],[120.74275546000001,17.617779254000027],[120.74526950800009,17.621975587000065],[120.75022696100007,17.621579395000026],[120.74773018700012,17.63086387100003],[120.74998373000005,17.630764835000036],[120.75164801000005,17.627791106000075],[120.75415042300006,17.62700419300006],[120.75751866400003,17.62868196200003],[120.76016982800002,17.63355668400004],[120.7635051630001,17.631846255000028],[120.77094957000008,17.640712500000063],[120.77673018100006,17.65721185800004],[120.77803266600006,17.66674056100004]]]}},{"type":"Feature","properties":{"shapeName":"La Paz","shapeISO":"","shapeID":"30758251B73355219145022","shapeGroup":"PHL","shapeType":"ADM3","psgc_code":"1400108000","legacy_psgc_code":"140108000","province":"Abra"},"geometry":{"type":"Polygon","coordinates":[[[120.6192128990001,17.627506234000066],[120.62824004600009,17.630186725000044],[120.63910911200003,17.62869833900004],[120.64850584200008,17.634485651000034],[120.64987504600003,17.636952348000023],[120.65905982400011,17.642255969000075],[120.66273291200002,17.646341920000054],[120.66555168100001,17.64409710500007],[120.66741853700012,17.64661860700005],[120.67190530900007,17.647583522000048],[120.68200567000008,17.65800645300004],[120.69079956300004,17.661150457000076],[120.69309743200006,17.664503875000037],[120.69923519800011,17.667714171000057],[120.7011975040001,17.673045279000064],[120.70406821100005,17.674468860000047],[120.70520705900003,17.67780545000005],[120.7075036330001,17.685234982000054],[120.70554565300006,17.69579568000006],[120.70875978400011,17.71055038000003],[120.6951222350001,17.71035494100005],[120.68202210700008,17.707998403000033],[120.67846253300002,17.70713260900004],[120.67395218800004,17.70232315000004],[120.6785020640001,17.693648903000053],[120.6756233960001,17.686388128000033],[120.66979201600009,17.677432794000026],[120.66254454300008,17.672333286000026],[120.65427326200006,17.674252915000068],[120.63990964700008,17.673638674000074],[120.63778574600008,17.67458373100004],[120.63069682900004,17.67160790500003],[120.62729235100005,17.672465527000043],[120.627425119,17.675220155000034],[120.62489397800005,17.67676725800004],[120.625071348,17.68003856100006],[120.61784066900009,17.682743601000027],[120.61386709600004,17.68106120300007],[120.6118384670001,17.677314583000054],[120.60899436600005,17.675590216000046],[120.60569519900002,17.676577036000026],[120.5975660260001,17.67372702800003],[120.6040521760001,17.667085403000044],[120.59627463000004,17.65349307400004],[120.60872156300002,17.631996911000044],[120.60741931300004,17.628049109000074],[120.6087521930001,17.625961226000072],[120.6164864100001,17.625158361000047],[120.6192128990001,17.627506234000066]],[[120.65653987700011,17.645732044000056],[120.65540540300003,17.644599516000028],[120.65446554800008,17.645753727000056],[120.65478439600008,17.648650538000027],[120.65775022800005,17.64779803700003],[120.65653987700011,17.645732044000056]],[[120.66853856400007,17.65129233400006],[120.6658716930001,17.651784656000075],[120.66795999100009,17.653143815000078],[120.66853856400007,17.65129233400006]]]}},{"type":"Feature","properties":{"shapeName":"Lacub","shapeISO":"","shapeID":"30758251B49007488326258","shapeGroup":"PHL","shapeType":"ADM3","psgc_code":"1400109000","legacy_psgc_code":"140109000","province":"Abra"},"geometry":{"type":"Polygon","coordinates":[[[121.11067267300007,17.684892269000045],[121.10883458600006,17.739445818000036],[120.94422030500004,17.73486257600007],[120.91635024300001,17.744187543000066],[120.90669345300012,17.763858902000038],[120.88590909100003,17.75447779500007],[120.84843201300009,17.69570985300004],[120.8394294520001,17.67815746800005],[120.89251576400011,17.645779408000067],[120.9128236250001,17.642727355000034],[120.95667083700005,17.648442312000043],[120.95549437000011,17.62793687800007],[120.96913293400007,17.637934319000067],[120.9656688450001,17.643868333000057],[120.99861022200002,17.657214585000077],[121.01709792400004,17.652225331000068],[121.02436444000011,17.647692738000046],[121.03389913800004,17.648811926000064],[121.04123589700009,17.65994869900004],[121.04604792000009,17.67347522800003],[121.0547392410001,17.685286312000073],[121.06870164000009,17.684672845000023],[121.08981004500004,17.67092755500005],[121.09530265900003,17.670817621000026],[121.10137862900001,17.673671539000054],[121.10778942600007,17.683711734000042],[121.11067267300007,17.684892269000045]]]}},{"type":"Feature","properties":{"shapeName":"Lagangilang","shapeISO":"","shapeID":"30758251B70934774577797","shapeGroup":"PHL","shapeType":"ADM3","psgc_code":"1400110000","legacy_psgc_code":"140110000","province":"Abra"},"geometry":{"type":"Polygon","coordinates":[[[120.78347734700003,17.576274779000073],[120.7906312240001,17.58982829300004],[120.79249692600001,17.601571671000045],[120.81204915600006,17.62931958000007],[120.83156603200007,17.647216618000073],[120.83030301100007,17.656182838000063],[120.83413019000011,17.66841366500006],[120.8394294520001,17.67815746800005],[120.83413019000011,17.687901272000033],[120.8079757700001,17.69781602000006],[120.78951382600007,17.712688141000058],[120.78387267700009,17.711149646000024],[120.7794281350001,17.70516660800007],[120.77803266600006,17.66674056100004],[120.77673018100006,17.65721185800004],[120.77094957000008,17.640712500000063],[120.7635051630001,17.631846255000028],[120.76016982800002,17.63355668400004],[120.75751866400003,17.62868196200003],[120.75415042300006,17.62700419300006],[120.75164801000005,17.627791106000075],[120.74998373000005,17.630764835000036],[120.74773018700012,17.63086387100003],[120.75022696100007,17.621579395000026],[120.74526950800009,17.621975587000065],[120.74275546000001,17.617779254000027],[120.74029422500007,17.617019108000022],[120.73924487300008,17.622728641000037],[120.73519640000006,17.625657430000047],[120.72171698500006,17.628781333000063],[120.71519449000004,17.622193780000032],[120.72064028500006,17.61890902700003],[120.72163592200002,17.61685552600005],[120.71532063100005,17.588713159000065],[120.72224720800011,17.585571901000037],[120.72882043600009,17.577816254000027],[120.73551419000012,17.583513125000025],[120.73844672100006,17.58140245000004],[120.74278014300012,17.581439807000038],[120.749957676,17.578147167000054],[120.75485180800001,17.57392629000003],[120.75843923500008,17.573328385000025],[120.76922141700004,17.576965338000036],[120.77469275100009,17.58243667200003],[120.78347734700003,17.576274779000073]]]}},{"type":"Feature","properties":{"shapeName":"Lagayan","shapeISO":"","shapeID":"30758251B52711764832029","shapeGroup":"PHL","shapeType":"ADM3","psgc_code":"1400111000","legacy_psgc_code":"140111000","province":"Abra"},"geometry":{"type":"Polygon","coordinates":[[[120.68202210700008,17.707998403000033],[120.6951222350001,17.71035494100005],[120.70875978400011,17.71055038000003],[120.71028634700008,17.72624368000004],[120.7188403020001,17.733446375000028],[120.7374243160001,17.72713334200006],[120.75807096300002,17.72587989300007],[120.76502633400003,17.739570050000054],[120.78630131000011,17.763629896000054],[120.77068758000007,17.76764538900005],[120.77003663500011,17.811355072000026],[120.71309088700002,17.85995599300003],[120.69086868800002,17.83457964200005],[120.68185365600004,17.830346956000028],[120.6717216400001,17.828020168000023],[120.67281987600006,17.73327270900006],[120.67511338600002,17.718451472000027],[120.68202210700008,17.707998403000033]]]}},{"type":"Feature","properties":{"shapeName":"Langiden","shapeISO":"","shapeID":"30758251B76383388538181","shapeGroup":"PHL","shapeType":"ADM3","psgc_code":"1400112000","legacy_psgc_code":"140112000","province":"Abra"},"geometry":{"type":"Polygon","coordinates":[[[120.52968731700003,17.692937735000044],[120.5163850560001,17.649240339000073],[120.49781832400004,17.625130266000042],[120.48809572800008,17.58461679900006],[120.48758458800012,17.56698584000003],[120.4891025390001,17.560803193000027],[120.53763260500011,17.559725094000044],[120.53912259800006,17.572373904000074],[120.54260698300004,17.57604821600006],[120.54861801400011,17.579086630000063],[120.55291818700005,17.578167517000054],[120.56285061500012,17.569899055000064],[120.56729803000007,17.57074635400005],[120.5707826260001,17.576045072000056],[120.57826927200006,17.57936442500005],[120.58382667300009,17.578323203000025],[120.59149379200005,17.571604136000076],[120.59755151900004,17.569592427000032],[120.59916400800012,17.571052294000026],[120.59925944800011,17.574621553000043],[120.59201771500011,17.588188209000066],[120.58020238300003,17.59789657500005],[120.5758472120001,17.608176055000058],[120.57507440200004,17.616753094000046],[120.56591556600006,17.626433956000028],[120.55274489200008,17.665293246000033],[120.52968731700003,17.692937735000044]]]}},{"type":"Feature","properties":{"shapeName":"Licuan-Baay","shapeISO":"","shapeID":"30758251B20296785159128","shapeGroup":"PHL","shapeType":"ADM3","psgc_code":"1400113000","legacy_psgc_code":"140113000","province":"Abra"},"geometry":{"type":"Polygon","coordinates":[[[120.784011,17.56023],[120.79711003700004,17.53277474300006],[120.80864854200001,17.517607661000056],[120.8251805750001,17.502720574000023],[120.93221681300008,17.485042431000068],[120.97230887500007,17.503707333000023],[120.95264264200011,17.50861517000004],[120.9409746980001,17.52204118900005],[120.95212562100005,17.534869194000066],[120.9514581840001,17.544587711000077],[120.94303812200008,17.555311067000048],[120.93279000700011,17.56074711800005],[120.93509960400002,17.573769119000076],[120.9376022130001,17.576939081000035],[120.9388859180001,17.58388073900005],[120.9438976130001,17.59290555800004],[120.94460020400004,17.599561062000078],[120.95024443600005,17.61079283600003],[120.95215698100003,17.61854214600004],[120.94962303800003,17.623599244000047],[120.95549437000011,17.62793687800007],[120.95667083700005,17.648442312000043],[120.9128236250001,17.642727355000034],[120.89251576400011,17.645779408000067],[120.8394294520001,17.67815746800005],[120.83413019000011,17.66841366500006],[120.83030301100007,17.656182838000063],[120.83156603200007,17.647216618000073],[120.81204915600006,17.62931958000007],[120.79249692600001,17.601571671000045],[120.7906312240001,17.58982829300004],[120.78347734700003,17.576274779000073],[120.78563541900007,17.571820650000063],[120.785308772,17.568880829000022],[120.78119269900003,17.56342171600005],[120.784011,17.56023]]]}},{"type":"Feature","properties":{"shapeName":"Luba","shapeISO":"","shapeID":"30758251B28031934346608","shapeGroup":"PHL","shapeType":"ADM3","psgc_code":"1400114000","legacy_psgc_code":"140114000","province":"Abra"},"geometry":{"type":"Polygon","coordinates":[[[120.76311919400007,17.37170073900006],[120.70744818300011,17.370338308000044],[120.68188860700002,17.392188841000063],[120.67458792200011,17.392153860000064],[120.66510233500003,17.387630095000077],[120.65801579300012,17.37906056500003],[120.65181991800011,17.359787075000042],[120.64467847000003,17.355596263000052],[120.64528587000007,17.352206101000036],[120.64363543000002,17.34668734400003],[120.62155302500003,17.32605091000005],[120.626540567,17.32198119700007],[120.62647195900001,17.311138877000076],[120.62784195000006,17.30998041600003],[120.61928233200001,17.294434202000048],[120.636169988,17.27562854300004],[120.66649115900009,17.263418495000053],[120.67840099500006,17.256838869000035],[120.6871421510001,17.263083366000046],[120.71013131900008,17.285513868000066],[120.72692645600011,17.31010443400004],[120.73996744100009,17.317486674000065],[120.76748172300006,17.33929726100007],[120.76311919400007,17.37170073900006]]]}},{"type":"Feature","properties":{"shapeName":"Malibcong","shapeISO":"","shapeID":"30758251B83293009371057","shapeGroup":"PHL","shapeType":"ADM3","psgc_code":"1400115000","legacy_psgc_code":"140115000","province":"Abra"},"geometry":{"type":"Polygon","coordinates":[[[121.08981004500004,17.67092755500005],[121.06870164000009,17.684672845000023],[121.0547392410001,17.685286312000073],[121.04604792000009,17.67347522800003],[121.04123589700009,17.65994869900004],[121.03389913800004,17.648811926000064],[121.02436444000011,17.647692738000046],[121.01709792400004,17.652225331000068],[120.99861022200002,17.657214585000077],[120.9656688450001,17.643868333000057],[120.96913293400007,17.637934319000067],[120.95549437000011,17.62793687800007],[120.94962303800003,17.623599244000047],[120.95215698100003,17.61854214600004],[120.95024443600005,17.61079283600003],[120.94460020400004,17.599561062000078],[120.9438976130001,17.59290555800004],[120.9388859180001,17.58388073900005],[120.9376022130001,17.576939081000035],[120.93509960400002,17.573769119000076],[120.93279000700011,17.56074711800005],[120.94303812200008,17.555311067000048],[120.9514581840001,17.544587711000077],[120.95212562100005,17.534869194000066],[120.9409746980001,17.52204118900005],[120.95264264200011,17.50861517000004],[120.97230887500007,17.503707333000023],[120.99545500300007,17.489607008000064],[120.99977919000003,17.494860908000078],[121.02810466300002,17.507897295000078],[121.03364106100003,17.511994918000028],[121.03788846100008,17.518238143000076],[121.05939327600004,17.528416694000043],[121.06992636900009,17.547774894000042],[121.07316134700011,17.549341257000037],[121.08048317100008,17.548210964000077],[121.10209294700007,17.549275671000032],[121.10902357500004,17.553992790000052],[121.1122802540001,17.570890861000066],[121.11155955800007,17.576103395000075],[121.11613839200004,17.58133871900003],[121.1169102240001,17.58617556100006],[121.11109822100002,17.598684629000047],[121.09395511000002,17.60690357900006],[121.08918661100006,17.61366613900003],[121.09039717400003,17.621290806000047],[121.09831187100008,17.630879306000054],[121.09045829400009,17.643479373000048],[121.0896172680001,17.655858248000072],[121.09112967600004,17.664431473000036],[121.08981004500004,17.67092755500005]]]}},{"type":"Feature","properties":{"shapeName":"Manabo","shapeISO":"","shapeID":"30758251B10650889631095","shapeGroup":"PHL","shapeType":"ADM3","psgc_code":"1400116000","legacy_psgc_code":"140116000","province":"Abra"},"geometry":{"type":"Polygon","coordinates":[[[120.7601917510001,17.415871847000062],[120.7585222890001,17.41567786400003],[120.75582486100006,17.41874705300006],[120.75198128200009,17.426787699000045],[120.74424939000005,17.43277411100007],[120.74050047100002,17.433629581000048],[120.75119291200008,17.441123306000065],[120.74591109300002,17.444739070000026],[120.74836464100008,17.449561257000028],[120.74273492100008,17.448507585000073],[120.72881231400004,17.45660735000007],[120.72470072200008,17.455669619000048],[120.721310463,17.453000691000057],[120.70724449300008,17.452712158000054],[120.70551329700004,17.454299088000027],[120.69032066000011,17.456712715000037],[120.67582726700005,17.45674245300006],[120.664224106,17.42756177700005],[120.67388090700001,17.403724675000035],[120.68188860700002,17.392188841000063],[120.70744818300011,17.370338308000044],[120.76311919400007,17.37170073900006],[120.7601917510001,17.415871847000062]]]}},{"type":"Feature","properties":{"shapeName":"Peñarrubia","shapeISO":"","shapeID":"30758251B26055192446489","shapeGroup":"PHL","shapeType":"ADM3","psgc_code":"1400117000","legacy_psgc_code":"140117000","province":"Abra"},"geometry":{"type":"Polygon","coordinates":[[[120.65539428200009,17.50800149500003],[120.65553472300007,17.507982853000044],[120.69064973400009,17.50323588300006],[120.6974903580001,17.509876191000046],[120.69482493700002,17.536261007000064],[120.6857636200001,17.547517449000054],[120.68981081200002,17.56178519200006],[120.68079024100007,17.565014570000073],[120.6787464460001,17.562293553000075],[120.67421030800006,17.563415250000048],[120.658481907,17.57373009400004],[120.65165553500003,17.573666827000068],[120.63781101600011,17.568510725000067],[120.6382240910001,17.563011305000032],[120.6348221930001,17.55937551100004],[120.63850424000009,17.55568119000003],[120.63686653000002,17.547346944000026],[120.63235807,17.537824060000048],[120.63375233600004,17.529933810000045],[120.6266881250001,17.52170333300006],[120.64812934800011,17.520704477000038],[120.65539428200009,17.50800149500003]]]}},{"type":"Feature","properties":{"shapeName":"Pidigan","shapeISO":"","shapeID":"30758251B9631620004584","shapeGroup":"PHL","shapeType":"ADM3","psgc_code":"1400118000","legacy_psgc_code":"140118000","province":"Abra"},"geometry":{"type":"Polygon","coordinates":[[[120.59755151900004,17.569592427000032],[120.59149379200005,17.571604136000076],[120.58382667300009,17.578323203000025],[120.57826927200006,17.57936442500005],[120.5707826260001,17.576045072000056],[120.56729803000007,17.57074635400005],[120.56285061500012,17.569899055000064],[120.55291818700005,17.578167517000054],[120.54861801400011,17.579086630000063],[120.54260698300004,17.57604821600006],[120.53912259800006,17.572373904000074],[120.53763260500011,17.559725094000044],[120.54048242800002,17.54261808600006],[120.53790868400006,17.538600650000035],[120.53499246500007,17.53816076100003],[120.54749497800003,17.525728258000072],[120.55157294100002,17.525227521000033],[120.552837855,17.51558419400004],[120.56549074100008,17.50175551600006],[120.57589346400005,17.49101272300004],[120.58889100400006,17.492162257000075],[120.59483203500008,17.50797174400003],[120.603600819,17.51188619100003],[120.60916215500004,17.511359130000073],[120.61256634300003,17.53029657600007],[120.60665491100008,17.538309754000068],[120.60633336300009,17.557862981000028],[120.60982691600009,17.559518256000047],[120.61078048400009,17.562552519000064],[120.59755151900004,17.569592427000032]]]}},{"type":"Feature","properties":{"shapeName":"Pilar","shapeISO":"","shapeID":"30758251B40403541911249","shapeGroup":"PHL","shapeType":"ADM3","psgc_code":"1400119000","legacy_psgc_code":"140119000","province":"Abra"},"geometry":{"type":"Polygon","coordinates":[[[120.55901109000001,17.311668952000048],[120.5646140120001,17.311435278000033],[120.5667598550001,17.307159984000066],[120.59021434400006,17.308653242000048],[120.59361117000003,17.310185620000027],[120.59599555600005,17.321932692000075],[120.59085191000008,17.33018177300005],[120.58401814400008,17.333486977000064],[120.58283129800009,17.336927094000032],[120.59274749500003,17.349727658000063],[120.6000062810001,17.356038515000023],[120.60701494000011,17.35632666500004],[120.61577762700006,17.35973999600003],[120.62325721400009,17.385919416000036],[120.62415577700006,17.39608360400007],[120.62100326300003,17.40372271600006],[120.62267902300005,17.41250371900003],[120.6292170690001,17.422569201000044],[120.62504681500002,17.433111267000072],[120.62141515400003,17.43277198900006],[120.61791404100006,17.435006188000045],[120.57820133500002,17.438371862000054],[120.57696393700007,17.427636637000035],[120.56580030600003,17.407705388000068],[120.55754793900007,17.394985785000074],[120.54280925400008,17.371764064000047],[120.5378136380001,17.356986044000053],[120.53861061300006,17.343604767000045],[120.55752591600003,17.316734222000036],[120.55901109000001,17.311668952000048]]]}},{"type":"Feature","properties":{"shapeName":"Sallapadan","shapeISO":"","shapeID":"30758251B64291084214185","shapeGroup":"PHL","shapeType":"ADM3","psgc_code":"1400120000","legacy_psgc_code":"140120000","province":"Abra"},"geometry":{"type":"Polygon","coordinates":[[[120.78492762700012,17.41590240900007],[120.7861349740001,17.450228550000077],[120.81714716600004,17.45208629600006],[120.89058739400002,17.47017910900007],[120.93221681300008,17.485042431000068],[120.8251805750001,17.502720574000023],[120.80864854200001,17.517607661000056],[120.79711003700004,17.53277474300006],[120.784011,17.56023],[120.7614347650001,17.536260681000044],[120.74784730400006,17.534545527000034],[120.74534093900002,17.528927958000054],[120.7314812410001,17.463243602000034],[120.72881231400004,17.45660735000007],[120.74273492100008,17.448507585000073],[120.74836464100008,17.449561257000028],[120.74591109300002,17.444739070000026],[120.75119291200008,17.441123306000065],[120.74050047100002,17.433629581000048],[120.74424939000005,17.43277411100007],[120.75198128200009,17.426787699000045],[120.75582486100006,17.41874705300006],[120.7585222890001,17.41567786400003],[120.7601917510001,17.415871847000062],[120.76320421900004,17.416810589000022],[120.7668555240001,17.415173001000028],[120.78492762700012,17.41590240900007]]]}},{"type":"Feature","properties":{"shapeName":"San Isidro","shapeISO":"","shapeID":"30758251B37314448976896","shapeGroup":"PHL","shapeType":"ADM3","psgc_code":"1400121000","legacy_psgc_code":"140121000","province":"Abra"},"geometry":{"type":"Polygon","coordinates":[[[120.60916215500004,17.511359130000073],[120.603600819,17.51188619100003],[120.59483203500008,17.50797174400003],[120.58889100400006,17.492162257000075],[120.58165948100009,17.471827468000072],[120.57820133500002,17.438371862000054],[120.61791404100006,17.435006188000045],[120.62141515400003,17.43277198900006],[120.62504681500002,17.433111267000072],[120.62084733300003,17.43994050200007],[120.61823390100005,17.440903346000027],[120.61529434800002,17.44933859300005],[120.61373668400006,17.454668096000034],[120.61482820300012,17.463200378000067],[120.61390295000001,17.46591445300004],[120.6196395180001,17.468751895000025],[120.6258759210001,17.479660285000023],[120.64872119900008,17.46490473500006],[120.6526965160001,17.469083600000033],[120.67397442400011,17.470718692000048],[120.67409069300004,17.47990392300005],[120.67164904900005,17.491181992000065],[120.66525426800001,17.500483492000058],[120.65553472300007,17.507982853000044],[120.65539428200009,17.50800149500003],[120.654591922,17.500814779000052],[120.63775966600008,17.49067612400006],[120.61914064300004,17.50157660700006],[120.60916215500004,17.511359130000073]]]}},{"type":"Feature","properties":{"shapeName":"San Juan","shapeISO":"","shapeID":"30758251B17638049183402","shapeGroup":"PHL","shapeType":"ADM3","psgc_code":"1400122000","legacy_psgc_code":"140122000","province":"Abra"},"geometry":{"type":"Polygon","coordinates":[[[120.77803266600006,17.66674056100004],[120.7794281350001,17.70516660800007],[120.78387267700009,17.711149646000024],[120.78951382600007,17.712688141000058],[120.81139288800011,17.739951294000036],[120.78630131000011,17.763629896000054],[120.76502633400003,17.739570050000054],[120.75807096300002,17.72587989300007],[120.7374243160001,17.72713334200006],[120.7188403020001,17.733446375000028],[120.71028634700008,17.72624368000004],[120.70875978400011,17.71055038000003],[120.70554565300006,17.69579568000006],[120.7075036330001,17.685234982000054],[120.70520705900003,17.67780545000005],[120.72407328700001,17.66912852100006],[120.72651338100002,17.66218305600006],[120.72908850300007,17.659575016000076],[120.7363480360001,17.662065600000062],[120.7469358510001,17.660588061000055],[120.75009150500011,17.664333800000065],[120.75300875800008,17.663156858000036],[120.75470397800007,17.663950740000075],[120.75744287500004,17.661731647000067],[120.75979061400005,17.664621046000036],[120.76425646200005,17.66479135000003],[120.76612164700009,17.666472790000057],[120.77803266600006,17.66674056100004]]]}},{"type":"Feature","properties":{"shapeName":"San Quintin","shapeISO":"","shapeID":"30758251B76623665911400","shapeGroup":"PHL","shapeType":"ADM3","psgc_code":"1400123000","legacy_psgc_code":"140123000","province":"Abra"},"geometry":{"type":"Polygon","coordinates":[[[120.485314689,17.54793746300004],[120.48753841300004,17.544978136000054],[120.47573633200011,17.534417844000075],[120.46816717700005,17.51472706000004],[120.46778602600011,17.495665186000053],[120.47027997000009,17.488713578000045],[120.47441593400004,17.484247811000046],[120.48201273000006,17.48591910500005],[120.48788986700004,17.485038779000035],[120.49603249300003,17.48730653700005],[120.51159320200009,17.498232664000057],[120.51757323200002,17.499613546000035],[120.53374303500004,17.498412544000075],[120.54333671200004,17.492196233000072],[120.56549074100008,17.50175551600006],[120.552837855,17.51558419400004],[120.55157294100002,17.525227521000033],[120.54749497800003,17.525728258000072],[120.53499246500007,17.53816076100003],[120.53790868400006,17.538600650000035],[120.54048242800002,17.54261808600006],[120.53763260500011,17.559725094000044],[120.4891025390001,17.560803193000027],[120.48964597200006,17.55323366400006],[120.485314689,17.54793746300004]]]}},{"type":"Feature","properties":{"shapeName":"Tayum","shapeISO":"","shapeID":"30758251B59448438391168","shapeGroup":"PHL","shapeType":"ADM3","psgc_code":"1400124000","legacy_psgc_code":"140124000","province":"Abra"},"geometry":{"type":"Polygon","coordinates":[[[120.68981081200002,17.56178519200006],[120.6919371350001,17.570945323000046],[120.70225382900003,17.578150208000068],[120.70528365100006,17.582339110000078],[120.71532063100005,17.588713159000065],[120.72163592200002,17.61685552600005],[120.72064028500006,17.61890902700003],[120.71519449000004,17.622193780000032],[120.70863190700004,17.62425560500003],[120.70381196400001,17.623465451000072],[120.69166362600004,17.63373047300007],[120.66817902600008,17.636803281000027],[120.65702420100001,17.634821832000057],[120.64987504600003,17.636952348000023],[120.64850584200008,17.634485651000034],[120.63910911200003,17.62869833900004],[120.62824004600009,17.630186725000044],[120.6192128990001,17.627506234000066],[120.62315506000004,17.626591946000076],[120.62747943900001,17.622995478000064],[120.62715534000006,17.618047868000076],[120.62915352300001,17.613015134000022],[120.64053960000001,17.605660800000067],[120.65207541200004,17.595861567000043],[120.66542887800006,17.58187908700006],[120.67102296300004,17.580059168000048],[120.67699420800011,17.57578456500005],[120.68981081200002,17.56178519200006]]]}},{"type":"Feature","properties":{"shapeName":"Tineg","shapeISO":"","shapeID":"30758251B75797793552345","shapeGroup":"PHL","shapeType":"ADM3","psgc_code":"1400125000","legacy_psgc_code":"140125000","province":"Abra"},"geometry":{"type":"Polygon","coordinates":[[[121.08274766500006,17.83620884100003],[121.07739161500001,17.842775292000056],[121.06055366400005,17.847895117000064],[121.03641414300012,17.842518659000064],[121.01914682000006,17.841822682000043],[121.01063238100005,17.844534031000023],[121.00603195000008,17.848259769000038],[121.00246603900007,17.853323841000076],[121.0001914500001,17.90313304400007],[120.9943455660001,17.924710094000034],[120.98722843300004,17.938800343000025],[120.98468990700007,17.94174900400003],[120.9720086000001,17.946069066000064],[120.95633031300008,17.958085839000034],[120.94546979300003,17.959179393000056],[120.93125998500011,17.973635974000047],[120.9203956020001,17.956264822000037],[120.90997355400009,17.94992527000005],[120.8945855720001,17.95147229400004],[120.87937962800004,17.957658047000052],[120.86494466500005,17.961519929000076],[120.85020468100004,17.962860961000047],[120.83369465900012,17.95945428300007],[120.82604262300003,17.95475861500006],[120.81005946700009,17.935047884000028],[120.78375228200002,17.911236471000052],[120.75553122500003,17.903190151000047],[120.74365221500011,17.90140434400007],[120.73259717500002,17.896165732000043],[120.72824914700004,17.892507978000026],[120.72293107300004,17.88324755800005],[120.71309088700002,17.85995599300003],[120.77003663500011,17.811355072000026],[120.77068758000007,17.76764538900005],[120.78630131000011,17.763629896000054],[120.81139288800011,17.739951294000036],[120.78951382600007,17.712688141000058],[120.8079757700001,17.69781602000006],[120.83413019000011,17.687901272000033],[120.8394294520001,17.67815746800005],[120.84843201300009,17.69570985300004],[120.88590909100003,17.75447779500007],[120.90669345300012,17.763858902000038],[120.91635024300001,17.744187543000066],[120.94422030500004,17.73486257600007],[121.10883458600006,17.739445818000036],[121.0954090780001,17.80744437900006],[121.08274766500006,17.83620884100003]]]}},{"type":"Feature","properties":{"shapeName":"Tubo","shapeISO":"","shapeID":"30758251B14618145037490","shapeGroup":"PHL","shapeType":"ADM3","psgc_code":"1400126000","legacy_psgc_code":"140126000","province":"Abra"},"geometry":{"type":"Polygon","coordinates":[[[120.89104587700001,17.190818569000044],[120.9107590100001,17.213078086000053],[120.91189962700003,17.24891692500006],[120.91223169000011,17.253670903000057],[120.91664448000006,17.258944531000054],[120.9179180430001,17.267102484000077],[120.92632239900001,17.273389456000075],[120.92709183200009,17.276336626000045],[120.92482817500002,17.28479105300005],[120.93023821500003,17.294310680000024],[120.93785452200007,17.315444943000045],[120.944740034,17.32207284900005],[120.95622476800008,17.340714356000035],[120.91149813800007,17.342191307000064],[120.76748172300006,17.33929726100007],[120.73996744100009,17.317486674000065],[120.72692645600011,17.31010443400004],[120.71013131900008,17.285513868000066],[120.6871421510001,17.263083366000046],[120.67840099500006,17.256838869000035],[120.67670691800004,17.249287191000064],[120.67006023300007,17.24628413100004],[120.66949373300008,17.244610845000068],[120.67308314500008,17.24240648500006],[120.68270842800007,17.243606917000022],[120.6798764990001,17.235214805000055],[120.6834696840001,17.22615385000006],[120.68203495800003,17.21805789900003],[120.67599686500012,17.211330383000075],[120.67619933500009,17.20727135900006],[120.67990959300005,17.20209129600005],[120.68001311700004,17.19879421400003],[120.67244849400004,17.19476994000007],[120.67255080100006,17.192528494000044],[120.6792721810001,17.19139559000007],[120.68054693500005,17.18724638900005],[120.68784553000012,17.18409699500006],[120.68814547300008,17.181747447000077],[120.68674574200008,17.18074764000005],[120.68891621000012,17.17941369400006],[120.68879307100008,17.176004087000024],[120.69105215500008,17.17550856500003],[120.6916257580001,17.172729916000037],[120.70276014,17.174974877000068],[120.73402481800008,17.168067981000036],[120.73500186100011,17.164210999000034],[120.73937195300005,17.159150177000072],[120.74409083300009,17.162442465000026],[120.74896177300002,17.156051904000037],[120.75133329500011,17.15525632500004],[120.78622417600002,17.15884883600006],[120.79619547000004,17.161847805000036],[120.80474638400005,17.17126978500005],[120.82752492300006,17.18124139500003],[120.85315334200004,17.187441957000033],[120.88231281900005,17.18872262000002],[120.89104587700001,17.190818569000044]]]}},{"type":"Feature","properties":{"shapeName":"Villaviciosa","shapeISO":"","shapeID":"30758251B55452258834598","shapeGroup":"PHL","shapeType":"ADM3","psgc_code":"1400127000","legacy_psgc_code":"140127000","province":"Abra"},"geometry":{"type":"Polygon","coordinates":[[[120.67397442400011,17.470718692000048],[120.6526965160001,17.469083600000033],[120.64872119900008,17.46490473500006],[120.6258759210001,17.479660285000023],[120.6196395180001,17.468751895000025],[120.61390295000001,17.46591445300004],[120.61482820300012,17.463200378000067],[120.61373668400006,17.454668096000034],[120.61529434800002,17.44933859300005],[120.61823390100005,17.440903346000027],[120.62084733300003,17.43994050200007],[120.62504681500002,17.433111267000072],[120.6292170690001,17.422569201000044],[120.62267902300005,17.41250371900003],[120.62100326300003,17.40372271600006],[120.62415577700006,17.39608360400007],[120.62325721400009,17.385919416000036],[120.61577762700006,17.35973999600003],[120.60701494000011,17.35632666500004],[120.6000062810001,17.356038515000023],[120.59274749500003,17.349727658000063],[120.58283129800009,17.336927094000032],[120.58401814400008,17.333486977000064],[120.59085191000008,17.33018177300005],[120.59599555600005,17.321932692000075],[120.59361117000003,17.310185620000027],[120.61194929200008,17.302219217000072],[120.61928233200001,17.294434202000048],[120.62784195000006,17.30998041600003],[120.62647195900001,17.311138877000076],[120.626540567,17.32198119700007],[120.62155302500003,17.32605091000005],[120.64363543000002,17.34668734400003],[120.64528587000007,17.352206101000036],[120.64467847000003,17.355596263000052],[120.65181991800011,17.359787075000042],[120.65801579300012,17.37906056500003],[120.66510233500003,17.387630095000077],[120.67458792200011,17.392153860000064],[120.68188860700002,17.392188841000063],[120.67388090700001,17.403724675000035],[120.664224106,17.42756177700005],[120.67582726700005,17.45674245300006],[120.67397442400011,17.470718692000048]]]}}]}
