{"type":"FeatureCollection","source":{"dataset":"geoBoundaries gbOpen PHL ADM3","commit":"9469f09","license":"CC BY 3.0 IGO","boundary_year":2020,"url":"https://media.githubusercontent.com/media/wmgeolab/geoBoundaries/9469f09/releaseData/gbOpen/PHL/ADM3/geoBoundaries-PHL-ADM3_simplified.geojson","upstream_sources":["NAMRIA","PSA","OCHA Philippines"],"reference":"https://data.humdata.org/dataset/cod-ab-phl","psgc_reference":"https://psa.gov.ph/classification/psgc/provinces/0500000000","area_notes":"Bicol references use OCHA Philippines COD-AB v03 published polygon area_sqkm, converted to hectares for the importer comparison. These are polygon checks, not PSA LMB land-area totals. See docs/BICOL_BOUNDARY_SOURCES.md.","notice":"Approximate planning/reference boundaries, not legal, cadastral, or survey-grade."},"features":[{"type":"Feature","properties":{"shapeName":"Bacacay","shapeISO":"","shapeID":"30758251B91787985073572","shapeGroup":"PHL","shapeType":"ADM3","psgc_code":"0500501000","legacy_psgc_code":"050501000","province":"Albay"},"geometry":{"type":"MultiPolygon","coordinates":[[[[123.82836444600002,13.27407736300006],[123.82647860700001,13.272759334000057],[123.82688415900009,13.269248789000073],[123.8287117320001,13.267712585000027],[123.82878106200008,13.270071612000038],[123.83014186000003,13.26740084000005],[123.83169668800008,13.267907596000043],[123.83127132800007,13.270103515000073],[123.8364759970001,13.270534564000059],[123.82836444600002,13.27407736300006]]],[[[123.91044036000005,13.298303051000062],[123.90829212500012,13.296986353000023],[123.9094334460001,13.291849157000058],[123.90984850000007,13.295507782000072],[123.91139403200009,13.296294628000055],[123.91044036000005,13.298303051000062]]],[[[123.86531237400004,13.228009325000073],[123.86836069300011,13.226322710000034],[123.86831003300006,13.235846629000037],[123.86676031500008,13.238458709000042],[123.86804803900009,13.239734850000048],[123.86626460100001,13.242189134000057],[123.86527403800005,13.238815292000027],[123.85971641600008,13.240836688000059],[123.85449393300007,13.246743479000031],[123.84909799000002,13.248510100000033],[123.84543887600012,13.25773246500006],[123.85042838800007,13.256824179000034],[123.8514809180001,13.259559918000036],[123.84955026600005,13.261216758000046],[123.84430097900008,13.261837901000035],[123.84348216800004,13.262625136000054],[123.84479677200011,13.265114545000074],[123.84271189700007,13.266366144000074],[123.83983635300001,13.263993026000037],[123.83762370800002,13.264768777000029],[123.83776763300011,13.267244106000021],[123.83611034100011,13.265542991000075],[123.83095155700005,13.267103210000073],[123.82624938800006,13.264244303000055],[123.82539411400012,13.253104117000078],[123.82790274800004,13.251070705000075],[123.82949639100002,13.251518184000076],[123.8301115060001,13.245559237000066],[123.83096892900005,13.244384140000022],[123.831133152,13.246027131000062],[123.83194566700001,13.245453247000057],[123.83071776200006,13.241818311000031],[123.83232003800003,13.234180913000046],[123.82944688700002,13.23873661700003],[123.8280297870001,13.246012131000043],[123.81997842900012,13.247923189000062],[123.81960868400006,13.251792522000073],[123.8162115880001,13.25400865000006],[123.81689653700005,13.263750767000033],[123.8218051670001,13.266375943000071],[123.8171916020001,13.269157886000073],[123.82018355800005,13.269179352000037],[123.82070973900011,13.270841076000067],[123.8176131460001,13.272989901000074],[123.817807173,13.274924469000041],[123.8145067160001,13.280005550000055],[123.81333442900007,13.28474929500004],[123.8153929550001,13.286553254000069],[123.8156915510001,13.283946096000022],[123.81766053400008,13.283722641000054],[123.81547615900001,13.288131475000057],[123.80758528900003,13.291856305000067],[123.80354397600001,13.296777280000072],[123.80132710300006,13.296197732000053],[123.79944944500005,13.297761540000067],[123.79490060400008,13.29680967400003],[123.79433966700003,13.298047896000071],[123.79301463100012,13.296974653000063],[123.78604970300012,13.29944038900004],[123.78171330300006,13.303118019000067],[123.78019390400004,13.31148763300007],[123.77713519600002,13.312174266000056],[123.76656551200006,13.319238703000053],[123.76216025400004,13.304647642000077],[123.75996351300012,13.301881997000066],[123.7632222100001,13.297000260000061],[123.75942118800003,13.29272213400003],[123.73898868200001,13.279637968000031],[123.72723170600011,13.27739123200007],[123.69439226000009,13.259975761000021],[123.71893058400008,13.266639747000056],[123.72400537100009,13.264587217000042],[123.72631435000005,13.265809612000055],[123.73141454600011,13.265205570000035],[123.74111431500012,13.269447175000039],[123.75188183700004,13.26751101700006],[123.76929638400009,13.268424200000027],[123.78837179600009,13.26136013100006],[123.79238390400008,13.254175929000041],[123.8056345870001,13.24891627900007],[123.83193412600008,13.233511135000072],[123.84695790600006,13.24031194500003],[123.86125630300012,13.232557148000069],[123.86531237400004,13.228009325000073]]],[[[123.93797399700009,13.32452051000007],[123.93311595000011,13.320687044000067],[123.93230791700012,13.317683609000028],[123.93051560900005,13.317524132000074],[123.93436101300006,13.317429928000024],[123.93246967000005,13.314160475000051],[123.92825786600008,13.312709892000044],[123.92939719600008,13.31162013100004],[123.92704933000005,13.306730870000024],[123.93304560800004,13.304826115000026],[123.93364552000003,13.30700715300003],[123.93632747700008,13.305734432000065],[123.94056349400012,13.306390443000055],[123.94368087300006,13.304361669000059],[123.94863655800009,13.306026274000033],[123.94333469500009,13.31448548800006],[123.94420336200005,13.316935301000058],[123.94623362700008,13.317127740000046],[123.9455550350001,13.319657066000048],[123.93797399700009,13.32452051000007]]],[[[123.84192876300006,13.334104603000071],[123.85696108400009,13.322971943000027],[123.86244679700008,13.315948151000043],[123.85867463300008,13.312540745000035],[123.852527086,13.314178850000076],[123.85217887400006,13.303468397000074],[123.84918516300002,13.293105490000073],[123.84930348500006,13.283836782000037],[123.85007366400009,13.28455165500003],[123.84840601100007,13.281771122000066],[123.84989829100004,13.278169951000052],[123.84466361200009,13.275165044000062],[123.84230792100004,13.275995704000024],[123.83928254400007,13.273055940000063],[123.84174258300004,13.273325753000051],[123.84690245800005,13.269681909000042],[123.8451533980001,13.273060995000037],[123.85095611100007,13.271077595000065],[123.84778333200006,13.265930189000073],[123.85608785000011,13.262474669000028],[123.85607143000004,13.255311712000037],[123.85812280000005,13.255807968000056],[123.85849261200008,13.253392390000045],[123.85641562800004,13.25156466900006],[123.86182278000001,13.245727344000045],[123.86104279800008,13.242429756000035],[123.86366361900002,13.240759337000043],[123.864263004,13.243692800000076],[123.86096477900003,13.25014714100007],[123.86383827300006,13.250502452000035],[123.86385156500012,13.24815041900007],[123.86595924400001,13.254197004000048],[123.86632014600002,13.248802561000048],[123.86807034500009,13.25457007500006],[123.87128055100004,13.253897841000025],[123.87112952700011,13.250223480000045],[123.86837010600004,13.246211652000056],[123.87001952900005,13.237941997000064],[123.8742265730001,13.230268053000032],[123.87174532300003,13.224074340000072],[123.87687696600005,13.22490855600006],[123.87545312800012,13.228737485000067],[123.8787728210001,13.230562597000073],[123.88362968700005,13.22940585400005],[123.8846356360001,13.228187650000052],[123.88322890000006,13.225330170000063],[123.88615504900008,13.225067526000032],[123.88650973000006,13.229102602000069],[123.8923504060001,13.230673817000024],[123.89598592100003,13.235247713000035],[123.89834745600001,13.234104564000063],[123.8993032080001,13.234924771000067],[123.89796506800008,13.23665853700004],[123.900055285,13.239885426000058],[123.90613172600001,13.236329675000036],[123.9106732890001,13.23850537800007],[123.9114729050001,13.23802977500003],[123.90963840400002,13.236736075000067],[123.9122827330001,13.23725186400003],[123.90493093200007,13.250117771000077],[123.89497004600003,13.257741533000058],[123.89445475900004,13.260469371000056],[123.89261213500004,13.261055213000077],[123.89143366500002,13.265801407000026],[123.88663676300007,13.271159306000072],[123.88485294700001,13.281171741000037],[123.88585596200005,13.28223392600006],[123.88859524100008,13.28025628100005],[123.8882596730001,13.283635816000071],[123.89500494200001,13.282179921000022],[123.89520501600009,13.283685842000068],[123.8926477980001,13.286267873000043],[123.89425123,13.289458489000026],[123.89685150000003,13.292324533000055],[123.90075883700001,13.292332093000027],[123.90266828200004,13.301569889000064],[123.90993119900008,13.308450144000062],[123.91573852800002,13.30754270600005],[123.91799147800009,13.304817287000049],[123.92010884000001,13.30779797100007],[123.92322942400006,13.30918056400003],[123.92600600900005,13.31941151500007],[123.92897477000008,13.321043850000024],[123.9286136180001,13.323718094000071],[123.93020821000005,13.324417830000073],[123.92991838400008,13.328427473000033],[123.92672405100006,13.326647094000066],[123.92420428700007,13.328181433000054],[123.92436573200007,13.329645893000077],[123.92052803100012,13.330657603000077],[123.91761106800004,13.328152678000038],[123.91463124400002,13.33032251800006],[123.90630473400006,13.330125746000022],[123.90672947300004,13.333582853000053],[123.90520489800008,13.336140208000074],[123.90579636600012,13.337840902000039],[123.90767912600006,13.337398079000025],[123.90672414100004,13.339423384000042],[123.90356128000008,13.340999509000028],[123.89807929400001,13.340839534000054],[123.8970370400001,13.339427443000034],[123.89798883000003,13.337757786000054],[123.89501549400006,13.336536132000049],[123.88876504600012,13.340518932000066],[123.88805220000006,13.343349817000046],[123.88521457700006,13.345195250000074],[123.8861145510001,13.346977750000065],[123.8844561730001,13.34758251200003],[123.88222379800004,13.346802087000071],[123.88288539300004,13.345381005000036],[123.88099917300008,13.344199976000027],[123.88136203700003,13.342889897000077],[123.87575847900007,13.338959758000044],[123.87534843500009,13.342901837000056],[123.87233703600009,13.344230761000063],[123.8740103770001,13.345715919000043],[123.8736961620001,13.348422808000066],[123.86642193500006,13.350580625000077],[123.86417082300011,13.350619782000024],[123.86378349900008,13.348905169000034],[123.8602849240001,13.35003021600005],[123.85824576100003,13.345154692000051],[123.85354762100008,13.34255343700005],[123.85018650900008,13.337060072000043],[123.84192876300006,13.334104603000071]]]]}},{"type":"Feature","properties":{"shapeName":"Camalig","shapeISO":"","shapeID":"30758251B49910210330724","shapeGroup":"PHL","shapeType":"ADM3","psgc_code":"0500502000","legacy_psgc_code":"050502000","province":"Albay"},"geometry":{"type":"Polygon","coordinates":[[[123.6558972790001,13.061309596000058],[123.66011512300008,13.05858186100005],[123.65989473200011,13.05628424300005],[123.66217811800004,13.057823331000066],[123.66238013300006,13.056265378000035],[123.66289389400004,13.05768236700004],[123.6646089090001,13.05632852900004],[123.66353937400004,13.058368063000046],[123.66460415800009,13.057641648000072],[123.66598172300007,13.059239927000021],[123.66637982300006,13.057357219000039],[123.6673560810001,13.058375003000037],[123.66812826800003,13.057456117000072],[123.67018232700002,13.06134895200006],[123.67220198600012,13.060568474000036],[123.67198975100007,13.058165422000059],[123.67958584000007,13.068939356000044],[123.67213807400003,13.07229652600006],[123.66781559900005,13.078804293000076],[123.67226697400008,13.14028627600004],[123.66844717100003,13.161513564000074],[123.6653867120001,13.16504102500005],[123.66576149700006,13.170611369000028],[123.67295666700011,13.176284448000047],[123.68026342700011,13.191865367000048],[123.67867691100003,13.194765034000056],[123.67703728000004,13.208271793000051],[123.68355123800006,13.253206272000057],[123.66389821000007,13.24297806100003],[123.64420875100006,13.22484595900005],[123.63046397200003,13.201240729000062],[123.62073820600006,13.174663761000033],[123.6039046300001,13.138569954000047],[123.59400066,13.127309097000023],[123.58539038300012,13.124686146000045],[123.56798798500006,13.102839571000061],[123.56425644800004,13.100737019000064],[123.55729847100008,13.083385818000068],[123.58319061200007,13.089321712000071],[123.59026519500003,13.089643612000032],[123.59058016800009,13.088059619000035],[123.59269958400012,13.088227371000073],[123.59911934600007,13.084272105000025],[123.62252900200008,13.07473378700007],[123.627244,13.071130819000075],[123.64294680000012,13.065465549000066],[123.64892802700001,13.066698805000044],[123.65536027400003,13.064161040000045],[123.6558972790001,13.061309596000058]]]}},{"type":"Feature","properties":{"shapeName":"Daraga","shapeISO":"","shapeID":"30758251B85710407391035","shapeGroup":"PHL","shapeType":"ADM3","psgc_code":"0500503000","legacy_psgc_code":"050503000","province":"Albay"},"geometry":{"type":"Polygon","coordinates":[[[123.6558972790001,13.061309596000058],[123.65532329700011,13.057204550000051],[123.65725500200006,13.055911163000076],[123.65632828900004,13.054590566000059],[123.65488609600004,13.054343800000026],[123.65477106800006,13.055564185000037],[123.65289452200011,13.054653378000069],[123.6535463140001,13.050301459000025],[123.65011407600002,13.049037719000069],[123.64978533200008,13.046041965000029],[123.65390654300006,13.042336870000042],[123.6523016320001,13.039092578000066],[123.64984867100009,13.039930625000068],[123.64787283600003,13.036710207000056],[123.64648414900012,13.037911268000073],[123.64721574400005,13.039534483000068],[123.6454087730001,13.038230248000048],[123.63855162000004,13.039443411000036],[123.63949811000009,13.036903241000061],[123.63363653600004,13.033757786000024],[123.63469194100003,13.030671404000032],[123.63231017100009,13.030808898000032],[123.63121316200011,13.028679639000075],[123.62472933900006,13.027544512000077],[123.62288277200003,13.031500706000031],[123.62269560300001,13.029421683000066],[123.6206238740001,13.030286801000045],[123.62150954700007,13.025269845000025],[123.61993341100003,13.025252028000068],[123.62025036800003,13.022980362000055],[123.62187127600009,13.021142118000057],[123.61982037500002,13.020419983000068],[123.62086545200009,13.018160753000075],[123.62563975900002,13.016341324000052],[123.62522648200002,13.015066313000034],[123.62853865800002,13.01235749500006],[123.62840243000005,13.010109658000033],[123.6338971030001,13.010063926000043],[123.63574721700002,13.011033951000059],[123.63573265500008,13.014498333000063],[123.65000598900008,13.01932447300004],[123.65382555500003,13.011533192000059],[123.65696575900006,13.015916985000047],[123.65794687300001,13.014106833000028],[123.65877961000001,13.015558671000065],[123.66019660400002,13.014209402000063],[123.66099795600007,13.016416092000043],[123.663476478,13.016715430000033],[123.66198538000003,13.02173814200006],[123.68452626700002,13.028520850000064],[123.71486563300004,13.039950008000062],[123.72379858500005,13.041307884000048],[123.71769521400006,13.06788554800005],[123.71621368100011,13.092493840000031],[123.71671517400011,13.117816222000044],[123.71473052200008,13.12269423600003],[123.72106165900004,13.131751474000055],[123.7193596400001,13.133815940000034],[123.71997593300011,13.142346197000052],[123.72713856000007,13.14846159700005],[123.72801415900005,13.150718439000059],[123.72535668300009,13.151986462000025],[123.72830442800011,13.153824092000036],[123.7272801900001,13.16379158500007],[123.72906014600005,13.166069310000069],[123.72043796900005,13.178754163000065],[123.7144161870001,13.181232272000045],[123.71110905100011,13.192377771000054],[123.70748397600005,13.214331728000047],[123.68355123800006,13.253206272000057],[123.67703728000004,13.208271793000051],[123.67867691100003,13.194765034000056],[123.68026342700011,13.191865367000048],[123.67295666700011,13.176284448000047],[123.66576149700006,13.170611369000028],[123.6653867120001,13.16504102500005],[123.66844717100003,13.161513564000074],[123.67226697400008,13.14028627600004],[123.66781559900005,13.078804293000076],[123.67213807400003,13.07229652600006],[123.67958584000007,13.068939356000044],[123.67198975100007,13.058165422000059],[123.67220198600012,13.060568474000036],[123.67018232700002,13.06134895200006],[123.66812826800003,13.057456117000072],[123.6673560810001,13.058375003000037],[123.66637982300006,13.057357219000039],[123.66598172300007,13.059239927000021],[123.66460415800009,13.057641648000072],[123.66353937400004,13.058368063000046],[123.6646089090001,13.05632852900004],[123.66289389400004,13.05768236700004],[123.66238013300006,13.056265378000035],[123.66217811800004,13.057823331000066],[123.65989473200011,13.05628424300005],[123.66011512300008,13.05858186100005],[123.6558972790001,13.061309596000058]]]}},{"type":"Feature","properties":{"shapeName":"Guinobatan","shapeISO":"","shapeID":"30758251B92622239064783","shapeGroup":"PHL","shapeType":"ADM3","psgc_code":"0500504000","legacy_psgc_code":"050504000","province":"Albay"},"geometry":{"type":"Polygon","coordinates":[[[123.68355123800006,13.253206272000057],[123.62919603000012,13.275186097000073],[123.59527915300009,13.241458219000037],[123.57467466600008,13.224975931000074],[123.57578341100009,13.223828058000038],[123.57211959300002,13.220610523000062],[123.5652105040001,13.217165023000064],[123.56561310900008,13.214972385000067],[123.5585127060001,13.205225623000047],[123.52212802300005,13.173094498000069],[123.51156992900007,13.144496381000067],[123.50873495400003,13.14415290100004],[123.4860318750001,13.12162167200006],[123.48503193700003,13.11620627700006],[123.48950547800007,13.116620431000058],[123.48903966800003,13.113299698000048],[123.49161478200006,13.11461922500007],[123.4946433020001,13.109951469000066],[123.49583494600006,13.112602150000043],[123.49474793400009,13.113735665000036],[123.49698589900004,13.114532032000056],[123.4967417580001,13.112288253000031],[123.50366203200008,13.107212891000074],[123.50298924200001,13.10466290200003],[123.50658115700003,13.104323772000043],[123.50546956700009,13.103463689000023],[123.5067308240001,13.102522471000043],[123.50900308100006,13.10376754400005],[123.51087847200006,13.101814336000075],[123.51040378800008,13.099806657000045],[123.50837115900003,13.099526062000052],[123.51178893100007,13.099300846000062],[123.5108395630001,13.096483869000053],[123.51317537500006,13.093316432000051],[123.51140939600009,13.091500429000064],[123.51415374200008,13.089982656000075],[123.51905178100003,13.083249874000046],[123.52346815300007,13.085388680000051],[123.52543669200008,13.084468784000023],[123.52785461100007,13.08666266800003],[123.53043626700003,13.08640500100006],[123.53483346700011,13.082890098000064],[123.5352852630001,13.079467216000069],[123.53746910000007,13.079456745000073],[123.54364433600006,13.075622834000058],[123.54755992200012,13.068661860000077],[123.5546685160001,13.077139879000072],[123.55729847100008,13.083385818000068],[123.56425644800004,13.100737019000064],[123.56798798500006,13.102839571000061],[123.58539038300012,13.124686146000045],[123.59400066,13.127309097000023],[123.6039046300001,13.138569954000047],[123.62073820600006,13.174663761000033],[123.63046397200003,13.201240729000062],[123.64420875100006,13.22484595900005],[123.66389821000007,13.24297806100003],[123.68355123800006,13.253206272000057]]]}},{"type":"Feature","properties":{"shapeName":"Jovellar","shapeISO":"","shapeID":"30758251B38370299499479","shapeGroup":"PHL","shapeType":"ADM3","psgc_code":"0500505000","legacy_psgc_code":"050505000","province":"Albay"},"geometry":{"type":"Polygon","coordinates":[[[123.55729847100008,13.083385818000068],[123.5546685160001,13.077139879000072],[123.54755992200012,13.068661860000077],[123.54786670100009,13.062773923000066],[123.54551390600011,13.061576772000024],[123.54385735100004,13.055448243000058],[123.53994056400006,13.056743177000044],[123.53733503300009,13.055445852000048],[123.51649176300009,13.033277278000071],[123.51170109600002,13.032612550000067],[123.50390816300012,13.02340139000006],[123.49526658500008,13.020224150000047],[123.50589231100003,13.007606311000075],[123.51782511400006,13.012754216000076],[123.53782893100004,13.018134173000021],[123.54809213500005,13.024415272000056],[123.5573562840001,13.025738002000026],[123.56306575500003,13.023074812000061],[123.56591417700008,13.023890049000045],[123.56631518900008,13.026975099000026],[123.57578107000006,13.030249601000037],[123.57911460000003,13.030370636000043],[123.57848434800007,13.026367048000054],[123.58667824100007,13.022399644000075],[123.5891038530001,13.019519936000052],[123.59128947400006,13.022710146000065],[123.62025036800003,13.022980362000055],[123.61993341100003,13.025252028000068],[123.62150954700007,13.025269845000025],[123.6206238740001,13.030286801000045],[123.62269560300001,13.029421683000066],[123.62288277200003,13.031500706000031],[123.62472933900006,13.027544512000077],[123.63121316200011,13.028679639000075],[123.63231017100009,13.030808898000032],[123.63469194100003,13.030671404000032],[123.63363653600004,13.033757786000024],[123.63949811000009,13.036903241000061],[123.63855162000004,13.039443411000036],[123.6454087730001,13.038230248000048],[123.64721574400005,13.039534483000068],[123.64648414900012,13.037911268000073],[123.64787283600003,13.036710207000056],[123.64984867100009,13.039930625000068],[123.6523016320001,13.039092578000066],[123.65390654300006,13.042336870000042],[123.64978533200008,13.046041965000029],[123.65011407600002,13.049037719000069],[123.6535463140001,13.050301459000025],[123.65289452200011,13.054653378000069],[123.65477106800006,13.055564185000037],[123.65488609600004,13.054343800000026],[123.65632828900004,13.054590566000059],[123.65725500200006,13.055911163000076],[123.65532329700011,13.057204550000051],[123.6558972790001,13.061309596000058],[123.65536027400003,13.064161040000045],[123.64892802700001,13.066698805000044],[123.64294680000012,13.065465549000066],[123.627244,13.071130819000075],[123.62252900200008,13.07473378700007],[123.59911934600007,13.084272105000025],[123.59269958400012,13.088227371000073],[123.59058016800009,13.088059619000035],[123.59026519500003,13.089643612000032],[123.58319061200007,13.089321712000071],[123.55729847100008,13.083385818000068]]]}},{"type":"Feature","properties":{"shapeName":"Legazpi City","shapeISO":"","shapeID":"30758251B45508344321255","shapeGroup":"PHL","shapeType":"ADM3","psgc_code":"0500506000","legacy_psgc_code":"050506000","province":"Albay"},"geometry":{"type":"Polygon","coordinates":[[[123.86231079600009,13.041738276000046],[123.81195387700006,13.05216394100006],[123.81109321400004,13.054146397000068],[123.80760799100005,13.052114378000056],[123.80674546500006,13.052869659000066],[123.80413825700009,13.048545756000067],[123.79997827400007,13.046338409000043],[123.78935703900004,13.046201383000039],[123.77395567300005,13.051796912000043],[123.76473020300011,13.058365645000038],[123.75890280300007,13.058799927000052],[123.75737332200003,13.063258318000067],[123.755711689,13.063810071000034],[123.75905243200009,13.065601177000076],[123.76040732100012,13.06917939300007],[123.76127476400006,13.067887792000022],[123.76131776700004,13.06939045200005],[123.7642599300001,13.069419347000064],[123.76493906000007,13.075666658000046],[123.75865744300006,13.081061357000067],[123.75037931500003,13.084480636000023],[123.75554891800004,13.087575516000072],[123.75325335500008,13.088760205000028],[123.75201178300006,13.087939936000055],[123.75125128400009,13.08990803100005],[123.76176764900003,13.093754123000053],[123.76420110800007,13.091784853000036],[123.76572400100008,13.094254918000047],[123.76835209600006,13.091437954000071],[123.76946545100009,13.092207876000032],[123.77021179100007,13.08983151600006],[123.77289191400007,13.09132321900006],[123.77031015000011,13.08744527600004],[123.77570631300011,13.089531624000074],[123.77665894800009,13.093118835000041],[123.77570658800005,13.098161965000031],[123.78018268900007,13.102360392000037],[123.780176976,13.105855276000057],[123.78503426800012,13.110596481000073],[123.7860299030001,13.114708476000033],[123.78588960400009,13.118164641000021],[123.78355905500007,13.12172750700006],[123.78090269300003,13.122083535000058],[123.77841722000005,13.125839341000074],[123.78230929100005,13.130742405000035],[123.77508701500005,13.127635089000023],[123.76992968700006,13.128633237000031],[123.76727656500009,13.131650037000043],[123.76727468400009,13.134033103000036],[123.76172774600002,13.136998809000033],[123.75996960100008,13.142029981000064],[123.76190261800002,13.143741109000075],[123.76030924300005,13.145909331000041],[123.76110592500004,13.144419325000058],[123.75957177300006,13.143427761000055],[123.75638192300005,13.145103132000031],[123.7594166,13.146484422000071],[123.75726059600004,13.147444269000061],[123.75608431700005,13.151683306000052],[123.75691776100007,13.159143655000037],[123.75415275900002,13.174956419000068],[123.76430690900008,13.208693909000033],[123.73323399100002,13.22387395000004],[123.68355123800006,13.253206272000057],[123.70748397600005,13.214331728000047],[123.71110905100011,13.192377771000054],[123.7144161870001,13.181232272000045],[123.72043796900005,13.178754163000065],[123.72906014600005,13.166069310000069],[123.7272801900001,13.16379158500007],[123.72830442800011,13.153824092000036],[123.72535668300009,13.151986462000025],[123.72801415900005,13.150718439000059],[123.72713856000007,13.14846159700005],[123.71997593300011,13.142346197000052],[123.7193596400001,13.133815940000034],[123.72106165900004,13.131751474000055],[123.71473052200008,13.12269423600003],[123.71671517400011,13.117816222000044],[123.71621368100011,13.092493840000031],[123.71769521400006,13.06788554800005],[123.72379858500005,13.041307884000048],[123.71486563300004,13.039950008000062],[123.7187854450001,13.039206801000034],[123.7192015280001,13.037243611000065],[123.72156271900008,13.037237720000064],[123.72322732100008,13.034153940000067],[123.72153963500011,13.031261982000046],[123.72250530600002,13.029942252000069],[123.72013705600011,13.02990554400003],[123.72131722200004,13.027112712000076],[123.73445022100009,13.026391081000043],[123.7364397980001,13.016215794000061],[123.74311072600005,13.005257490000076],[123.74598040500007,12.996885520000035],[123.75432992100002,12.998370409000074],[123.7578458700001,12.997144665000064],[123.75942068200004,12.99848707800004],[123.75976777700009,12.996470523000028],[123.7616575180001,12.995864984000036],[123.76215491200003,12.997107576000076],[123.76831921000007,12.986435139000037],[123.78599322600007,12.997146809000071],[123.78710748200001,13.004534288000059],[123.78878227900009,13.004136533000064],[123.79103751700006,13.006643661000055],[123.79577553900003,13.00827792900003],[123.79580100900012,13.00997149400007],[123.80564823300006,13.01902807700003],[123.82253470700005,13.024403777000032],[123.86231079600009,13.041738276000046]]]}},{"type":"Feature","properties":{"shapeName":"Libon","shapeISO":"","shapeID":"30758251B33812388660229","shapeGroup":"PHL","shapeType":"ADM3","psgc_code":"0500507000","legacy_psgc_code":"050507000","province":"Albay"},"geometry":{"type":"Polygon","coordinates":[[[123.37317003100009,13.33751864900006],[123.38092833200005,13.330909831000042],[123.37871810100012,13.328955059000066],[123.37816778400008,13.323942266000074],[123.38218957800007,13.32277924500005],[123.38424108400011,13.31992486400003],[123.37988189500004,13.312341114000048],[123.37585330000002,13.31164414400007],[123.36973656700002,13.314586839000071],[123.37344662400005,13.310179654000024],[123.37661430500009,13.309342924000077],[123.37775489500007,13.30557415900006],[123.37565567000001,13.303013088000057],[123.37023597900009,13.300384878000045],[123.36663453400001,13.300471639000023],[123.36706559600009,13.302501728000038],[123.36577070500005,13.303411227000026],[123.3629663270001,13.299910238000052],[123.36044881300006,13.299699216000022],[123.35591929200007,13.30193915600006],[123.3526878670001,13.306672606000063],[123.33555191200003,13.294827203000068],[123.31225141000004,13.287249039000073],[123.29826975200001,13.27637715000003],[123.28522357100007,13.26951265100007],[123.28060600200001,13.263704974000063],[123.28296083700002,13.260568972000044],[123.28127328200003,13.258541065000031],[123.28675100700002,13.257567392000055],[123.29348140200011,13.25229437400003],[123.31393901400008,13.22294223700004],[123.31886515000008,13.209798898000031],[123.32285899600004,13.206199232000074],[123.3273411780001,13.198223321000057],[123.32610302300009,13.193939064000062],[123.3243820880001,13.192903881000063],[123.32509121200007,13.191975682000077],[123.32100826100009,13.188791405000075],[123.31728276000001,13.188986645000057],[123.31640931200002,13.191992302000074],[123.31371429900003,13.192351569000039],[123.31216831900008,13.191096274000074],[123.30965537100008,13.191633091000028],[123.30718509200005,13.187107259000072],[123.30455488400003,13.186925084000052],[123.3045564030001,13.178325402000041],[123.30716010900005,13.171772873000066],[123.31050413900005,13.169940440000062],[123.310664631,13.16711222500004],[123.30127682500006,13.155920280000032],[123.28828672100008,13.147004603000028],[123.29223701100011,13.131820215000062],[123.2977512000001,13.129747773000076],[123.34595278900008,13.168603721000068],[123.36813820100008,13.181720167000037],[123.38098604600009,13.185714956000027],[123.38473491500008,13.181626567000023],[123.3832353680001,13.184710542000062],[123.38452271500012,13.187638904000039],[123.38184899300006,13.188530145000072],[123.38191972700008,13.190001399000039],[123.38633349000008,13.188530145000072],[123.387380344,13.190482386000042],[123.38821499800008,13.187638904000039],[123.38968625200005,13.187695491000056],[123.38849793100007,13.189831639000033],[123.39063408000004,13.190256040000065],[123.39083213300012,13.193297575000031],[123.40548316200011,13.20826392400005],[123.42002023100008,13.220019225000044],[123.42457410500003,13.221394088000068],[123.42862276400001,13.228631823000057],[123.441020535,13.24123441300003],[123.45969181200007,13.24784986800006],[123.46208557000011,13.256624524000074],[123.46057504400005,13.257409490000043],[123.45955032100005,13.262951531000056],[123.45116479800004,13.266913114000033],[123.4638878180001,13.27778715200003],[123.46416201600005,13.284646620000046],[123.46158996200006,13.285593512000048],[123.45881279900004,13.291345985000078],[123.4619189870001,13.295346351000035],[123.46131829400008,13.29794331000005],[123.45142464800006,13.30889880500007],[123.43974135300004,13.316175482000062],[123.43949285000008,13.318412009000042],[123.43392116100006,13.324057974000027],[123.42947306500002,13.322713885000042],[123.42449299000009,13.32583094100005],[123.42031073400005,13.324964778000037],[123.41439194700001,13.328615763000073],[123.40544156400006,13.327016513000046],[123.40378621700006,13.330119497000055],[123.39879749300007,13.334653747000061],[123.39639939800009,13.339194464000059],[123.39259550500003,13.341061079000042],[123.38664841400009,13.340177719000053],[123.38337582500003,13.335821211000052],[123.38182927900004,13.337122470000054],[123.37317003100009,13.33751864900006]]]}},{"type":"Feature","properties":{"shapeName":"City of Ligao","shapeISO":"","shapeID":"30758251B54991272307692","shapeGroup":"PHL","shapeType":"ADM3","psgc_code":"0500508000","legacy_psgc_code":"050508000","province":"Albay"},"geometry":{"type":"Polygon","coordinates":[[[123.68355123800006,13.253206272000057],[123.6344442950001,13.298226663000037],[123.63508225400005,13.303763138000022],[123.59884972900011,13.31534361100006],[123.56814503300006,13.295985322000035],[123.5629354780001,13.284627403000059],[123.5555716240001,13.282281410000053],[123.5491950170001,13.27645078200004],[123.54385643500007,13.274559499000077],[123.53784213400002,13.266184643000031],[123.53154633000008,13.260352598000054],[123.52731935800011,13.258657132000053],[123.526542188,13.255486564000023],[123.52023799300002,13.251101492000032],[123.51855591300011,13.24766186100004],[123.51531127800001,13.244895600000063],[123.51373964000004,13.245939519000046],[123.50876944200002,13.242412959000035],[123.49919587700003,13.22808449200005],[123.49224946200002,13.224283402000026],[123.48913976800009,13.225499830000047],[123.48809744400012,13.222651135000035],[123.48440385700007,13.220367537000072],[123.48058628500007,13.22078024700005],[123.4753242270001,13.218579125000076],[123.47394852500008,13.218854265000061],[123.47312310400002,13.221536883000056],[123.47624742900007,13.222427265000022],[123.47638261000009,13.223695348000035],[123.47191996800007,13.22411558500005],[123.47174740300011,13.218097629000056],[123.46748272800005,13.21630921700006],[123.45806670000002,13.208675822000032],[123.4563420830001,13.209069771000031],[123.45523902800005,13.205099649000033],[123.45779722700001,13.198139582000067],[123.45249291900006,13.194832001000066],[123.45676671900003,13.191375594000021],[123.4548865490001,13.190167728000063],[123.45589969800005,13.185574080000038],[123.45262799200009,13.186173952000047],[123.4517177460001,13.181187756000043],[123.43840907000003,13.175904727000045],[123.43642497400003,13.176214384000048],[123.43632175500011,13.174815194000075],[123.43912013400006,13.174471131000075],[123.43858110200006,13.172991661000026],[123.42660324000008,13.17204670700005],[123.43519694200006,13.156967608000059],[123.44132949200002,13.151717959000052],[123.43857358800005,13.145179234000068],[123.43195577400002,13.145871106000072],[123.41942576300005,13.131120836000036],[123.42023747500002,13.130541687000061],[123.4187646370001,13.128546854000035],[123.41613776600002,13.13075060500006],[123.41253348600003,13.127830239000048],[123.409476014,13.12825635400003],[123.40820223300011,13.126667050000037],[123.40614548700012,13.127531818000023],[123.4067181040001,13.12586071100003],[123.40336366200006,13.125652165000076],[123.39471858900004,13.116126873000042],[123.38627153100003,13.10106457300003],[123.371965111,13.087680039000077],[123.3562690010001,13.067618663000076],[123.34702873600008,13.058594787000061],[123.34823504700012,13.055029158000025],[123.34667923500001,13.053620468000076],[123.352531182,13.052365756000029],[123.34959205900009,13.047295379000047],[123.34791881000001,13.04849529300003],[123.34601819800002,13.04790726300007],[123.34639341900004,13.046129606000022],[123.34346646800009,13.046941060000051],[123.34341135200009,13.044385770000076],[123.34165957500011,13.048658703000058],[123.34051161400009,13.045212923000065],[123.33780602900003,13.04472512600006],[123.33628138100005,13.041111927000031],[123.33383115400011,13.040575782000076],[123.333975484,13.038764302000061],[123.33656126800008,13.038251354000067],[123.33617483500007,13.037089970000068],[123.32997247800006,13.03737938100005],[123.32849824800007,13.036344480000025],[123.3282972720001,13.032933491000051],[123.32451199700006,13.032762571000035],[123.32422832600002,13.030566186000044],[123.32165721800004,13.033659888000045],[123.3171148670001,13.025019558000054],[123.30816665400005,13.024261673000069],[123.31949072700002,13.006927852000047],[123.32274248400006,13.005864149000047],[123.33081948800009,13.012328660000037],[123.33870611200007,13.011752685000033],[123.35054098400008,13.016880526000023],[123.35473610000008,13.021586675000037],[123.35564605800005,13.020163159000049],[123.35830551200002,13.02168043100005],[123.35897521800007,13.020562184000028],[123.36367014500001,13.022969562000071],[123.36988241300003,13.027570427000057],[123.36906140000008,13.02933996400003],[123.37042209100002,13.035592476000033],[123.37461520300008,13.038278963000039],[123.38335280900003,13.040824558000054],[123.38837584500004,13.039120211000068],[123.39078907400005,13.080241631000035],[123.38945949900005,13.081722268000021],[123.39129141400008,13.09755146200007],[123.39543263200005,13.102653432000068],[123.39829678600006,13.103489918000037],[123.41598201400006,13.101377671000023],[123.43712937700002,13.105663845000038],[123.43859053800008,13.103385390000028],[123.44042843900002,13.104624541000021],[123.43992815900003,13.102050741000028],[123.44160894900006,13.101357463000056],[123.44245832700005,13.105958214000054],[123.46553811500007,13.111215522000066],[123.46896053300009,13.11535924900005],[123.47175485600008,13.113742448000039],[123.47205537000002,13.116300155000033],[123.47598780900012,13.115982530000053],[123.47899236400008,13.114617142000043],[123.47923415700006,13.113065478000067],[123.47965519200011,13.116183062000061],[123.48165749100008,13.115747717000033],[123.48257604700007,13.113338166000062],[123.48436609900011,13.11458434800005],[123.4835876300001,13.11676767800003],[123.48503193700003,13.11620627700006],[123.4860318750001,13.12162167200006],[123.50873495400003,13.14415290100004],[123.51156992900007,13.144496381000067],[123.52212802300005,13.173094498000069],[123.5585127060001,13.205225623000047],[123.56561310900008,13.214972385000067],[123.5652105040001,13.217165023000064],[123.57211959300002,13.220610523000062],[123.57578341100009,13.223828058000038],[123.57467466600008,13.224975931000074],[123.59527915300009,13.241458219000037],[123.62919603000012,13.275186097000073],[123.68355123800006,13.253206272000057]]]}},{"type":"Feature","properties":{"shapeName":"Malilipot","shapeISO":"","shapeID":"30758251B40560232053392","shapeGroup":"PHL","shapeType":"ADM3","psgc_code":"0500509000","legacy_psgc_code":"050509000","province":"Albay"},"geometry":{"type":"MultiPolygon","coordinates":[[[[123.76656551200006,13.319238703000053],[123.76380803100005,13.319614447000049],[123.76097795200008,13.322756777000052],[123.74508767000009,13.324003205000054],[123.74313726300011,13.326794448000044],[123.74140684500003,13.335053316000028],[123.72361946,13.336217603000023],[123.71842784500006,13.334858412000074],[123.71555167500003,13.33042054300006],[123.70919597200009,13.331221422000056],[123.70760054700008,13.32936866600005],[123.70727287300008,13.324464611000053],[123.70423382400008,13.317103158000066],[123.70492047900007,13.313894960000027],[123.7004438780001,13.306138039000075],[123.70205356400004,13.301742294000064],[123.69949742800009,13.297276948000047],[123.69863011500001,13.286104042000034],[123.69573636000007,13.282093191000058],[123.68355123800006,13.253206272000057],[123.69439226000009,13.259975761000021],[123.72723170600011,13.27739123200007],[123.73898868200001,13.279637968000031],[123.75942118800003,13.29272213400003],[123.7632222100001,13.297000260000061],[123.75996351300012,13.301881997000066],[123.76216025400004,13.304647642000077],[123.76656551200006,13.319238703000053]]],[[[123.8602849240001,13.35003021600005],[123.8579215210001,13.353369254000029],[123.85402639400002,13.354295186000058],[123.8507975440001,13.354423255000029],[123.85004752500004,13.351319470000021],[123.8487559560001,13.35305842300005],[123.84565415200007,13.351228904000038],[123.84384376100002,13.352001276000067],[123.84310661000006,13.349751712000057],[123.84455175900007,13.348543470000038],[123.83906946800005,13.342721416000074],[123.84504202800008,13.339288841000041],[123.84015187700004,13.337468734000026],[123.84192876300006,13.334104603000071],[123.85018650900008,13.337060072000043],[123.85354762100008,13.34255343700005],[123.85824576100003,13.345154692000051],[123.8602849240001,13.35003021600005]]]]}},{"type":"Feature","properties":{"shapeName":"Malinao","shapeISO":"","shapeID":"30758251B79961363157368","shapeGroup":"PHL","shapeType":"ADM3","psgc_code":"0500510000","legacy_psgc_code":"050510000","province":"Albay"},"geometry":{"type":"Polygon","coordinates":[[[123.57150571400007,13.36533662200003],[123.57822276700006,13.356296947000033],[123.58652160100007,13.354990773000054],[123.5901675670001,13.35429630300007],[123.59272842300004,13.356018009000024],[123.5928875730001,13.354629070000044],[123.59502885400002,13.354064813000036],[123.59611396300011,13.355439285000045],[123.60122120800008,13.35143161600007],[123.60693611400006,13.352429916000062],[123.61430031500004,13.347702317000028],[123.6190901540001,13.346898918000022],[123.62673538800004,13.348418022000033],[123.63115574200003,13.344703942000024],[123.63083434600003,13.341354954000053],[123.63613379100002,13.335621035000031],[123.63898893700002,13.335667553000064],[123.64079762400002,13.333426514000053],[123.64699193000001,13.332203126000024],[123.65781043000004,13.341581693000023],[123.6596297640001,13.339852889000042],[123.66819011200005,13.349268104000032],[123.6712779500001,13.350219840000022],[123.67266668900004,13.34860044900006],[123.72808864500007,13.385405259000038],[123.72586950900006,13.391177498000047],[123.71520278000003,13.40645845900002],[123.71342375100005,13.418115413000066],[123.70702704300004,13.42485233800005],[123.70250285400004,13.433624959000042],[123.68750020200002,13.428490790000069],[123.6662032690001,13.42557991600006],[123.65736826700004,13.422889144000067],[123.64249424700006,13.415641708000067],[123.58243122100009,13.395386389000066],[123.5770305320001,13.379295598000056],[123.56798881000009,13.371857841000065],[123.57150571400007,13.36533662200003]]]}},{"type":"Feature","properties":{"shapeName":"Manito","shapeISO":"","shapeID":"30758251B52587531996198","shapeGroup":"PHL","shapeType":"ADM3","psgc_code":"0500511000","legacy_psgc_code":"050511000","province":"Albay"},"geometry":{"type":"Polygon","coordinates":[[[123.88091670600011,13.041047344000049],[123.89212967000003,13.03800548700002],[123.90240365800003,13.038820376000047],[123.90767866600004,13.041755151000075],[123.91243569100004,13.047547737000059],[123.9155897280001,13.05492922600007],[123.92101326300008,13.083766269000023],[123.92505210500008,13.096216772000048],[123.92917038300004,13.102068074000044],[123.92994182600012,13.113848200000064],[123.92941781000002,13.116501974000073],[123.92870025000002,13.115643243000022],[123.92635156100005,13.118249990000038],[123.92676515300002,13.120887665000055],[123.92281467100008,13.122231429000067],[123.9205016730001,13.121024091000038],[123.91468459900011,13.121577125000044],[123.91076179600009,13.12312772000007],[123.90981216000012,13.124798301000055],[123.9108512680001,13.126585968000029],[123.90894103700009,13.125745532000053],[123.90771979400006,13.128349921000051],[123.90848918800009,13.138508639000065],[123.90582631900008,13.141297977000022],[123.90268248100006,13.141754939000066],[123.89843697600008,13.138968988000045],[123.89616060100002,13.14079889900006],[123.88684025100008,13.142864584000051],[123.88588432100005,13.141252042000076],[123.88079904800009,13.141846717000021],[123.87948568700006,13.143200516000036],[123.87348897100003,13.140250526000045],[123.87256885700003,13.137714906000042],[123.86797061100003,13.139415404000033],[123.8616394610001,13.132728909000036],[123.86239799500004,13.126733257000069],[123.86487499300006,13.126339572000063],[123.86271768000006,13.12306615700004],[123.86567471500007,13.123597739000047],[123.86245701700011,13.11896289200007],[123.85980512700007,13.119036817000051],[123.85958332700011,13.111322138000048],[123.8568660740001,13.108298468000044],[123.85413512000002,13.107527394000044],[123.84263136600009,13.111690735000025],[123.8392973870001,13.110555709000039],[123.83966737500009,13.103736303000062],[123.83738871300011,13.101498112000058],[123.83889528300006,13.099475203000054],[123.83539590400005,13.097615654000037],[123.83929845300008,13.093061745000057],[123.83670209600007,13.082682054000031],[123.83304658600002,13.080681525000045],[123.83011646900002,13.075653231000047],[123.82123430200011,13.072593149000056],[123.82304237000005,13.07067353900004],[123.8211651800001,13.066503359000023],[123.81686444900004,13.066023780000023],[123.81684868100001,13.06434077800003],[123.81360943700008,13.064386235000029],[123.81226918200002,13.060843275000025],[123.81286711700011,13.054511989000048],[123.81109321400004,13.054146397000068],[123.81195387700006,13.05216394100006],[123.86231079600009,13.041738276000046],[123.87528872300004,13.042301291000058],[123.88091670600011,13.041047344000049]]]}},{"type":"Feature","properties":{"shapeName":"Oas","shapeISO":"","shapeID":"30758251B22907415261768","shapeGroup":"PHL","shapeType":"ADM3","psgc_code":"0500512000","legacy_psgc_code":"050512000","province":"Albay"},"geometry":{"type":"Polygon","coordinates":[[[123.59884972900011,13.31534361100006],[123.58652160100007,13.354990773000054],[123.55705553500002,13.301821388000064],[123.54398010000011,13.285908385000027],[123.5399556650001,13.283814221000057],[123.5351596490001,13.285022980000065],[123.53179726600001,13.28249794800007],[123.53590278500008,13.280172827000058],[123.53543037700001,13.27731662900004],[123.53666813500001,13.276043652000055],[123.53246228800003,13.277168069000027],[123.527005572,13.274404211000046],[123.51963376600008,13.27671383300003],[123.51938065700006,13.277860734000058],[123.51460322100002,13.276365808000037],[123.51284203400007,13.277828234000026],[123.51088184100001,13.276037163000069],[123.4977988710001,13.277947127000061],[123.49798024300003,13.274976178000031],[123.49442151700009,13.276178833000074],[123.49208951500009,13.275393974000053],[123.48617530500007,13.278024776000052],[123.4854662250001,13.27545162000007],[123.48394449400007,13.277604217000032],[123.48167171600005,13.276826177000032],[123.47993634900001,13.278517481000051],[123.47735434900005,13.276451842000029],[123.46997463200012,13.282591560000071],[123.46416201600005,13.284646620000046],[123.4638878180001,13.27778715200003],[123.45116479800004,13.266913114000033],[123.45955032100005,13.262951531000056],[123.46057504400005,13.257409490000043],[123.46208557000011,13.256624524000074],[123.45969181200007,13.24784986800006],[123.441020535,13.24123441300003],[123.42862276400001,13.228631823000057],[123.42457410500003,13.221394088000068],[123.42002023100008,13.220019225000044],[123.40548316200011,13.20826392400005],[123.39083213300012,13.193297575000031],[123.39063408000004,13.190256040000065],[123.38849793100007,13.189831639000033],[123.38968625200005,13.187695491000056],[123.38821499800008,13.187638904000039],[123.387380344,13.190482386000042],[123.38633349000008,13.188530145000072],[123.38191972700008,13.190001399000039],[123.38184899300006,13.188530145000072],[123.38452271500012,13.187638904000039],[123.3832353680001,13.184710542000062],[123.38473491500008,13.181626567000023],[123.38098604600009,13.185714956000027],[123.36813820100008,13.181720167000037],[123.34595278900008,13.168603721000068],[123.2977512000001,13.129747773000076],[123.29223701100011,13.131820215000062],[123.29202674300006,13.119443961000059],[123.28844241100012,13.107911430000058],[123.29407984000011,13.097802650000062],[123.29608169800008,13.082417682000028],[123.29212908400007,13.068788365000046],[123.28920846200003,13.064442088000021],[123.2821550320001,13.060214204000033],[123.28072276500006,13.05764362900004],[123.28358121000008,13.057569813000043],[123.28162172200007,13.056326394000052],[123.28403139900001,13.053260996000063],[123.284104135,13.05650819300007],[123.28658684000004,13.054143318000058],[123.28851326300003,13.055035434000047],[123.28853322700002,13.056503583000051],[123.29168158700008,13.057057088000022],[123.29838684300012,13.053694456000073],[123.30312724600003,13.045102755000073],[123.30297522700005,13.040551051000023],[123.30064703800008,13.039017582000042],[123.30416263100005,13.035266594000063],[123.30816665400005,13.024261673000069],[123.3171148670001,13.025019558000054],[123.32165721800004,13.033659888000045],[123.32422832600002,13.030566186000044],[123.32451199700006,13.032762571000035],[123.3282972720001,13.032933491000051],[123.32849824800007,13.036344480000025],[123.32997247800006,13.03737938100005],[123.33617483500007,13.037089970000068],[123.33656126800008,13.038251354000067],[123.333975484,13.038764302000061],[123.33383115400011,13.040575782000076],[123.33628138100005,13.041111927000031],[123.33780602900003,13.04472512600006],[123.34051161400009,13.045212923000065],[123.34165957500011,13.048658703000058],[123.34341135200009,13.044385770000076],[123.34346646800009,13.046941060000051],[123.34639341900004,13.046129606000022],[123.34601819800002,13.04790726300007],[123.34791881000001,13.04849529300003],[123.34959205900009,13.047295379000047],[123.352531182,13.052365756000029],[123.34667923500001,13.053620468000076],[123.34823504700012,13.055029158000025],[123.34702873600008,13.058594787000061],[123.3562690010001,13.067618663000076],[123.371965111,13.087680039000077],[123.38627153100003,13.10106457300003],[123.39471858900004,13.116126873000042],[123.40336366200006,13.125652165000076],[123.4067181040001,13.12586071100003],[123.40614548700012,13.127531818000023],[123.40820223300011,13.126667050000037],[123.409476014,13.12825635400003],[123.41253348600003,13.127830239000048],[123.41613776600002,13.13075060500006],[123.4187646370001,13.128546854000035],[123.42023747500002,13.130541687000061],[123.41942576300005,13.131120836000036],[123.43195577400002,13.145871106000072],[123.43857358800005,13.145179234000068],[123.44132949200002,13.151717959000052],[123.43519694200006,13.156967608000059],[123.42660324000008,13.17204670700005],[123.43858110200006,13.172991661000026],[123.43912013400006,13.174471131000075],[123.43632175500011,13.174815194000075],[123.43642497400003,13.176214384000048],[123.43840907000003,13.175904727000045],[123.4517177460001,13.181187756000043],[123.45262799200009,13.186173952000047],[123.45589969800005,13.185574080000038],[123.4548865490001,13.190167728000063],[123.45676671900003,13.191375594000021],[123.45249291900006,13.194832001000066],[123.45779722700001,13.198139582000067],[123.45523902800005,13.205099649000033],[123.4563420830001,13.209069771000031],[123.45806670000002,13.208675822000032],[123.46748272800005,13.21630921700006],[123.47174740300011,13.218097629000056],[123.47191996800007,13.22411558500005],[123.47638261000009,13.223695348000035],[123.47624742900007,13.222427265000022],[123.47312310400002,13.221536883000056],[123.47394852500008,13.218854265000061],[123.4753242270001,13.218579125000076],[123.48058628500007,13.22078024700005],[123.48440385700007,13.220367537000072],[123.48809744400012,13.222651135000035],[123.48913976800009,13.225499830000047],[123.49224946200002,13.224283402000026],[123.49919587700003,13.22808449200005],[123.50876944200002,13.242412959000035],[123.51373964000004,13.245939519000046],[123.51531127800001,13.244895600000063],[123.51855591300011,13.24766186100004],[123.52023799300002,13.251101492000032],[123.526542188,13.255486564000023],[123.52731935800011,13.258657132000053],[123.53154633000008,13.260352598000054],[123.53784213400002,13.266184643000031],[123.54385643500007,13.274559499000077],[123.5491950170001,13.27645078200004],[123.5555716240001,13.282281410000053],[123.5629354780001,13.284627403000059],[123.56814503300006,13.295985322000035],[123.59884972900011,13.31534361100006]]]}},{"type":"Feature","properties":{"shapeName":"Pio Duran","shapeISO":"","shapeID":"30758251B7916733720670","shapeGroup":"PHL","shapeType":"ADM3","psgc_code":"0500513000","legacy_psgc_code":"050513000","province":"Albay"},"geometry":{"type":"Polygon","coordinates":[[[123.38837584500004,13.039120211000068],[123.39257664700006,13.03296160900004],[123.39475152900002,13.034859156000039],[123.39428983200003,13.038199880000036],[123.39565362300004,13.040617066000038],[123.40078622200008,13.044613797000068],[123.40711322000004,13.045919641000069],[123.41476581400002,13.043045587000051],[123.41943288400012,13.039157860000046],[123.4209802150001,13.040683473000058],[123.42589030800002,13.039892576000057],[123.43111830100008,13.036233567000068],[123.4364375560001,13.030672150000044],[123.43613387500011,13.029511394000053],[123.44460879100006,13.028497594000044],[123.45168755100008,13.024421644000029],[123.45673681400001,13.015244320000022],[123.45830144100012,13.014897440000027],[123.46184795600004,13.00489742700006],[123.47350007300008,12.993623572000047],[123.48226570000008,12.988444596000022],[123.48319711700003,12.99233120200006],[123.48499840000011,12.993469494000067],[123.48432882700001,12.995006767000064],[123.49216108500002,13.000911147000068],[123.50113409000005,13.004186880000077],[123.50589231100003,13.007606311000075],[123.49526658500008,13.020224150000047],[123.50390816300012,13.02340139000006],[123.51170109600002,13.032612550000067],[123.51649176300009,13.033277278000071],[123.53733503300009,13.055445852000048],[123.53994056400006,13.056743177000044],[123.54385735100004,13.055448243000058],[123.54551390600011,13.061576772000024],[123.54786670100009,13.062773923000066],[123.54755992200012,13.068661860000077],[123.54364433600006,13.075622834000058],[123.53746910000007,13.079456745000073],[123.5352852630001,13.079467216000069],[123.53483346700011,13.082890098000064],[123.53043626700003,13.08640500100006],[123.52785461100007,13.08666266800003],[123.52543669200008,13.084468784000023],[123.52346815300007,13.085388680000051],[123.51905178100003,13.083249874000046],[123.51415374200008,13.089982656000075],[123.51140939600009,13.091500429000064],[123.51317537500006,13.093316432000051],[123.5108395630001,13.096483869000053],[123.51178893100007,13.099300846000062],[123.50837115900003,13.099526062000052],[123.51040378800008,13.099806657000045],[123.51087847200006,13.101814336000075],[123.50900308100006,13.10376754400005],[123.5067308240001,13.102522471000043],[123.50546956700009,13.103463689000023],[123.50658115700003,13.104323772000043],[123.50298924200001,13.10466290200003],[123.50366203200008,13.107212891000074],[123.4967417580001,13.112288253000031],[123.49698589900004,13.114532032000056],[123.49474793400009,13.113735665000036],[123.49583494600006,13.112602150000043],[123.4946433020001,13.109951469000066],[123.49161478200006,13.11461922500007],[123.48903966800003,13.113299698000048],[123.48950547800007,13.116620431000058],[123.48503193700003,13.11620627700006],[123.4835876300001,13.11676767800003],[123.48436609900011,13.11458434800005],[123.48257604700007,13.113338166000062],[123.48165749100008,13.115747717000033],[123.47965519200011,13.116183062000061],[123.47923415700006,13.113065478000067],[123.47899236400008,13.114617142000043],[123.47598780900012,13.115982530000053],[123.47205537000002,13.116300155000033],[123.47175485600008,13.113742448000039],[123.46896053300009,13.11535924900005],[123.46553811500007,13.111215522000066],[123.44245832700005,13.105958214000054],[123.44160894900006,13.101357463000056],[123.43992815900003,13.102050741000028],[123.44042843900002,13.104624541000021],[123.43859053800008,13.103385390000028],[123.43712937700002,13.105663845000038],[123.41598201400006,13.101377671000023],[123.39829678600006,13.103489918000037],[123.39543263200005,13.102653432000068],[123.39129141400008,13.09755146200007],[123.38945949900005,13.081722268000021],[123.39078907400005,13.080241631000035],[123.38837584500004,13.039120211000068]]]}},{"type":"Feature","properties":{"shapeName":"Polangui","shapeISO":"","shapeID":"30758251B28395288618687","shapeGroup":"PHL","shapeType":"ADM3","psgc_code":"0500514000","legacy_psgc_code":"050514000","province":"Albay"},"geometry":{"type":"Polygon","coordinates":[[[123.40378621700006,13.330119497000055],[123.40544156400006,13.327016513000046],[123.41439194700001,13.328615763000073],[123.42031073400005,13.324964778000037],[123.42449299000009,13.32583094100005],[123.42947306500002,13.322713885000042],[123.43392116100006,13.324057974000027],[123.43949285000008,13.318412009000042],[123.43974135300004,13.316175482000062],[123.45142464800006,13.30889880500007],[123.46131829400008,13.29794331000005],[123.4619189870001,13.295346351000035],[123.45881279900004,13.291345985000078],[123.46158996200006,13.285593512000048],[123.46416201600005,13.284646620000046],[123.46997463200012,13.282591560000071],[123.47735434900005,13.276451842000029],[123.47993634900001,13.278517481000051],[123.48167171600005,13.276826177000032],[123.48394449400007,13.277604217000032],[123.4854662250001,13.27545162000007],[123.48617530500007,13.278024776000052],[123.49208951500009,13.275393974000053],[123.49442151700009,13.276178833000074],[123.49798024300003,13.274976178000031],[123.4977988710001,13.277947127000061],[123.51088184100001,13.276037163000069],[123.51284203400007,13.277828234000026],[123.51460322100002,13.276365808000037],[123.51938065700006,13.277860734000058],[123.51963376600008,13.27671383300003],[123.527005572,13.274404211000046],[123.53246228800003,13.277168069000027],[123.53666813500001,13.276043652000055],[123.53543037700001,13.27731662900004],[123.53590278500008,13.280172827000058],[123.53179726600001,13.28249794800007],[123.5351596490001,13.285022980000065],[123.5399556650001,13.283814221000057],[123.54398010000011,13.285908385000027],[123.55705553500002,13.301821388000064],[123.58652160100007,13.354990773000054],[123.57822276700006,13.356296947000033],[123.57150571400007,13.36533662200003],[123.56718921700008,13.36506693900003],[123.55974349100006,13.360683734000077],[123.5568097470001,13.35576229000003],[123.55164868700001,13.352808077000077],[123.53767392400005,13.353357803000051],[123.53688841500002,13.350198510000041],[123.5343793610001,13.349674011000047],[123.52706200400007,13.353745079000078],[123.52244858000006,13.352235688000064],[123.51941464200002,13.348448929000028],[123.5180531210001,13.35027923900003],[123.51568674200007,13.347789067000065],[123.50902235900003,13.347465920000047],[123.50639090100003,13.344835462000049],[123.504757573,13.345094721000066],[123.50459555100008,13.339948449000076],[123.50109077400009,13.341147253000031],[123.49924205700006,13.344551700000068],[123.49379612100006,13.344597269000076],[123.49227447600003,13.349919747000058],[123.48986447000004,13.350148937000029],[123.49278101800007,13.352047169000059],[123.49086895300002,13.355739983000035],[123.49391575900006,13.36036563700003],[123.49383574500007,13.361898781000036],[123.4903601420001,13.364648287000023],[123.4865865490001,13.358845893000023],[123.48404759800007,13.361406600000066],[123.48424536000005,13.365932186000066],[123.48245786700011,13.36807873500004],[123.48097808500006,13.367458258000056],[123.48171694100006,13.362417581000045],[123.48000446300011,13.360419687000046],[123.47277601600001,13.365974120000033],[123.47334236400002,13.362460656000053],[123.47216685100011,13.361384272000066],[123.4694048980001,13.361998801000027],[123.46802729700005,13.363971094000021],[123.46619650600007,13.362437040000032],[123.46460985400006,13.362986019000061],[123.46571023600006,13.368148849000022],[123.46370035300004,13.368246267000075],[123.46251545600012,13.365904277000027],[123.46017923200009,13.366064018000031],[123.45822883200003,13.369870711000033],[123.4560614720001,13.368717786000047],[123.45605923800008,13.366099039000062],[123.45215253900005,13.366573135000067],[123.45107607600005,13.36404486300006],[123.44890557100007,13.36740880800005],[123.43929871800003,13.361226229000067],[123.43312312600005,13.363193587000069],[123.42563763100009,13.356696674000034],[123.4257000990001,13.354261448000045],[123.42160789400009,13.354923253000038],[123.42072264500007,13.351169796000022],[123.41758121300006,13.352300169000046],[123.41337047700006,13.347736961000066],[123.40952089100006,13.343372674000022],[123.40857270400011,13.346344061000025],[123.40645509100011,13.347575831000029],[123.40177709300008,13.345418694000045],[123.40301770700012,13.342433545000063],[123.4010343010001,13.337831687000062],[123.40378621700006,13.330119497000055]]]}},{"type":"Feature","properties":{"shapeName":"Rapu-Rapu","shapeISO":"","shapeID":"30758251B43953309192552","shapeGroup":"PHL","shapeType":"ADM3","psgc_code":"0500515000","legacy_psgc_code":"050515000","province":"Albay"},"geometry":{"type":"MultiPolygon","coordinates":[[[[124.12996460700003,13.236063615000035],[124.1255177270001,13.234812344000034],[124.12490481200007,13.231040027000063],[124.1263585910001,13.229026107000038],[124.12523771000008,13.227446823000037],[124.11397618700005,13.222561709000047],[124.10527282500004,13.220735399000034],[124.09736279700007,13.217081440000072],[124.09242397600008,13.217166989000077],[124.08302202900006,13.212201309000022],[124.07169382200004,13.211481676000062],[124.0655626030001,13.208615462000068],[124.06263467400004,13.209052297000028],[124.05794307800011,13.207199863000028],[124.06095449300005,13.206235153000023],[124.06518003300005,13.207055446000027],[124.07774329100005,13.202959015000033],[124.08156840200002,13.199278024000023],[124.08924784200008,13.196794734000036],[124.09193116600011,13.193129157000044],[124.10747607000008,13.187141549000046],[124.11296344000004,13.186959133000073],[124.1141979250001,13.188312885000073],[124.11830825200002,13.188230709000038],[124.11856444000011,13.187117449000027],[124.121061585,13.188847794000026],[124.12448863000009,13.185948040000028],[124.12261591200001,13.18430803700005],[124.12491053700012,13.185468664000041],[124.13542479900002,13.18544541700004],[124.13857336500007,13.189577456000052],[124.14614155900006,13.187129072000062],[124.15689925100003,13.180513998000038],[124.15821372000005,13.181137888000023],[124.16036247800002,13.179691035000076],[124.16584570900011,13.181065161000049],[124.16684612200004,13.178803435000077],[124.17386628800011,13.177013466000062],[124.18001846000004,13.17319739900006],[124.19302474300002,13.171608047000063],[124.19374742600007,13.172976822000066],[124.19971274500006,13.173873234000041],[124.2017839340001,13.17312219400003],[124.20203181500005,13.17080691600006],[124.20307812100009,13.171739427000034],[124.2065981940001,13.169728228000054],[124.21169375900001,13.17044171200007],[124.2172576800001,13.175823624000031],[124.216929821,13.178868795000028],[124.21904782900003,13.18035834400007],[124.21943761500006,13.179524231000073],[124.22011114400004,13.181936524000037],[124.21808537200002,13.182767256000034],[124.21777245800001,13.185479021000049],[124.21375397600002,13.190469033000056],[124.21361646700007,13.19259248700007],[124.21612968500006,13.194224279000025],[124.21509965700011,13.198786322000046],[124.21136496100007,13.201993385000037],[124.20812703500008,13.207650559000058],[124.20372810700007,13.211022381000078],[124.198614657,13.211024354000074],[124.19498686500003,13.21602967800004],[124.18697638700007,13.216507657000022],[124.18016344700004,13.221581635000064],[124.17742419400008,13.221099517000027],[124.17435523000006,13.223810370000024],[124.17193162600006,13.22284895100006],[124.16601174800007,13.224715533000051],[124.16350860700004,13.22735472000005],[124.15985406900006,13.227744116000054],[124.15455650000001,13.231181444000072],[124.14463828500004,13.228828150000027],[124.1391195110001,13.234615138000038],[124.12996460700003,13.236063615000035]]],[[[123.97714792200009,13.291574914000023],[123.97473404200002,13.283448907000036],[123.97248656500005,13.283169422000071],[123.97292890400001,13.281168397000044],[123.97126356400008,13.28013898000006],[123.96649343800004,13.27993563900003],[123.962877853,13.282733261000033],[123.96122609500003,13.28218798100005],[123.9574965160001,13.284970432000023],[123.9563723440001,13.28877157100004],[123.95337599000004,13.28826054800004],[123.95076017600002,13.290654545000052],[123.93819372100006,13.289044072000024],[123.93673219800007,13.287032797000052],[123.92971845500006,13.285982817000047],[123.92728271100009,13.286447642000041],[123.9269147230001,13.288938317000031],[123.91516663100003,13.286194613000077],[123.91079704600008,13.290382546000046],[123.90835664200006,13.28616310600006],[123.91412457700005,13.283803821000049],[123.91459373500004,13.281030757000053],[123.91702265100002,13.282175477000067],[123.92126443900008,13.28133566200006],[123.92002893600011,13.279560766000031],[123.92204157000003,13.278043523000065],[123.92046908600003,13.277136919000043],[123.92118671100002,13.27626476100005],[123.91312955500007,13.274423583000043],[123.9132102860001,13.270546976000048],[123.91650017000006,13.266515278000043],[123.91538406600012,13.263786896000056],[123.91911670400009,13.259757008000065],[123.92542223200007,13.25853573300003],[123.92851384700009,13.256073780000065],[123.93028542900004,13.249894079000057],[123.93313433900005,13.249597184000038],[123.94406025100011,13.243223514000022],[123.94501042000002,13.23941646700007],[123.94955388200003,13.236744506000036],[123.95163429700006,13.23359150500005],[123.95751028100005,13.231686705000072],[123.968201829,13.233274516000051],[123.97306561300002,13.232185529000049],[123.97806106000007,13.232981430000052],[123.98318326900005,13.236573639000028],[123.98369664400002,13.235470743000064],[123.98389321000002,13.236663143000044],[123.99167019100003,13.237543671000026],[123.99254771000005,13.237145773000066],[123.98992208100003,13.228945328000066],[123.99586914200006,13.224326500000075],[124.022486264,13.216940108000074],[124.03497822600002,13.219656273000055],[124.0394823470001,13.218776112000057],[124.04230409800005,13.224166643000046],[124.04595531500001,13.222020016000045],[124.04461106600002,13.22401607300003],[124.04722353000011,13.227727204000075],[124.0475863690001,13.224309103000053],[124.04862777900007,13.228014604000066],[124.0523051460001,13.227727752000021],[124.05398074300001,13.22931343600004],[124.05562912100004,13.22744709400007],[124.05438977900008,13.229396133000023],[124.05572544900008,13.229476391000048],[124.05684590400006,13.23250093200005],[124.06006485500006,13.231058833000077],[124.06137257900002,13.23295306600005],[124.05873062600006,13.233247823000056],[124.05879382000012,13.234700515000043],[124.0635766150001,13.239864750000038],[124.06541531900007,13.239998245000038],[124.06491218600002,13.238668326000038],[124.06708928000012,13.237418221000041],[124.07202851500006,13.238723915000037],[124.07284870800004,13.241044350000038],[124.07156345900012,13.242459773000064],[124.0635932350001,13.244019354000045],[124.06510130100003,13.250256962000037],[124.06387923600005,13.251966622000054],[124.06504038100002,13.252606910000054],[124.07057934300008,13.25288622100004],[124.07344646600006,13.251243759000033],[124.08539879400007,13.260457400000064],[124.09370137100007,13.257573080000043],[124.0946432820001,13.25877815900003],[124.09903743900009,13.258792654000047],[124.0919068390001,13.263520707000055],[124.0887497110001,13.269723003000024],[124.0836557770001,13.267373587000066],[124.08010208500002,13.268174937000026],[124.07986536500005,13.269786302000057],[124.07558054300011,13.271870911000065],[124.07211905500003,13.269972706000033],[124.06326523000007,13.27095920000005],[124.06179652800006,13.269713084000045],[124.06033970900012,13.271386515000074],[124.06068301100004,13.273491553000042],[124.05627805400002,13.275326235000023],[124.05656355500003,13.27654418700007],[124.05388296100011,13.278362604000051],[124.05273855000007,13.277224979000039],[124.0518037810001,13.278636430000063],[124.04104753000001,13.279274075000046],[124.03821182700005,13.27772804600005],[124.03667024300012,13.278313002000061],[124.03606528600005,13.276932190000025],[124.03925919500011,13.274351660000036],[124.0397432210001,13.272059564000074],[124.0421350900001,13.27254625300003],[124.04663796400007,13.270329426000046],[124.0469810300001,13.26876037900007],[124.04545728900007,13.267152549000059],[124.04339748300004,13.268576191000022],[124.03887545700002,13.26840439600005],[124.03745633100004,13.26404268400006],[124.03870577600003,13.262461539000071],[124.03697778500009,13.259966530000042],[124.0290307790001,13.258254890000046],[124.0260834390001,13.264981951000038],[124.02760549400011,13.268765507000069],[124.03157668200004,13.26970777300005],[124.02775106000001,13.269055812000033],[124.02681172700011,13.272979767000038],[124.02053583500003,13.276204662000055],[124.02014471500001,13.28102216700006],[124.01679542400007,13.284408975000076],[124.0130291260001,13.283417180000072],[124.0088068010001,13.286971091000055],[124.00491118900004,13.286624223000047],[124.00368678500001,13.285091953000062],[124.00500056500005,13.283266378000064],[124.00239821100001,13.284376081000062],[124.00198016400009,13.28664346000005],[123.99894434600003,13.285468286000025],[124.00121164900008,13.284553699000071],[123.998938414,13.281341148000024],[123.9974983190001,13.282355173000042],[123.99653714200008,13.280007301000069],[123.99780646900001,13.276213684000027],[123.9953030160001,13.272237552000036],[123.99702140700003,13.271499321000022],[123.99486494100006,13.266369304000023],[123.99212200400007,13.263484285000061],[123.99198451500001,13.261219144000052],[123.98610884300001,13.259304005000047],[123.98258810200002,13.261613123000075],[123.98566816800007,13.263248536000049],[123.98280153300004,13.262420443000053],[123.98539081800004,13.267716826000026],[123.98184355700005,13.270330127000022],[123.98341707500003,13.275178271000073],[123.9786229880001,13.277492375000065],[123.97569450900005,13.282269910000025],[123.98022278600001,13.286048033000043],[123.97931271300001,13.288057983000044],[123.9821673460001,13.290226544000063],[123.97714792200009,13.291574914000023]]],[[[123.96091560800005,13.30800176400004],[123.95835651900006,13.304157283000052],[123.95872037000004,13.298667127000044],[123.95694489100003,13.293284793000055],[123.96938286000011,13.298010533000024],[123.96714388400005,13.303373126000054],[123.96091560800005,13.30800176400004]]]]}},{"type":"Feature","properties":{"shapeName":"Santo Domingo","shapeISO":"","shapeID":"30758251B82534297587726","shapeGroup":"PHL","shapeType":"ADM3","psgc_code":"0500516000","legacy_psgc_code":"050516000","province":"Albay"},"geometry":{"type":"Polygon","coordinates":[[[123.69439226000009,13.259975761000021],[123.68355123800006,13.253206272000057],[123.73323399100002,13.22387395000004],[123.76430690900008,13.208693909000033],[123.77605860000006,13.229511759000047],[123.78718215000004,13.237998711000046],[123.7907189770001,13.238304839000023],[123.79394736000006,13.236189857000056],[123.801775829,13.237976357000036],[123.81058648700002,13.235753980000027],[123.81962497900008,13.230036127000062],[123.82451023200008,13.230628491000061],[123.82971407000002,13.228369188000045],[123.83655543100008,13.228278427000077],[123.83967699200002,13.22619132400007],[123.84699635700008,13.226224370000068],[123.85244891800005,13.224409666000042],[123.86219091400005,13.224400370000069],[123.86531237400004,13.228009325000073],[123.86125630300012,13.232557148000069],[123.84695790600006,13.24031194500003],[123.83193412600008,13.233511135000072],[123.8056345870001,13.24891627900007],[123.79238390400008,13.254175929000041],[123.78837179600009,13.26136013100006],[123.76929638400009,13.268424200000027],[123.75188183700004,13.26751101700006],[123.74111431500012,13.269447175000039],[123.73141454600011,13.265205570000035],[123.72631435000005,13.265809612000055],[123.72400537100009,13.264587217000042],[123.71893058400008,13.266639747000056],[123.69439226000009,13.259975761000021]]]}},{"type":"Feature","properties":{"shapeName":"City of Tabaco","shapeISO":"","shapeID":"30758251B75861383716628","shapeGroup":"PHL","shapeType":"ADM3","psgc_code":"0500517000","legacy_psgc_code":"050517000","province":"Albay"},"geometry":{"type":"MultiPolygon","coordinates":[[[[123.68355123800006,13.253206272000057],[123.69573636000007,13.282093191000058],[123.69863011500001,13.286104042000034],[123.69949742800009,13.297276948000047],[123.70205356400004,13.301742294000064],[123.7004438780001,13.306138039000075],[123.70492047900007,13.313894960000027],[123.70423382400008,13.317103158000066],[123.70727287300008,13.324464611000053],[123.70760054700008,13.32936866600005],[123.70919597200009,13.331221422000056],[123.71555167500003,13.33042054300006],[123.71842784500006,13.334858412000074],[123.72361946,13.336217603000023],[123.74140684500003,13.335053316000028],[123.74150720700004,13.341064509000034],[123.74003475200004,13.344170882000071],[123.74135619600008,13.348370419000048],[123.73772085900009,13.353247552000028],[123.738796492,13.357847036000067],[123.7364718550001,13.360043483000027],[123.737685553,13.36011026600005],[123.73658939900008,13.364621361000047],[123.73807749100001,13.366194165000024],[123.73535862000006,13.368178156000056],[123.7321069620001,13.366962823000051],[123.72699779200002,13.371490424000058],[123.72707108500003,13.383606075000046],[123.73363032400005,13.375257017000024],[123.74151651300008,13.370320755000023],[123.74136117600005,13.368332553000073],[123.7389950160001,13.367189058000065],[123.74258588900011,13.367551739000021],[123.74336948100006,13.369205472000033],[123.73410335400001,13.377199482000037],[123.72808864500007,13.385405259000038],[123.67266668900004,13.34860044900006],[123.6712779500001,13.350219840000022],[123.66819011200005,13.349268104000032],[123.6596297640001,13.339852889000042],[123.65781043000004,13.341581693000023],[123.64699193000001,13.332203126000024],[123.64079762400002,13.333426514000053],[123.63898893700002,13.335667553000064],[123.63613379100002,13.335621035000031],[123.63083434600003,13.341354954000053],[123.63115574200003,13.344703942000024],[123.62673538800004,13.348418022000033],[123.6190901540001,13.346898918000022],[123.61430031500004,13.347702317000028],[123.60693611400006,13.352429916000062],[123.60122120800008,13.35143161600007],[123.59611396300011,13.355439285000045],[123.59502885400002,13.354064813000036],[123.5928875730001,13.354629070000044],[123.59272842300004,13.356018009000024],[123.5901675670001,13.35429630300007],[123.58652160100007,13.354990773000054],[123.59884972900011,13.31534361100006],[123.63508225400005,13.303763138000022],[123.6344442950001,13.298226663000037],[123.68355123800006,13.253206272000057]]],[[[123.76555594700005,13.407375745000024],[123.76358755800004,13.403786504000038],[123.77623162300006,13.386280466000073],[123.7903722100001,13.378511701000036],[123.79830942400008,13.36635424700006],[123.81112843900007,13.355866356000035],[123.81984682300003,13.351312970000038],[123.821985874,13.350746489000073],[123.82395030300006,13.352095366000071],[123.82734442700007,13.346921130000055],[123.83419669000011,13.343398183000033],[123.83552682400011,13.344133040000031],[123.83770041700006,13.348492084000043],[123.84032354800001,13.350327315000072],[123.8385025230001,13.353116727000042],[123.84158906100004,13.356431777000068],[123.83853176700006,13.35792566200007],[123.84224178900001,13.359888610000041],[123.84076057900006,13.360461397000051],[123.84170174300004,13.363267939000025],[123.84494762400004,13.364872239000022],[123.84848803200009,13.363181198000063],[123.846105297,13.366582271000027],[123.84883944700005,13.36649108000006],[123.85153698500005,13.369851547000053],[123.84899367700007,13.371659218000048],[123.84642995200011,13.371065024000075],[123.84276867900007,13.372704416000033],[123.83790590800004,13.366787313000032],[123.8365510220001,13.366873696000027],[123.83716380200008,13.368309844000066],[123.8340444800001,13.368131964000042],[123.83331589900001,13.370224442000051],[123.82677084000011,13.367883475000042],[123.82832298500011,13.373493980000035],[123.82256697500009,13.374369271000035],[123.82402533800007,13.375218544000063],[123.82296312100004,13.377555270000073],[123.82550769400007,13.379922075000025],[123.8232547670001,13.380449371000054],[123.82271987700005,13.383519260000071],[123.81788479200009,13.388092182000037],[123.81203744400011,13.38782029400005],[123.81223789500007,13.39045760700003],[123.80903998600002,13.391458236000062],[123.80752610800005,13.393899042000044],[123.80056412300007,13.395551672000067],[123.79728691600008,13.394610702000023],[123.79562375700004,13.391914167000039],[123.79406589200005,13.392116245000068],[123.79183934500008,13.394704623000052],[123.79401089600003,13.398257184000045],[123.7902807800001,13.397489978000067],[123.78149600300003,13.402332576000049],[123.77734805900002,13.402133811000056],[123.77388344700012,13.399738600000035],[123.76555594700005,13.407375745000024]]]]}},{"type":"Feature","properties":{"shapeName":"Tiwi","shapeISO":"","shapeID":"30758251B71671176044973","shapeGroup":"PHL","shapeType":"ADM3","psgc_code":"0500518000","legacy_psgc_code":"050518000","province":"Albay"},"geometry":{"type":"Polygon","coordinates":[[[123.58243122100009,13.395386389000066],[123.64249424700006,13.415641708000067],[123.65736826700004,13.422889144000067],[123.6662032690001,13.42557991600006],[123.68750020200002,13.428490790000069],[123.70250285400004,13.433624959000042],[123.6978801250001,13.448743113000035],[123.69589303700002,13.45178536000003],[123.69028576300002,13.454801681000049],[123.68555440500006,13.459449267000025],[123.68269639400012,13.469602928000029],[123.67958900300005,13.471748743000035],[123.67780866700002,13.477434007000056],[123.67516716500006,13.479719233000026],[123.67331822500012,13.47819692400003],[123.66917081000008,13.479525142000057],[123.6653769610001,13.478450837000025],[123.65400635300011,13.482430862000058],[123.65093282500004,13.481719131000034],[123.64668761900009,13.484534773000064],[123.6422792410001,13.48543993900006],[123.63940493200005,13.484268299000064],[123.63304654800004,13.489502340000058],[123.62466583200012,13.491463576000058],[123.61850881100008,13.496430924000038],[123.61644772900001,13.502577187000043],[123.6126657100001,13.505984051000041],[123.6127350490001,13.507955306000042],[123.60864441000001,13.51270099900006],[123.6039583380001,13.516099323000049],[123.60125067900003,13.522687456000028],[123.59591849600008,13.52325522600006],[123.58947719000003,13.521386353000025],[123.58280362200003,13.522253086000035],[123.57855773400001,13.52052855100004],[123.54560845100002,13.516697864000037],[123.54328423700008,13.501666299000021],[123.54544748100011,13.48583663900007],[123.55664269700003,13.469524604000071],[123.57268960300007,13.458021292000069],[123.58129249100011,13.448367139000027],[123.58498847100009,13.438728501000071],[123.588063368,13.422057589000076],[123.58243122100009,13.395386389000066]]]}}]}
