{"type":"FeatureCollection","source":{"dataset":"geoBoundaries gbOpen PHL ADM3","commit":"9469f09","license":"CC BY 3.0 IGO","boundary_year":2020,"url":"https://media.githubusercontent.com/media/wmgeolab/geoBoundaries/9469f09/releaseData/gbOpen/PHL/ADM3/geoBoundaries-PHL-ADM3_simplified.geojson","upstream_sources":["NAMRIA","PSA","OCHA Philippines"],"reference":"https://ulap-nga.georisk.gov.ph/arcgis/rest/services/PSA/Municipal/MapServer/0","psgc_reference":"https://psa.gov.ph/classification/psgc/citimuni/0300000000","notice":"Approximate planning/reference boundaries, not legal, cadastral, or survey-grade."},"features":[{"type":"Feature","properties":{"shapeName":"Angeles City","shapeISO":"","shapeID":"30758251B17687282333707","shapeGroup":"PHL","shapeType":"ADM3","psgc_code":"0330100000","legacy_psgc_code":"035401000","province":"Angeles City","geographic_province":"Pampanga"},"geometry":{"type":"Polygon","coordinates":[[[120.623465527,15.175674680000043],[120.61709718400004,15.173902696000027],[120.609015053,15.175279928000066],[120.60576683600004,15.173845823000022],[120.59924771500005,15.175549020000062],[120.59312980800007,15.173830976000033],[120.5914718470001,15.172001068000043],[120.58261167100011,15.17037166800003],[120.58112222300008,15.18134615300005],[120.57951642300009,15.183021979000046],[120.57945826500008,15.193532864000076],[120.57036624400007,15.222545479000075],[120.56575091400009,15.221293505000062],[120.56381292900005,15.217085667000049],[120.55899929200007,15.215938350000044],[120.55313223600001,15.216929271000026],[120.54828063000002,15.212575319000052],[120.5477783550001,15.210251063000044],[120.54422408200003,15.209776845000022],[120.54272360400012,15.211445388000072],[120.53598042300007,15.208357528000022],[120.53211898300003,15.209252947000039],[120.52394512600006,15.207024671000056],[120.50966037700005,15.19831991600006],[120.49883525500002,15.187920923000036],[120.49607669600005,15.187657204000061],[120.49362311700008,15.189267592000022],[120.49244337300001,15.187693393000075],[120.48932852500002,15.188433099000065],[120.48398661100009,15.182744611000032],[120.4795273530001,15.182162395000034],[120.47811933500009,15.176563754000028],[120.44977598600008,15.175672598000062],[120.44950805200006,15.151067770000054],[120.46726020500012,15.144220507000057],[120.4883803780001,15.14548979400007],[120.50958880500002,15.142361865000055],[120.51282331000004,15.142718392000063],[120.51439425600006,15.144657006000045],[120.52003332100003,15.142792473000043],[120.52251984700001,15.144251050000037],[120.53546223700005,15.140307934000077],[120.53477374400006,15.136533970000073],[120.53787621400011,15.134111493000034],[120.54831996900009,15.139480751000065],[120.56368840100004,15.133714328000053],[120.56314046000011,15.132592354000053],[120.5702180400001,15.129759041000057],[120.57091751000007,15.130856915000038],[120.57850673900009,15.125823901000047],[120.57946329700007,15.126417944000025],[120.5828635370001,15.122727734000023],[120.57990229000006,15.120504822000044],[120.58145035400003,15.118813572000022],[120.58019926400004,15.116147779000073],[120.58821833500008,15.114600056000029],[120.59218632000011,15.109915340000043],[120.59723459500003,15.108419555000069],[120.59416299400004,15.116526148000048],[120.60058322900011,15.119668199000046],[120.59866345800003,15.122023396000031],[120.60454576500001,15.124638545000039],[120.61357625900007,15.13246954300007],[120.61492129500004,15.13146424000007],[120.61832552600004,15.135982581000064],[120.62867474000006,15.129305749000025],[120.63240987800009,15.135962923000022],[120.63655236400007,15.150397248000047],[120.63718774900008,15.158138846000043],[120.64109516600001,15.16329236200005],[120.63316922800004,15.169649969000034],[120.63953720000006,15.173347049000029],[120.64265713300006,15.178686990000074],[120.63961488400003,15.18162051400003],[120.63096638400009,15.177474545000052],[120.623465527,15.175674680000043]]]}}]}
