{"type":"FeatureCollection","source":{"dataset":"geoBoundaries gbOpen PHL ADM3","commit":"9469f09","license":"CC BY 3.0 IGO","boundary_year":2020,"url":"https://media.githubusercontent.com/media/wmgeolab/geoBoundaries/9469f09/releaseData/gbOpen/PHL/ADM3/geoBoundaries-PHL-ADM3_simplified.geojson","upstream_sources":["NAMRIA","PSA","OCHA Philippines"],"reference":"https://ulap-nga.georisk.gov.ph/arcgis/rest/services/PSA/Municipal/MapServer/0","psgc_reference":"https://psa.gov.ph/classification/psgc/provinces/1400000000","notice":"Approximate planning/reference boundaries, not legal, cadastral, or survey-grade."},"features":[{"type":"Feature","properties":{"shapeName":"Calanasan","shapeISO":"","shapeID":"30758251B87608274030040","shapeGroup":"PHL","shapeType":"ADM3","psgc_code":"1408101000","legacy_psgc_code":"148101000","province":"Apayao"},"geometry":{"type":"Polygon","coordinates":[[[120.94836326600011,18.38169343000004],[120.92311695500007,18.303778623000028],[120.91666636100001,18.284560256000077],[120.92676405500004,18.241938255000036],[120.93879022400006,18.22089488100005],[120.94316752000009,18.21651677600005],[120.97006946800002,18.18186392000007],[120.94804674600005,18.137152979000064],[120.94854229900011,18.132612094000024],[120.92814130400006,18.088193385000068],[120.92753268900003,18.078632767000045],[120.93546188900007,18.068995150000035],[120.93547615500006,18.064370777000022],[120.93298814900004,18.057569600000022],[120.93584120900005,18.048433540000076],[120.93339553900012,18.02913028100005],[120.92795495700011,18.023135386000035],[120.9277503080001,18.020743286000027],[120.93225689000008,18.013896287000023],[120.93812287900005,18.01240294400003],[120.93931481600009,18.005185315000062],[120.94409452000002,17.999826832000053],[120.9450504020001,17.996526439000036],[120.9469459710001,17.997094376000064],[120.94483351000008,17.989445019000073],[120.9403137060001,17.986803063000025],[120.96503255400012,17.984264711000037],[120.97401424300006,17.98714389400004],[120.98621537300005,17.995329601000037],[120.98954638600003,18.003081312000063],[120.99869770300006,18.013827750000075],[121.00521486700006,18.016610295000078],[121.00587407400008,18.021199325000055],[120.9985701920001,18.031149953000067],[121.0200449030001,18.035954753000055],[121.05288018100009,18.033663314000023],[121.0668863520001,18.051089323000042],[121.11492073800002,18.145349561000046],[121.12593356200011,18.16084098300007],[121.13231311400011,18.166733399000066],[121.13811112300004,18.17613500300007],[121.156000618,18.213752061000037],[121.21503340100003,18.218349927000077],[121.21406221000007,18.362256521000063],[121.270539589,18.405082501000038],[121.24884436800005,18.428879903000052],[121.2414553960001,18.43175379300004],[121.22654139600002,18.436471329000028],[121.22770208700001,18.441720402000044],[121.22579675000009,18.472817545000055],[121.22086083900001,18.48304399400007],[121.22208115400008,18.500580942000056],[121.16786370000011,18.521977657000036],[121.16923104300008,18.539120576000073],[121.15600338400009,18.54377499800006],[121.11848091500008,18.54311065400003],[121.08906431300011,18.49539121400005],[121.08905418300003,18.527137542000048],[121.0907866230001,18.527309866000053],[121.09235553000008,18.530459628000074],[121.09056585000008,18.538185129000055],[121.0929344870001,18.539144134000026],[121.0935009960001,18.541745912000067],[121.06136538900012,18.539197991000037],[121.04277930400008,18.528185766000036],[121.04146122300006,18.518527332000076],[121.0388081100001,18.505030128000044],[121.0234730630001,18.498688611000034],[121.002873797,18.46610564300005],[120.95867309800008,18.463202412000044],[120.94704360700007,18.420625793000056],[120.94836326600011,18.38169343000004]]]}},{"type":"Feature","properties":{"shapeName":"Conner","shapeISO":"","shapeID":"30758251B47699313654035","shapeGroup":"PHL","shapeType":"ADM3","psgc_code":"1408102000","legacy_psgc_code":"148102000","province":"Apayao"},"geometry":{"type":"Polygon","coordinates":[[[121.29874457100004,17.65610837400004],[121.34969516000001,17.652796137000053],[121.37117822500011,17.64169464300005],[121.38183713300009,17.650711586000057],[121.41666851800005,17.666664041000047],[121.4327607240001,17.690659865000043],[121.43655489200012,17.69322616000005],[121.43052035100004,17.704280053000048],[121.431374903,17.71019681300004],[121.42887822400007,17.71148485200007],[121.43068890600011,17.714933555000073],[121.42909260600004,17.719236984000077],[121.4304143820001,17.721234441000036],[121.4285264450001,17.72361555300006],[121.42891472400004,17.72700616700007],[121.424688607,17.74036174200006],[121.41650268500007,17.74934727300007],[121.41411788300002,17.76319366200005],[121.38829731500005,17.793630291000056],[121.37339240200004,17.800851305000037],[121.35867264400008,17.804646966000064],[121.32536518200004,17.803086445000076],[121.31346801000007,17.807667348000052],[121.31134171100007,17.809270224000045],[121.31058088100008,17.812933754000028],[121.30648750600005,17.814161650000074],[121.30730878600002,17.816579275000038],[121.3194454610001,17.815230756000062],[121.319817467,17.818392801000073],[121.31739943200012,17.820880587000033],[121.31874795100009,17.825088898000047],[121.31589038800007,17.827735174000054],[121.31841334900002,17.828700953000066],[121.32072423000011,17.826204914000073],[121.32413865500007,17.84713067200005],[121.33985049000012,17.87173246800006],[121.32073346400011,17.897658041000057],[121.28301948300009,17.891626036000048],[121.16285585700007,17.855512392000037],[121.08274766500006,17.83620884100003],[121.0954090780001,17.80744437900006],[121.10883458600006,17.739445818000036],[121.11067267300007,17.684892269000045],[121.11445616500009,17.684967189000076],[121.11752955800011,17.68332818400006],[121.12094725500003,17.67414837700005],[121.1325760310001,17.67234271600006],[121.13932253900009,17.676736163000044],[121.14258180200011,17.676026469000078],[121.14375487900008,17.67427592300004],[121.14365983400012,17.66704078400005],[121.14601259900007,17.66329793500006],[121.15156283400006,17.663272694000057],[121.15850505600008,17.666066589000025],[121.16200503400012,17.664881319000074],[121.16767728600007,17.669869821000077],[121.17023120700003,17.66948573800005],[121.17328511000005,17.666550091000033],[121.17358859,17.66147586200003],[121.17672048400004,17.657100940000078],[121.18151743800001,17.655204667000078],[121.1864298380001,17.655474397000035],[121.18770896700005,17.651469346000056],[121.19849677600007,17.64420186600006],[121.21925737000004,17.635588399000028],[121.23119520300008,17.63629835300003],[121.23552752600006,17.64123853500007],[121.23529448900001,17.644741277000037],[121.24044747900007,17.654378180000037],[121.25345991200004,17.659203984000044],[121.25354751400005,17.67230002100007],[121.25869072400008,17.674579909000045],[121.26614798600008,17.683203898000045],[121.27649862700002,17.684045338000033],[121.28129082500004,17.682456843000068],[121.284441033,17.683695749000037],[121.29578468900002,17.680417802000022],[121.30482793600004,17.666375654000035],[121.30359246900002,17.66199183300006],[121.29874457100004,17.65610837400004]]]}},{"type":"Feature","properties":{"shapeName":"Flora","shapeISO":"","shapeID":"30758251B46507023603646","shapeGroup":"PHL","shapeType":"ADM3","psgc_code":"1408103000","legacy_psgc_code":"148103000","province":"Apayao"},"geometry":{"type":"Polygon","coordinates":[[[121.48712373500007,18.203834650000033],[121.44872074600005,18.215219305000062],[121.46855785100001,18.23083583400006],[121.46911639100006,18.237410040000043],[121.45921751800006,18.235285393000026],[121.43197644300005,18.247168989000045],[121.42102360400008,18.246531531000073],[121.41880135400004,18.248191731000077],[121.4163826360001,18.24548771600007],[121.41507478500012,18.237655326000038],[121.41658761600002,18.225764816000037],[121.41420869,18.22142156700005],[121.41113897500009,18.218802476000064],[121.40489544900004,18.217322787000057],[121.39520715300011,18.20754775000006],[121.38791856500006,18.20481212800007],[121.3782475800001,18.20433623200006],[121.37011703900009,18.20059604100004],[121.36827457800007,18.196699050000063],[121.37175268100009,18.187210118000053],[121.37110914000004,18.183735055000056],[121.36469983100005,18.173388643000067],[121.36170974900006,18.164416385000038],[121.3547522,18.161364234000075],[121.35312253600011,18.15912465300005],[121.357622203,18.152462241000023],[121.357588512,18.15015678800006],[121.34746374300005,18.145738805000065],[121.34509839400005,18.140410331000055],[121.3454184950001,18.138231550000057],[121.34834023100007,18.13618703000003],[121.3612991650001,18.137777862000064],[121.3680518430001,18.133405155000048],[121.37023254600001,18.124794524000038],[121.36585141900002,18.12433717400006],[121.36426685900005,18.12072661700006],[121.37033140900007,18.116119584000046],[121.37000018700007,18.112729496000043],[121.35770237500003,18.108017804000042],[121.35782679200008,18.103591142000028],[121.36223047200008,18.103412474000038],[121.36283518200003,18.101156480000043],[121.36653226100009,18.099652843000058],[121.36528098200006,18.097764174000076],[121.36171446800006,18.098150212000064],[121.36066917700009,18.09682243800006],[121.36420034100001,18.092221082000037],[121.36129583700006,18.089928412000063],[121.3588691220001,18.09007086200006],[121.35454102200003,18.094603764000055],[121.35306856900002,18.092013735000023],[121.35390457900007,18.09035818800004],[121.34929022400001,18.08755593500007],[121.34921704500005,18.086038775000077],[121.34631066300005,18.085421693000058],[121.34584470700008,18.08208696500003],[121.34141556600002,18.078270255000064],[121.33570837100001,18.075854932000027],[121.33365263100006,18.073085452000043],[121.32717143600007,18.074912765000022],[121.32775446700009,18.066738394000026],[121.32629340900007,18.064434489000064],[121.3243528700001,18.06424042900005],[121.32292920900011,18.065999824000073],[121.32503832300006,18.069903863000036],[121.32273587600002,18.072280613000032],[121.32156084700011,18.071629144000042],[121.32057993800004,18.06439556500004],[121.3173730210001,18.062866151000037],[121.318184846,18.06032754000006],[121.32078327900001,18.061273305000043],[121.3225320570001,18.059060937000027],[121.31796324700008,18.05649825000006],[121.31648882900004,18.053545231000044],[121.32199471900003,18.054418759000043],[121.32266395900001,18.048002436000047],[121.32578503800005,18.04905182600004],[121.32810318400004,18.048202889000038],[121.32863176800004,18.04663483400003],[121.32632955000008,18.045344846000035],[121.329295838,18.042102315000022],[121.33512934200007,18.04368917000005],[121.33663621000005,18.045785573000046],[121.33723600400003,18.042003597000075],[121.34280324000008,18.04154526700006],[121.34689143800006,18.03861084700003],[121.36446941600002,18.061619119000056],[121.427838,18.035335404000023],[121.46035909600005,18.04941033700004],[121.4649593910001,18.08573718100007],[121.46567299300011,18.10467871900005],[121.46315965800011,18.11228163900006],[121.46041510300006,18.12421476000003],[121.46475402200008,18.126002750000055],[121.46554829500008,18.124945574000037],[121.46856761200002,18.125323066000078],[121.46957490200009,18.128438973000073],[121.47195988200008,18.12884780400003],[121.4716019120001,18.130382213000075],[121.4732887770001,18.129900831000043],[121.4740142170001,18.133763094000074],[121.47077350100005,18.13713300300003],[121.47092281300002,18.140326677000076],[121.47366624800009,18.141397230000052],[121.47410153900012,18.139809343000024],[121.47853965500008,18.141766871000073],[121.47852479800008,18.143567489000077],[121.48185304900005,18.144307629000025],[121.48453233400005,18.148222886000042],[121.4834594140001,18.15102472600006],[121.48510784200005,18.16297568300007],[121.48352213800001,18.163986774000023],[121.48250050400009,18.16832630600004],[121.48481759600008,18.168877576000057],[121.48327782800004,18.169667408000066],[121.48659494700007,18.177992930000073],[121.48418705900008,18.178869791000068],[121.48712373500007,18.203834650000033]]]}},{"type":"Feature","properties":{"shapeName":"Kabugao","shapeISO":"","shapeID":"30758251B69063872929594","shapeGroup":"PHL","shapeType":"ADM3","psgc_code":"1408104000","legacy_psgc_code":"148104000","province":"Apayao"},"geometry":{"type":"Polygon","coordinates":[[[120.9403137060001,17.986803063000025],[120.93125998500011,17.973635974000047],[120.94546979300003,17.959179393000056],[120.95633031300008,17.958085839000034],[120.9720086000001,17.946069066000064],[120.98468990700007,17.94174900400003],[120.98722843300004,17.938800343000025],[120.9943455660001,17.924710094000034],[121.0001914500001,17.90313304400007],[121.00246603900007,17.853323841000076],[121.00603195000008,17.848259769000038],[121.01063238100005,17.844534031000023],[121.01914682000006,17.841822682000043],[121.03641414300012,17.842518659000064],[121.06055366400005,17.847895117000064],[121.07739161500001,17.842775292000056],[121.08274766500006,17.83620884100003],[121.16285585700007,17.855512392000037],[121.28301948300009,17.891626036000048],[121.32073346400011,17.897658041000057],[121.33985049000012,17.87173246800006],[121.34696177600006,17.87941514000005],[121.35283696500005,17.903187702000025],[121.35706746300002,17.91319670400003],[121.35745211900007,17.92236854300006],[121.31511820900005,17.97078315600004],[121.27385595700002,18.019363492000025],[121.29310356000008,18.080944887000044],[121.27628780500004,18.110501689000046],[121.27393714200002,18.111543655000048],[121.26776873000006,18.108827579000035],[121.26554856000007,18.110186704000057],[121.2593953700001,18.10719221100004],[121.25707580400001,18.10831322000007],[121.25342503900004,18.104434685000058],[121.24574814100004,18.10434381400006],[121.2455043980001,18.101783280000063],[121.23942011300005,18.102067717000068],[121.23847171300008,18.103299899000035],[121.2376187960001,18.10729094000004],[121.23961210100003,18.109390549000068],[121.2369025370001,18.117091290000076],[121.237658785,18.120623324000064],[121.23416643600001,18.121956708000027],[121.23282115200004,18.124355089000062],[121.23440798800004,18.136269558000038],[121.230553299,18.137314760000038],[121.22826231200008,18.14006888800003],[121.22929467600011,18.14166417000007],[121.22467016900009,18.14375007900003],[121.22614973000009,18.153411188000064],[121.22537142300007,18.185578785000075],[121.22109450500011,18.203971136000064],[121.21503340100003,18.218349927000077],[121.156000618,18.213752061000037],[121.13811112300004,18.17613500300007],[121.13231311400011,18.166733399000066],[121.12593356200011,18.16084098300007],[121.11492073800002,18.145349561000046],[121.0668863520001,18.051089323000042],[121.05288018100009,18.033663314000023],[121.0200449030001,18.035954753000055],[120.9985701920001,18.031149953000067],[121.00587407400008,18.021199325000055],[121.00521486700006,18.016610295000078],[120.99869770300006,18.013827750000075],[120.98954638600003,18.003081312000063],[120.98621537300005,17.995329601000037],[120.97401424300006,17.98714389400004],[120.96503255400012,17.984264711000037],[120.9403137060001,17.986803063000025]]]}},{"type":"Feature","properties":{"shapeName":"Luna","shapeISO":"","shapeID":"30758251B75623612075236","shapeGroup":"PHL","shapeType":"ADM3","psgc_code":"1408105000","legacy_psgc_code":"148105000","province":"Apayao"},"geometry":{"type":"Polygon","coordinates":[[[121.3734936840001,18.355494191000048],[121.3186229800001,18.38715477900007],[121.28555701000005,18.388537952000036],[121.270539589,18.405082501000038],[121.21406221000007,18.362256521000063],[121.21503340100003,18.218349927000077],[121.30563971100003,18.221022464000043],[121.31037191000007,18.223029516000054],[121.31259570700001,18.22889874400005],[121.31897162300004,18.23410777400005],[121.31772398800001,18.238508543000023],[121.3210905950001,18.237289071000077],[121.32313753000005,18.238604464000048],[121.32499223200011,18.237208920000057],[121.32775299600007,18.238444248000064],[121.32748690500011,18.240562599000043],[121.32564039300007,18.24138286300007],[121.3261816370001,18.243307351000055],[121.33412824400011,18.245431955000072],[121.3298602430001,18.24793534300005],[121.33455210000011,18.25186100800005],[121.33799796100004,18.25030705000006],[121.3436216,18.25032735700006],[121.3447747140001,18.24866993200004],[121.34954777200005,18.25371229800004],[121.35250498100004,18.251594917000034],[121.35803497400002,18.254309646000024],[121.3606584910001,18.251362095000047],[121.36062753300007,18.25472368800007],[121.36633651700004,18.253124310000032],[121.37284812300004,18.253354740000077],[121.37500787800002,18.257507571000076],[121.37323607400003,18.25920213300003],[121.3754730610001,18.25954463000005],[121.37634353400006,18.258257489000073],[121.37861673300006,18.261248591000026],[121.39146565500005,18.25427806400006],[121.41197626300004,18.25394172500006],[121.40945394900007,18.260591935000036],[121.41672980800001,18.267387187000054],[121.41688707500009,18.27074863100006],[121.41001005500004,18.278226095000036],[121.4084537540001,18.28221506700004],[121.4141182940001,18.309559567000065],[121.4172613930001,18.315085632000034],[121.41583439900012,18.323572073000037],[121.41285786200001,18.329370144000052],[121.40743751700006,18.333343858000035],[121.40238274300009,18.340896047000058],[121.3734936840001,18.355494191000048]]]}},{"type":"Feature","properties":{"shapeName":"Pudtol","shapeISO":"","shapeID":"30758251B84586369455003","shapeGroup":"PHL","shapeType":"ADM3","psgc_code":"1408106000","legacy_psgc_code":"148106000","province":"Apayao"},"geometry":{"type":"Polygon","coordinates":[[[121.4163826360001,18.24548771600007],[121.41241754600003,18.24892779100003],[121.41197626300004,18.25394172500006],[121.39146565500005,18.25427806400006],[121.37861673300006,18.261248591000026],[121.37634353400006,18.258257489000073],[121.3754730610001,18.25954463000005],[121.37323607400003,18.25920213300003],[121.37500787800002,18.257507571000076],[121.37284812300004,18.253354740000077],[121.36633651700004,18.253124310000032],[121.36062753300007,18.25472368800007],[121.3606584910001,18.251362095000047],[121.35803497400002,18.254309646000024],[121.35250498100004,18.251594917000034],[121.34954777200005,18.25371229800004],[121.3447747140001,18.24866993200004],[121.3436216,18.25032735700006],[121.33799796100004,18.25030705000006],[121.33455210000011,18.25186100800005],[121.3298602430001,18.24793534300005],[121.33412824400011,18.245431955000072],[121.3261816370001,18.243307351000055],[121.32564039300007,18.24138286300007],[121.32748690500011,18.240562599000043],[121.32775299600007,18.238444248000064],[121.32499223200011,18.237208920000057],[121.32313753000005,18.238604464000048],[121.3210905950001,18.237289071000077],[121.31772398800001,18.238508543000023],[121.31897162300004,18.23410777400005],[121.31259570700001,18.22889874400005],[121.31037191000007,18.223029516000054],[121.30563971100003,18.221022464000043],[121.21503340100003,18.218349927000077],[121.22109450500011,18.203971136000064],[121.22537142300007,18.185578785000075],[121.22614973000009,18.153411188000064],[121.22467016900009,18.14375007900003],[121.22929467600011,18.14166417000007],[121.22826231200008,18.14006888800003],[121.230553299,18.137314760000038],[121.23440798800004,18.136269558000038],[121.23282115200004,18.124355089000062],[121.23416643600001,18.121956708000027],[121.237658785,18.120623324000064],[121.2369025370001,18.117091290000076],[121.23961210100003,18.109390549000068],[121.2376187960001,18.10729094000004],[121.23847171300008,18.103299899000035],[121.23942011300005,18.102067717000068],[121.2455043980001,18.101783280000063],[121.24574814100004,18.10434381400006],[121.25342503900004,18.104434685000058],[121.25707580400001,18.10831322000007],[121.2593953700001,18.10719221100004],[121.26554856000007,18.110186704000057],[121.26776873000006,18.108827579000035],[121.27393714200002,18.111543655000048],[121.27628780500004,18.110501689000046],[121.29310356000008,18.080944887000044],[121.27385595700002,18.019363492000025],[121.31511820900005,17.97078315600004],[121.31824474100006,17.970964412000058],[121.3175669530001,17.974368196000057],[121.31859298000006,17.975259680000022],[121.32030734500006,17.973391652000032],[121.32412051300003,17.97344461600005],[121.322066532,17.975466766000068],[121.32310746200005,17.976986132000036],[121.32662977400003,17.975108411000065],[121.32050303300002,17.984501248000072],[121.32158608700001,17.988680685000077],[121.32415807200005,17.989211873000045],[121.3233409290001,17.991337860000044],[121.32439761700005,17.992105093000077],[121.32768990700004,17.991035031000024],[121.330216285,17.992489746000047],[121.33161727200002,17.99098106200006],[121.33107069400012,17.993711361000067],[121.33311889000004,17.995296069000062],[121.33333782800003,17.997669693000034],[121.33095626000011,17.99977583200007],[121.3385484580001,18.007974079000064],[121.33671511700004,18.013687573000027],[121.33969858900002,18.01326315800003],[121.34074094300001,18.015952612000035],[121.34422767400008,18.01669662300003],[121.34399115500003,18.022781058000078],[121.34759250900004,18.022759493000024],[121.34908344500002,18.024898303000043],[121.34828189900009,18.02974415400007],[121.34356314900003,18.031746456000064],[121.34689143800006,18.03861084700003],[121.34280324000008,18.04154526700006],[121.33723600400003,18.042003597000075],[121.33663621000005,18.045785573000046],[121.33512934200007,18.04368917000005],[121.329295838,18.042102315000022],[121.32632955000008,18.045344846000035],[121.32863176800004,18.04663483400003],[121.32810318400004,18.048202889000038],[121.32578503800005,18.04905182600004],[121.32266395900001,18.048002436000047],[121.32199471900003,18.054418759000043],[121.31648882900004,18.053545231000044],[121.31796324700008,18.05649825000006],[121.3225320570001,18.059060937000027],[121.32078327900001,18.061273305000043],[121.318184846,18.06032754000006],[121.3173730210001,18.062866151000037],[121.32057993800004,18.06439556500004],[121.32156084700011,18.071629144000042],[121.32273587600002,18.072280613000032],[121.32503832300006,18.069903863000036],[121.32292920900011,18.065999824000073],[121.3243528700001,18.06424042900005],[121.32629340900007,18.064434489000064],[121.32775446700009,18.066738394000026],[121.32717143600007,18.074912765000022],[121.33365263100006,18.073085452000043],[121.33570837100001,18.075854932000027],[121.34141556600002,18.078270255000064],[121.34584470700008,18.08208696500003],[121.34631066300005,18.085421693000058],[121.34921704500005,18.086038775000077],[121.34929022400001,18.08755593500007],[121.35390457900007,18.09035818800004],[121.35306856900002,18.092013735000023],[121.35454102200003,18.094603764000055],[121.3588691220001,18.09007086200006],[121.36129583700006,18.089928412000063],[121.36420034100001,18.092221082000037],[121.36066917700009,18.09682243800006],[121.36171446800006,18.098150212000064],[121.36528098200006,18.097764174000076],[121.36653226100009,18.099652843000058],[121.36283518200003,18.101156480000043],[121.36223047200008,18.103412474000038],[121.35782679200008,18.103591142000028],[121.35770237500003,18.108017804000042],[121.37000018700007,18.112729496000043],[121.37033140900007,18.116119584000046],[121.36426685900005,18.12072661700006],[121.36585141900002,18.12433717400006],[121.37023254600001,18.124794524000038],[121.3680518430001,18.133405155000048],[121.3612991650001,18.137777862000064],[121.34834023100007,18.13618703000003],[121.3454184950001,18.138231550000057],[121.34509839400005,18.140410331000055],[121.34746374300005,18.145738805000065],[121.357588512,18.15015678800006],[121.357622203,18.152462241000023],[121.35312253600011,18.15912465300005],[121.3547522,18.161364234000075],[121.36170974900006,18.164416385000038],[121.36469983100005,18.173388643000067],[121.37110914000004,18.183735055000056],[121.37175268100009,18.187210118000053],[121.36827457800007,18.196699050000063],[121.37011703900009,18.20059604100004],[121.3782475800001,18.20433623200006],[121.38791856500006,18.20481212800007],[121.39520715300011,18.20754775000006],[121.40489544900004,18.217322787000057],[121.41113897500009,18.218802476000064],[121.41420869,18.22142156700005],[121.41658761600002,18.225764816000037],[121.41507478500012,18.237655326000038],[121.4163826360001,18.24548771600007]]]}},{"type":"Feature","properties":{"shapeName":"Santa Marcela","shapeISO":"","shapeID":"30758251B35080960553319","shapeGroup":"PHL","shapeType":"ADM3","psgc_code":"1408107000","legacy_psgc_code":"148107000","province":"Apayao"},"geometry":{"type":"Polygon","coordinates":[[[121.41583439900012,18.323572073000037],[121.4172613930001,18.315085632000034],[121.4141182940001,18.309559567000065],[121.4084537540001,18.28221506700004],[121.41001005500004,18.278226095000036],[121.41688707500009,18.27074863100006],[121.41672980800001,18.267387187000054],[121.40945394900007,18.260591935000036],[121.41197626300004,18.25394172500006],[121.41241754600003,18.24892779100003],[121.4163826360001,18.24548771600007],[121.41880135400004,18.248191731000077],[121.42102360400008,18.246531531000073],[121.43197644300005,18.247168989000045],[121.45921751800006,18.235285393000026],[121.46911639100006,18.237410040000043],[121.46855785100001,18.23083583400006],[121.44872074600005,18.215219305000062],[121.48712373500007,18.203834650000033],[121.48948360700001,18.238844983000035],[121.4820524800001,18.259690483000043],[121.48059010800011,18.26337983800005],[121.46791386300004,18.262596828000028],[121.4646269640001,18.284910661000026],[121.48022320600012,18.30637117400005],[121.46684622600003,18.307332271000064],[121.46125680300008,18.314619768000057],[121.41583439900012,18.323572073000037]]]}}]}
