{"type":"FeatureCollection","source":{"dataset":"geoBoundaries gbOpen PHL ADM3","commit":"9469f09","license":"CC BY 3.0 IGO","boundary_year":2020,"url":"https://media.githubusercontent.com/media/wmgeolab/geoBoundaries/9469f09/releaseData/gbOpen/PHL/ADM3/geoBoundaries-PHL-ADM3_simplified.geojson","upstream_sources":["NAMRIA","PSA","OCHA Philippines"],"reference":"https://ulap-nga.georisk.gov.ph/arcgis/rest/services/PSA/Municipal/MapServer/0","psgc_reference":"https://psa.gov.ph/classification/psgc/citimuni/0300000000","notice":"Approximate planning/reference boundaries, not legal, cadastral, or survey-grade."},"features":[{"type":"Feature","properties":{"shapeName":"Baler","shapeISO":"","shapeID":"30758251B90201741515096","shapeGroup":"PHL","shapeType":"ADM3","psgc_code":"0307701000","legacy_psgc_code":"037701000","province":"Aurora"},"geometry":{"type":"Polygon","coordinates":[[[121.59539397600008,15.67964716800003],[121.59916607700006,15.681770116000052],[121.59906232700007,15.683354144000077],[121.61105370100006,15.684210992000033],[121.61163303300009,15.685690350000073],[121.60996827200006,15.687637038000048],[121.61210113400011,15.688686965000045],[121.61241156800008,15.690976154000055],[121.6138361080001,15.690740136000045],[121.61029673700011,15.69500651900006],[121.61115733100007,15.698074521000024],[121.60882290100005,15.698553279000066],[121.6076514780001,15.700705070000026],[121.61218370600011,15.70177026600004],[121.60977213800004,15.70552637700007],[121.61119756200003,15.707826943000043],[121.62055150000003,15.704891520000047],[121.62365235400011,15.708797842000024],[121.62482359500007,15.708250384000053],[121.62456635500007,15.710396780000053],[121.63199046600005,15.710227092000025],[121.63688255600005,15.706126421000022],[121.63775501000009,15.703236697000023],[121.63892049700007,15.703911399000049],[121.63936381100007,15.706657841000037],[121.63737733700009,15.70758496600007],[121.63695810900003,15.71113168900007],[121.63837395200005,15.711627404000069],[121.63711234300001,15.712950415000023],[121.64001971800008,15.715032046000033],[121.63988676600002,15.717585907000057],[121.64185164000003,15.719994843000052],[121.63991347600006,15.732706182000072],[121.64067840300004,15.737264828000036],[121.6380230740001,15.739295432000063],[121.63923797200005,15.74173535400007],[121.63488959600011,15.739236577000042],[121.63200239000003,15.741867076000062],[121.63293464100002,15.745297433000076],[121.63510409500009,15.745699863000027],[121.63748498400003,15.748930087000076],[121.6343756120001,15.74972088900006],[121.63510249400008,15.751572512000052],[121.63369915900012,15.751326212000038],[121.63093501000003,15.754095944000028],[121.62650183000005,15.753341313000021],[121.6220294200001,15.757259013000066],[121.6134779570001,15.756645525000067],[121.607602713,15.760002874000065],[121.59887881100008,15.762553703000037],[121.595649535,15.761279887000057],[121.59076725000011,15.756091530000049],[121.58904694400007,15.757352959000059],[121.59044547200006,15.755761238000048],[121.58925014700003,15.754177151000022],[121.5844110380001,15.753856047000056],[121.58288732800008,15.75584837200006],[121.58041294800012,15.75605153400005],[121.57590265800002,15.753844223000044],[121.5731244320001,15.755864948000067],[121.561348382,15.775046018000069],[121.55717213900004,15.787355989000048],[121.55007390900005,15.819310635000022],[121.53671305300008,15.817918162000069],[121.53084011700003,15.814012915000035],[121.51795914400009,15.800406732000056],[121.51735948700002,15.794642502000045],[121.51806474500006,15.791478554000037],[121.52029758200001,15.789480737000076],[121.50716325100007,15.779335482000022],[121.50724736400002,15.761273930000073],[121.50496863300009,15.761145438000028],[121.50225058800004,15.756990340000073],[121.49728267400008,15.75406821200005],[121.50155843100003,15.74964293000005],[121.5028814100001,15.74054252700006],[121.52018910400011,15.749290272000053],[121.53007122100007,15.749171580000052],[121.5332288830001,15.755017530000032],[121.54102816000011,15.755214287000058],[121.54296365400012,15.749158905000058],[121.54756334600006,15.749895501000026],[121.54910711800005,15.741996871000026],[121.54589490800004,15.743169765000061],[121.54682234600011,15.740240154000048],[121.54096119100006,15.73780683900003],[121.5412340470001,15.726671840000051],[121.54273620000004,15.721768723000025],[121.59539397600008,15.67964716800003]]]}},{"type":"Feature","properties":{"shapeName":"Casiguran","shapeISO":"","shapeID":"30758251B87187135187970","shapeGroup":"PHL","shapeType":"ADM3","psgc_code":"0307702000","legacy_psgc_code":"037702000","province":"Aurora"},"geometry":{"type":"MultiPolygon","coordinates":[[[[122.13135940000006,16.258959477000076],[122.13039068800003,16.25864340000004],[122.13134911100008,16.25433141900004],[122.13271736800004,16.25605604900005],[122.13135940000006,16.258959477000076]]],[[[122.23724696400006,16.312613615000032],[122.23464676100002,16.31045785500004],[122.2382574290001,16.311946479000028],[122.23724696400006,16.312613615000032]]],[[[122.17990209100003,16.302731178000045],[122.16799464400003,16.30558184100005],[122.160683231,16.30924483000007],[122.15406523700005,16.314740382000025],[122.1369044600001,16.315872934000026],[122.11237972300012,16.314119840000046],[122.10884018800004,16.331327825000074],[122.10313290800002,16.335485770000048],[122.1018719110001,16.33537878100003],[122.10105569600012,16.32853053300005],[122.10236457300005,16.325650126000028],[122.10179098000003,16.320734043000073],[122.10432031800008,16.316615313000057],[122.1007397730001,16.31518656000003],[122.09326275700005,16.315143973000033],[122.0897774880001,16.312937459000068],[122.0617099640001,16.31632012400007],[122.023893627,16.313213271000052],[121.96724739100011,16.31902718500004],[121.9412106850001,16.36589176900003],[121.90289792400006,16.314322068000024],[121.93290768400004,16.26610251200003],[121.99506350100012,16.17881907000003],[121.99819438600002,16.168510294000043],[122.0108237390001,16.172660875000076],[122.02065948000006,16.180165556000077],[122.02905202900001,16.178659133000053],[122.03882626900008,16.173858591000055],[122.04115188100002,16.177308910000022],[122.05466753900009,16.182975481000028],[122.05781740000009,16.185755460000053],[122.05715866300011,16.187019815000042],[122.05382729400003,16.18348655500006],[122.05193197500012,16.182807866000076],[122.05048154700012,16.18407699000005],[122.05027674000007,16.182031894000033],[122.04926337900008,16.18224250800006],[122.05100489300003,16.185313029000042],[122.05240701100001,16.18537176700005],[122.05204983600004,16.187082430000032],[122.0575386920001,16.18962011600007],[122.06772900800001,16.190797576000023],[122.07872049500008,16.189729748000047],[122.080179412,16.190794023000024],[122.07201152200003,16.195697059000054],[122.067455214,16.202507618000027],[122.06389461800006,16.214992559000052],[122.0670352410001,16.218232487000023],[122.063526969,16.224546202000056],[122.06692925700008,16.229183216000024],[122.06976828800009,16.229946364000057],[122.06886151000003,16.23607494600003],[122.07260717600002,16.238512787000047],[122.07005045200003,16.240497178000055],[122.07123178100005,16.242059794000056],[122.07306179800003,16.24272058500003],[122.07785939100006,16.240014943000062],[122.07876054400003,16.242791044000057],[122.08222956600002,16.241776383000058],[122.08890807300008,16.24772270400007],[122.08888775000003,16.24900254800002],[122.08685546700008,16.24956326100005],[122.08532218100004,16.25447855500005],[122.08614496700011,16.25788002400003],[122.08482099300011,16.258823981000035],[122.08921366800007,16.262547082000026],[122.09282944900008,16.262677504000067],[122.09308626500001,16.26394688700003],[122.10241869900005,16.263990016000037],[122.11091767900007,16.26045577800005],[122.11230175100002,16.25833866000005],[122.11582264700007,16.260547019000057],[122.1165373130001,16.25704910500002],[122.11941911800011,16.258340260000068],[122.1280630120001,16.25564493400003],[122.12982230400007,16.256109193000043],[122.13009431800003,16.261015746000055],[122.13151345300003,16.26133108500005],[122.13552987300011,16.255578582000055],[122.13939712800004,16.256261909000045],[122.13825485600012,16.248605788000077],[122.13494868700002,16.241790862000073],[122.13571547400011,16.237292892000028],[122.13171067600001,16.231563937000033],[122.12787454800002,16.229998418000037],[122.12672869500011,16.228034308000076],[122.12932889600006,16.225367904000052],[122.12079991500002,16.220267402000047],[122.11636469500002,16.213328285000046],[122.11087940800007,16.212235130000067],[122.10158597000009,16.206643864000057],[122.0967041880001,16.206468796000024],[122.0950474760001,16.204469131000053],[122.09064272300009,16.19008605600004],[122.09417613500011,16.17158541300006],[122.08421112000008,16.154673482000078],[122.06509560000006,16.136024253000073],[122.0615231920001,16.12945794600006],[122.05639810800005,16.129371238000033],[122.05058242400003,16.12687479400006],[122.04624620700008,16.123075611000047],[122.04431587400006,16.11620283800005],[122.03695494600004,16.111153759000047],[122.03336545500008,16.111737824000045],[122.01779603500006,16.090274976000046],[121.99428878600008,16.043861202000073],[121.99232483700007,16.034072432000073],[121.98893557200006,16.029207461000055],[121.99143852100008,16.02766000300005],[121.9938076630001,16.028651095000043],[121.99865869700011,16.027860016000034],[122.00240623900004,16.03108627200004],[122.00392969500001,16.029707459000065],[122.00320952800007,16.02892473600002],[122.00458885800003,16.029287831000033],[122.0055892040001,16.030541236000033],[122.00344043400003,16.031575778000047],[122.0038346880001,16.033739353000044],[122.00859999900001,16.034925916000077],[122.0116217640001,16.04320765400007],[122.01421448200006,16.04426459000007],[122.01747296500002,16.050002410000047],[122.02463604500008,16.050258733000078],[122.027530823,16.047334127000056],[122.02953244900004,16.050649796000073],[122.0316678370001,16.04916295000004],[122.03301214900011,16.051220314000034],[122.03217997700006,16.05073929400004],[122.03237703600007,16.054438223000034],[122.03800298600004,16.057416127000067],[122.03823284900011,16.055503119000036],[122.04057245800004,16.057402466000042],[122.0401627330001,16.062189020000062],[122.04414212800009,16.06214394700004],[122.04631378200008,16.067124410000076],[122.0491422020001,16.06556464700003],[122.04984036100007,16.06787231000004],[122.0474600010001,16.070802542000024],[122.04912165000007,16.07177624700006],[122.04896409100002,16.07402791000004],[122.05177084400009,16.07544667800005],[122.05123781900011,16.076760446000037],[122.05689072300004,16.078594821000024],[122.06017729300004,16.084793137000077],[122.06442991300003,16.086527465000074],[122.06749008000008,16.090883095000038],[122.07269675100008,16.09118683500003],[122.06917162600007,16.09440465600005],[122.06902040500006,16.099535571000047],[122.06490461300007,16.11066702100004],[122.06995863300006,16.120234507000077],[122.07524811500002,16.124566014000038],[122.07765464800002,16.12348643100006],[122.07844222900007,16.12638338000005],[122.08220952600004,16.126908110000045],[122.08410597000011,16.13289151200007],[122.08951746600007,16.137265867000053],[122.0912375260001,16.137245705000055],[122.09074110400002,16.138384065000025],[122.09676759000001,16.143493931000023],[122.10042616100009,16.14335783300004],[122.09994840200011,16.144495247000066],[122.10432593300004,16.145933743000057],[122.10586568800011,16.144633654000074],[122.1052787100001,16.146571632000075],[122.10671917400009,16.14539379400003],[122.10672585300006,16.146812999000076],[122.108233702,16.146629682000025],[122.10604511600002,16.149109578000036],[122.11041752900007,16.153230851000046],[122.1129254970001,16.151886196000078],[122.1134011580001,16.153634520000026],[122.11156892200006,16.155366395000044],[122.11373665100007,16.158395432000077],[122.11319542900003,16.16165187000007],[122.11615326300011,16.166266462000067],[122.11997378400008,16.16768831400003],[122.12227780100011,16.166995937000024],[122.12289737100002,16.169958145000066],[122.1262788250001,16.170267894000062],[122.12677567100002,16.175301439000066],[122.13725959300007,16.18723499600003],[122.14049609900007,16.186963409000043],[122.1425420600001,16.192303684000024],[122.14975117600011,16.19580055800003],[122.15793450700005,16.197154386000022],[122.16743051200001,16.20580514200003],[122.17406170100003,16.219202104000033],[122.18095711300009,16.22403262200004],[122.18988841100008,16.225797975000035],[122.19957692700007,16.232988145000036],[122.20335064000005,16.23758027200006],[122.2051073240001,16.243593863000058],[122.2017508780001,16.253354470000033],[122.20300516400005,16.258197236000058],[122.20775167400006,16.265730417000043],[122.2069836610001,16.267854088000036],[122.20827416400004,16.27145518800006],[122.2100086910001,16.272928197000056],[122.21448168300003,16.271970130000057],[122.21555539300005,16.275306011000055],[122.22180039800003,16.282101196000042],[122.23156525000002,16.300036069000043],[122.23088303000009,16.301963111000077],[122.2339121870001,16.303653669000028],[122.2323215990001,16.303534176000028],[122.23133513800008,16.306385069000044],[122.235011686,16.306998234000048],[122.2355586760001,16.309833309000055],[122.23417161500004,16.310291152000048],[122.22479792900003,16.30492706800004],[122.21505580300004,16.295606977000034],[122.21453730400003,16.29351814300003],[122.21117160400001,16.293499883000038],[122.2057524280001,16.296771559000035],[122.19936499000005,16.29160451100006],[122.19314016600003,16.289834494000047],[122.18447880100007,16.295454703000075],[122.182565,16.298069433000023],[122.1834692320001,16.299429728000064],[122.17990209100003,16.302731178000045]]]]}},{"type":"Feature","properties":{"shapeName":"Dilasag","shapeISO":"","shapeID":"30758251B50259762505671","shapeGroup":"PHL","shapeType":"ADM3","psgc_code":"0307703000","legacy_psgc_code":"037703000","province":"Aurora"},"geometry":{"type":"Polygon","coordinates":[[[122.17990209100003,16.302731178000045],[122.186910914,16.314432975000045],[122.19184535200009,16.31871122700005],[122.1929551180001,16.322274140000047],[122.19129323000004,16.324187023000036],[122.19099715300001,16.33377669500004],[122.19703898900002,16.34013358200002],[122.20209064900007,16.33943374300003],[122.2095627760001,16.346859624000047],[122.2120606630001,16.350038101000052],[122.211591655,16.35310856500007],[122.21359007600006,16.35666093100002],[122.21727098400004,16.35568168900005],[122.21837526900003,16.353628221000065],[122.22509413500006,16.35704965000002],[122.22622753600001,16.361721671000055],[122.22985672100003,16.366321003000053],[122.23028094800009,16.370603818000063],[122.22916235200012,16.370582037000077],[122.22824099900004,16.374906871000064],[122.23315946500009,16.382210921000024],[122.23306359000003,16.390734638000026],[122.23826029100007,16.403957142000024],[122.23865474500008,16.408389343000067],[122.24156279600004,16.410446533000027],[122.24076299900003,16.417582786000025],[122.24200699700009,16.417456190000053],[122.2410895060001,16.418810621000034],[122.24297540200007,16.421148129000073],[122.23903677700002,16.42296076100007],[122.24017958600007,16.42534309200005],[122.23782144300003,16.428502362000074],[122.23141750200011,16.417311683000037],[122.22835335900004,16.395326192000027],[122.22633387700012,16.393785152000078],[122.22528754600012,16.395205648000058],[122.22114622100003,16.39486697700005],[122.21769181500008,16.396488315000056],[122.21356811500004,16.401957614000025],[122.21266384300009,16.405640050000045],[122.20752964600001,16.407699060000027],[122.2003443000001,16.415045218000046],[122.20174010800008,16.421856508000076],[122.19930659600004,16.433408903000043],[122.2045159160001,16.440023024000027],[122.20665993500006,16.438452303000076],[122.209641927,16.438968459000023],[122.22276855200005,16.45803109900004],[122.22761839600003,16.457698210000046],[122.228591058,16.462292399000034],[122.23038839500009,16.46403781600003],[122.22727463700005,16.46920776500002],[122.2321548000001,16.472908331000042],[122.23417917900008,16.487238956000056],[122.23059986800001,16.48400908800005],[122.21427288000007,16.479844291000063],[122.05880819100003,16.50925477800007],[122.024890346,16.465353099000026],[121.96723491500006,16.40023248400007],[121.9412106850001,16.36589176900003],[121.96724739100011,16.31902718500004],[122.023893627,16.313213271000052],[122.0617099640001,16.31632012400007],[122.0897774880001,16.312937459000068],[122.09326275700005,16.315143973000033],[122.1007397730001,16.31518656000003],[122.10432031800008,16.316615313000057],[122.10179098000003,16.320734043000073],[122.10236457300005,16.325650126000028],[122.10105569600012,16.32853053300005],[122.1018719110001,16.33537878100003],[122.10313290800002,16.335485770000048],[122.10884018800004,16.331327825000074],[122.11237972300012,16.314119840000046],[122.1369044600001,16.315872934000026],[122.15406523700005,16.314740382000025],[122.160683231,16.30924483000007],[122.16799464400003,16.30558184100005],[122.17990209100003,16.302731178000045]]]}},{"type":"Feature","properties":{"shapeName":"Dinalungan","shapeISO":"","shapeID":"30758251B88004943266135","shapeGroup":"PHL","shapeType":"ADM3","psgc_code":"0307704000","legacy_psgc_code":"037704000","province":"Aurora"},"geometry":{"type":"Polygon","coordinates":[[[121.90289792400006,16.314322068000024],[121.89353425500008,16.301854026000058],[121.86282605800011,16.271396107000044],[121.84589590900009,16.249155589000054],[121.81960476300003,16.22622517800005],[121.78125155300006,16.19321946900004],[121.76492361800001,16.173819910000077],[121.79982529900008,16.141779754000027],[121.80232880400001,16.13554147800005],[121.79130849500007,16.109707033000063],[121.78897688900008,16.10724990500006],[121.78445317900002,16.106552744000055],[121.7873190900001,16.080826242000057],[121.78577331200006,16.070701143000065],[121.78924318200006,16.070707585000036],[121.79008698900009,16.068913391000024],[121.79304605700008,16.069272806000072],[121.79563570200003,16.07472338100007],[121.79694675200005,16.074484690000077],[121.79794456400009,16.078666745000078],[121.80176396500008,16.080366274000028],[121.8052874760001,16.079603405000057],[121.81311604300004,16.086510503000056],[121.81654572900004,16.08655953600004],[121.8214706340001,16.083585807000077],[121.82489181400001,16.08563913000006],[121.82797256200001,16.091005636000034],[121.83654850900007,16.08989755700003],[121.83666358500011,16.091462875000047],[121.83877368500009,16.091416134000042],[121.84001700300007,16.095180278000043],[121.8433467100001,16.09665405800007],[121.84782417800011,16.104745816000047],[121.85082814400005,16.105910037000058],[121.85485661100006,16.10494200100004],[121.85714674300004,16.11071571800005],[121.85955801300008,16.11065820700003],[121.85874865400001,16.112095770000053],[121.8604016480001,16.11262451600004],[121.86155739700007,16.11604703300003],[121.87438553200002,16.122929615000032],[121.89978390100009,16.128859422000062],[121.90811164200011,16.12876146700006],[121.91914923600007,16.12475279100005],[121.9352529460001,16.125490693000074],[121.9400414270001,16.12986215500007],[121.94720628100004,16.131270251000046],[121.95451438600003,16.135123462000024],[121.96677490800005,16.13611011300003],[121.97565015500004,16.14364729400006],[121.97787429000005,16.149578939000037],[121.98422014000005,16.158362151000063],[121.99819438600002,16.168510294000043],[121.99506350100012,16.17881907000003],[121.93290768400004,16.26610251200003],[121.90289792400006,16.314322068000024]]]}},{"type":"Feature","properties":{"shapeName":"Dingalan","shapeISO":"","shapeID":"30758251B91173779963117","shapeGroup":"PHL","shapeType":"ADM3","psgc_code":"0307705000","legacy_psgc_code":"037705000","province":"Aurora"},"geometry":{"type":"Polygon","coordinates":[[[121.37772928100003,15.487287826000056],[121.378521524,15.485011371000041],[121.35818904700011,15.406468662000066],[121.35268337900004,15.397414897000033],[121.35109285300007,15.391175141000076],[121.34011305400008,15.393330788000071],[121.33820903800006,15.39197077700004],[121.34065705800003,15.38590901200007],[121.33999648100007,15.38283927200007],[121.34240564400011,15.382489554000074],[121.34120106300009,15.37934210000003],[121.34318279400009,15.378759238000043],[121.34244450200003,15.376350074000072],[121.34473709200006,15.37518435000004],[121.34275536100006,15.371648321000066],[121.34609710400002,15.369666590000065],[121.34427080300009,15.36714085500006],[121.34815655000011,15.366091703000052],[121.34520338200002,15.361428807000038],[121.34850626700006,15.360535085000038],[121.34734054300009,15.358320209000055],[121.34815655000011,15.356532766000043],[121.3513040040001,15.35839792400003],[121.35243087100002,15.357620775000044],[121.34897255600004,15.353929315000073],[121.35340230800011,15.353113308000047],[121.35033256800011,15.350820718000023],[121.35142057700011,15.34642982400004],[121.35441260200002,15.344486950000032],[121.35250858600011,15.341300638000064],[121.35600575800004,15.339746339000044],[121.35122628900001,15.337803466000025],[121.35052685500011,15.332790853000063],[121.35375202500006,15.329721113000062],[121.34741825800006,15.328361101000041],[121.34850626700006,15.32439763900004],[121.3466666600001,15.320515300000068],[121.33978219100004,15.321829423000054],[121.34354378700004,15.319424167000022],[121.34015142300007,15.316446281000026],[121.33860403800008,15.31675477400006],[121.33997852800007,15.31412167700006],[121.33789006200004,15.314742558000034],[121.33753271800003,15.313433771000064],[121.3405803820001,15.311527456000022],[121.33926265700006,15.308907280000028],[121.3407940300001,15.307361678000063],[121.33935466300011,15.306945149000057],[121.34015115000011,15.304419129000053],[121.33892401900005,15.30212509200004],[121.33703779900009,15.303873778000025],[121.33738448400004,15.301316718000066],[121.33383692600012,15.296353488000022],[121.33920305200002,15.284978185000057],[121.33245720700006,15.28586520500005],[121.32359234400008,15.239708991000043],[121.3121526430001,15.19876970100006],[121.31006640500004,15.191303677000064],[121.31879139300008,15.164067442000032],[121.32052488400006,15.14128271800007],[121.31965715800004,15.116397642000038],[121.32344621100003,15.095825838000053],[121.32884713800001,15.08529046800004],[121.33205404700004,15.072036283000045],[121.33576784200011,15.041492187000074],[121.34785653300003,14.996370968000065],[121.35338362700008,15.001538499000048],[121.35365701400008,15.007897333000074],[121.35710532600001,15.011749193000071],[121.35708473000011,15.016958019000072],[121.3548048020001,15.021957028000031],[121.35633009800006,15.02750039600005],[121.35207181600003,15.031742732000055],[121.35288146000005,15.034782517000053],[121.35137018900002,15.035906006000062],[121.34565046000012,15.035625591000041],[121.34441440800003,15.036950705000038],[121.34476914000004,15.040210904000048],[121.35125472800007,15.042947064000032],[121.35168533300009,15.046570484000029],[121.35449085200003,15.050235264000037],[121.35454050100009,15.054408307000074],[121.35890395100012,15.061478987000044],[121.358579039,15.066623157000038],[121.36238985700004,15.068140967000033],[121.36168856300003,15.073877483000047],[121.364066223,15.073642600000028],[121.36776308900005,15.070569596000041],[121.370023091,15.070885085000043],[121.37647404400002,15.08051352900003],[121.37653594100004,15.083235552000076],[121.37483460800001,15.084983070000021],[121.37214811100012,15.084962215000076],[121.37049916600006,15.08713595100005],[121.37400455200009,15.095887405000042],[121.3833723240001,15.097651264000035],[121.38544713400006,15.099809418000063],[121.39000597600011,15.098699292000049],[121.3890850680001,15.104733028000055],[121.39451077900003,15.10424088700006],[121.396309212,15.108832834000054],[121.3966472730001,15.110763430000077],[121.39345401700007,15.11373035400004],[121.393121199,15.11603431900005],[121.400191887,15.121904250000057],[121.39881286400009,15.126646649000065],[121.40114846000006,15.133166671000026],[121.4012929590001,15.138443451000057],[121.39660814800004,15.146318106000024],[121.40067456700001,15.148064543000032],[121.40368132100002,15.153421932000072],[121.40227884300009,15.15293177500007],[121.39494846500008,15.16340654000004],[121.3897489090001,15.16221370900007],[121.38466816800008,15.15559758300003],[121.38323214700006,15.15706294000006],[121.38451915200005,15.162719722000077],[121.3812996580001,15.165403214000037],[121.38046702200006,15.168480773000056],[121.38387927400004,15.170734266000068],[121.38716772500004,15.170807438000054],[121.39226904800012,15.175169433000065],[121.39542450600004,15.170763480000062],[121.39794012900006,15.169906703000038],[121.4018443550001,15.172192895000023],[121.40275078500008,15.17710587700003],[121.40809682500003,15.18293699800006],[121.40222658300002,15.195523378000075],[121.40232335200005,15.20370125200003],[121.40834958200003,15.212885503000052],[121.4171205020001,15.216888696000069],[121.41718829700005,15.21940810700005],[121.39139190000003,15.266269919000024],[121.3806404720001,15.29007269400006],[121.37333519800006,15.318879648000063],[121.37325116200009,15.323783245000072],[121.37610695300009,15.326986669000064],[121.37471017500002,15.331187647000036],[121.37692587000004,15.33370039600004],[121.37380138500009,15.336667161000037],[121.37861731300006,15.342606654000065],[121.3782407220001,15.347203251000053],[121.38012534900008,15.349244029000033],[121.38212271300006,15.349059104000048],[121.38414035100004,15.353458567000075],[121.38546729600012,15.356907756000055],[121.38469201200007,15.36388910900007],[121.38652589600008,15.367868154000064],[121.39499041400006,15.379202545000055],[121.40058009600011,15.383467240000073],[121.40596645300002,15.384372145000043],[121.40841096500003,15.381166849000067],[121.41160921000005,15.38059740400007],[121.41500080700007,15.375084575000074],[121.42224747900002,15.373591733000069],[121.42534447100002,15.371199343000058],[121.42484509300004,15.364995529000055],[121.4320720390001,15.364668709000057],[121.43315204100008,15.366150034000043],[121.43060078300005,15.36666361400006],[121.43202198600011,15.369276161000073],[121.43027939500007,15.370795366000038],[121.43127902600008,15.372526295000057],[121.43028323300007,15.373979232000067],[121.43085597900006,15.375806441000066],[121.4330940110001,15.375476970000022],[121.43349594800009,15.37665370700006],[121.43080205600006,15.378709289000028],[121.43065797600002,15.38091887400003],[121.43420216600009,15.384074863000023],[121.44131356900004,15.381832837000047],[121.44062287500003,15.383887005000076],[121.44513083900006,15.385497497000074],[121.44430269000009,15.386441853000065],[121.44678404400008,15.389599960000055],[121.44555770200009,15.390291177000051],[121.44597726800009,15.396444942000073],[121.45547901200007,15.411473212000033],[121.45977236100009,15.412170623000065],[121.46285316900003,15.414921595000067],[121.46526777100007,15.413595315000066],[121.47021575800011,15.416478006000034],[121.47395009500008,15.416304419000028],[121.47364659300001,15.41792283500007],[121.47554095700002,15.417748430000074],[121.47272444300006,15.420913648000067],[121.474675853,15.422263979000036],[121.4745499490001,15.424941974000035],[121.48101102600003,15.426690166000071],[121.48116967300007,15.429149788000075],[121.48412245000009,15.428910406000057],[121.482161646,15.431004051000059],[121.4833803140001,15.431314875000055],[121.47840481600008,15.43157586700005],[121.4739292160001,15.43500986600003],[121.47530736300007,15.43810098800003],[121.479325947,15.440167620000068],[121.47798731500006,15.440946499000063],[121.47929355400004,15.443785362000028],[121.48062094500006,15.443296545000067],[121.4794718390001,15.44514304200004],[121.48228480400007,15.447179567000035],[121.48276081900008,15.451853824000068],[121.48796668200009,15.459200343000077],[121.48682629300004,15.46141145200005],[121.48842697600003,15.46259155100006],[121.4855237810001,15.466009780000036],[121.4882432170001,15.46909669200005],[121.48607741600006,15.470876586000031],[121.47463793600002,15.465461447000052],[121.42512340100006,15.455147316000023],[121.37772928100003,15.487287826000056]]]}},{"type":"Feature","properties":{"shapeName":"Dipaculao","shapeISO":"","shapeID":"30758251B11219690177973","shapeGroup":"PHL","shapeType":"ADM3","psgc_code":"0307706000","legacy_psgc_code":"037706000","province":"Aurora"},"geometry":{"type":"Polygon","coordinates":[[[121.47114962,15.886741050000069],[121.47841695600005,15.855437305000066],[121.48723072100006,15.83533111500003],[121.4926834580001,15.816276813000059],[121.49631201900002,15.814410487000032],[121.50308908400007,15.814241579000054],[121.51795914400009,15.800406732000056],[121.53084011700003,15.814012915000035],[121.53671305300008,15.817918162000069],[121.55007390900005,15.819310635000022],[121.54757128300002,15.836586957000065],[121.54750421500012,15.860498909000057],[121.554405502,15.897447717000034],[121.5554757220001,15.899972579000064],[121.5589546650001,15.900809688000038],[121.56024684500005,15.905228901000044],[121.56448911000007,15.910019727000076],[121.56770358400001,15.911388859000056],[121.57306847600012,15.917418095000073],[121.57939463000002,15.927640926000038],[121.5835972640001,15.92837675100003],[121.58841361100008,15.932877574000031],[121.60107558200002,15.93529618100007],[121.60648491800009,15.94665066400006],[121.61021824000011,15.945649181000022],[121.61222542200005,15.947141225000053],[121.61423526300007,15.945888981000053],[121.61480474200005,15.947293426000044],[121.61653177200003,15.946428746000038],[121.61769640700004,15.94724764600005],[121.61708964000002,15.950798354000028],[121.62029890600002,15.95228395600003],[121.62518747400009,15.950600805000022],[121.62126073400009,15.954149630000074],[121.62059774300008,15.957395104000057],[121.62675876600008,15.965998048000074],[121.63346220300002,15.967177207000077],[121.63688984200007,15.965861399000062],[121.6370814180001,15.964539796000054],[121.6408241470001,15.965963526000053],[121.64179459600007,15.964799756000048],[121.64152143500007,15.967474590000052],[121.64363724700002,15.967598979000059],[121.64484930800006,15.969870339000067],[121.65026168800011,15.970006500000068],[121.64888010800007,15.972222198000054],[121.65257412100004,15.972606961000054],[121.65499922900005,15.975883148000037],[121.65283482900008,15.983417151000026],[121.6544851640001,15.988699894000035],[121.66513436800005,16.005638799000053],[121.66863190400011,16.007090067000036],[121.67177610600004,16.010682725000038],[121.68539935100011,16.016135060000067],[121.70221212600006,16.032825633000073],[121.71323359500002,16.03990199800006],[121.71736579300011,16.040856131000055],[121.74293057900002,16.069358582000064],[121.74896958900001,16.072754452000027],[121.76172357700011,16.076427500000023],[121.76506118600003,16.073423468000044],[121.77246601800005,16.072138771000027],[121.77854021700011,16.064626947000022],[121.77815864400009,16.062360399000056],[121.77973464600007,16.06193981000007],[121.7852892410001,16.066001708000044],[121.78577331200006,16.070701143000065],[121.7873190900001,16.080826242000057],[121.78445317900002,16.106552744000055],[121.78897688900008,16.10724990500006],[121.79130849500007,16.109707033000063],[121.80232880400001,16.13554147800005],[121.79982529900008,16.141779754000027],[121.76492361800001,16.173819910000077],[121.72325119700008,16.144655707000027],[121.69269706600005,16.116691781000043],[121.68546404300002,16.11272907400007],[121.62897873000009,16.063865467000028],[121.57062539300011,16.01126710500006],[121.5288264290001,15.969868599000051],[121.52490515700003,15.968847435000043],[121.51984018000007,15.964640236000037],[121.51894155500008,15.96169928200004],[121.5156738290001,15.961862669000027],[121.51551044200005,15.958268169000064],[121.51154832400005,15.95340742600007],[121.51093562500012,15.949690386000043],[121.50374662600007,15.948955148000039],[121.5012958310001,15.950180545000023],[121.4745488740001,15.929847778000067],[121.46354426900007,15.926616156000023],[121.47089792000008,15.925374537000039],[121.46849811800007,15.910028039000053],[121.47114962,15.886741050000069]]]}},{"type":"Feature","properties":{"shapeName":"Maria Aurora","shapeISO":"","shapeID":"30758251B2954727825602","shapeGroup":"PHL","shapeType":"ADM3","psgc_code":"0307707000","legacy_psgc_code":"037707000","province":"Aurora"},"geometry":{"type":"Polygon","coordinates":[[[121.28476349300001,15.75441853700005],[121.31369860300003,15.671275514000058],[121.3248257790001,15.670934001000035],[121.3377668710001,15.673649222000051],[121.34402416000012,15.677364015000023],[121.341651511,15.694655888000057],[121.34315251900011,15.699097552000069],[121.3429919560001,15.707848206000051],[121.36115471000005,15.69881700700006],[121.37370662800004,15.703562497000064],[121.38494001900006,15.703956093000045],[121.38967335500001,15.708482237000055],[121.42131990900009,15.706601268000043],[121.43743033900012,15.708865726000056],[121.44380460500008,15.696447005000039],[121.46364050300008,15.71147065100007],[121.47283094500006,15.712442546000034],[121.47804546600003,15.718608492000044],[121.48990152400006,15.724872151000056],[121.4923144170001,15.729632766000066],[121.490372,15.748250363000068],[121.49728267400008,15.75406821200005],[121.50225058800004,15.756990340000073],[121.50496863300009,15.761145438000028],[121.50724736400002,15.761273930000073],[121.50716325100007,15.779335482000022],[121.52029758200001,15.789480737000076],[121.51806474500006,15.791478554000037],[121.51735948700002,15.794642502000045],[121.51795914400009,15.800406732000056],[121.50308908400007,15.814241579000054],[121.49631201900002,15.814410487000032],[121.4926834580001,15.816276813000059],[121.48723072100006,15.83533111500003],[121.47841695600005,15.855437305000066],[121.47114962,15.886741050000069],[121.37376803400002,15.831617787000027],[121.31660385400005,15.804170806000059],[121.31631513200011,15.797562891000041],[121.30804924200004,15.788075675000073],[121.30590318500003,15.782124190000047],[121.28990313700001,15.766188077000038],[121.28476349300001,15.75441853700005]]]}},{"type":"Feature","properties":{"shapeName":"San Luis","shapeISO":"","shapeID":"30758251B29730451964766","shapeGroup":"PHL","shapeType":"ADM3","psgc_code":"0307708000","legacy_psgc_code":"037708000","province":"Aurora"},"geometry":{"type":"MultiPolygon","coordinates":[[[[121.59519941700012,15.632490423000036],[121.59189799300009,15.630713178000065],[121.59488323700009,15.63042260800006],[121.59519941700012,15.632490423000036]]],[[[121.49728267400008,15.75406821200005],[121.490372,15.748250363000068],[121.4923144170001,15.729632766000066],[121.48990152400006,15.724872151000056],[121.47804546600003,15.718608492000044],[121.47283094500006,15.712442546000034],[121.46364050300008,15.71147065100007],[121.44380460500008,15.696447005000039],[121.43743033900012,15.708865726000056],[121.42131990900009,15.706601268000043],[121.38967335500001,15.708482237000055],[121.38494001900006,15.703956093000045],[121.37370662800004,15.703562497000064],[121.36115471000005,15.69881700700006],[121.3429919560001,15.707848206000051],[121.34315251900011,15.699097552000069],[121.341651511,15.694655888000057],[121.34402416000012,15.677364015000023],[121.3377668710001,15.673649222000051],[121.3248257790001,15.670934001000035],[121.31369860300003,15.671275514000058],[121.32661566000002,15.634159251000028],[121.37772928100003,15.487287826000056],[121.42512340100006,15.455147316000023],[121.47463793600002,15.465461447000052],[121.48607741600006,15.470876586000031],[121.48449988900006,15.483463863000054],[121.48811075600008,15.491941575000055],[121.48767043300006,15.49673423400003],[121.49193537600001,15.499127702000067],[121.489385362,15.50270321100004],[121.48861946900001,15.50731004000005],[121.49086534900005,15.507233173000031],[121.49133761000007,15.508630373000074],[121.48996951600009,15.50929760400004],[121.49127771200006,15.513931200000059],[121.49434432800001,15.51526644300003],[121.49268846500001,15.520899039000028],[121.49444492000009,15.524806832000024],[121.49721353400002,15.526408726000057],[121.500492914,15.526074702000074],[121.49992764900003,15.527754506000065],[121.50213421100011,15.527077463000069],[121.5029312150001,15.528203683000072],[121.50173093600006,15.529126511000072],[121.50242571500007,15.530323778000025],[121.50675122400003,15.531732938000061],[121.50628798000002,15.532899538000038],[121.507799352,15.532025102000034],[121.5071783950001,15.534411888000022],[121.51354193800012,15.543232224000064],[121.5154535050001,15.543495750000034],[121.51826748200006,15.541115990000037],[121.52421798400007,15.543456486000025],[121.52692108800011,15.54191619900007],[121.52964274300007,15.54564190900004],[121.53164774900006,15.546059394000054],[121.53090706300009,15.555917902000033],[121.53225630300005,15.562072465000028],[121.53657337100003,15.564373689000035],[121.53654465200009,15.568491821000066],[121.5405033080001,15.574826621000057],[121.54310773800012,15.576086123000039],[121.5467896340001,15.575620983000022],[121.54677409700002,15.57683976800007],[121.54923358400004,15.577412343000049],[121.5606645790001,15.588026112000023],[121.5615317270001,15.590693052000063],[121.56369063200009,15.591050102000054],[121.56477952300008,15.593175925000025],[121.56077485600008,15.594651207000027],[121.56241676700006,15.597484414000064],[121.56113138900002,15.597954548000075],[121.56208668500005,15.605483066000033],[121.56356829900005,15.607263536000062],[121.56921150500011,15.60574209300006],[121.56949222500009,15.60747946500004],[121.56772234100004,15.608339028000046],[121.57126238600006,15.610082415000022],[121.56935666400011,15.611139207000065],[121.57079902100008,15.614185562000046],[121.57701530300005,15.618886502000066],[121.57874264300006,15.618540022000047],[121.57622479600002,15.619742360000032],[121.57733205400007,15.62142564900006],[121.5836588630001,15.622852282000053],[121.58331789200008,15.625516829000048],[121.58531919100005,15.625666499000033],[121.5819637400001,15.62970282200007],[121.58330884800012,15.632401360000074],[121.5862395260001,15.633811671000046],[121.59168427700001,15.632158032000063],[121.59248638300005,15.634885373000031],[121.59473219000006,15.63480489400007],[121.59372325900006,15.637825622000037],[121.59748049600012,15.643509391000066],[121.60255680500006,15.644037955000044],[121.60674056100004,15.64142432500006],[121.61149511800011,15.644365411000024],[121.61030355300011,15.647299846000067],[121.61356516700005,15.648882282000045],[121.616216914,15.647783624000056],[121.61400360300001,15.651326356000027],[121.61628067900006,15.655517572000065],[121.61919842500004,15.656931521000047],[121.61485303600011,15.658993088000045],[121.61438726300003,15.660890289000065],[121.61177890400006,15.662243558000057],[121.61272883200002,15.663260781000076],[121.61130418900007,15.664174914000057],[121.61240172500004,15.664657784000042],[121.61002449600005,15.664448781000033],[121.60982822300002,15.666149626000049],[121.6114069350001,15.668871918000036],[121.61357290800004,15.668657471000074],[121.61273727900004,15.669565455000054],[121.61541002700005,15.67033818300007],[121.60747563100006,15.668947649000074],[121.60302327400007,15.670879522000064],[121.59386008100012,15.66778809400006],[121.5887963030001,15.670562138000037],[121.58806595600004,15.672570367000048],[121.59593311000003,15.676871156000061],[121.5971611010001,15.678615945000047],[121.59539397600008,15.67964716800003],[121.54273620000004,15.721768723000025],[121.5412340470001,15.726671840000051],[121.54096119100006,15.73780683900003],[121.54682234600011,15.740240154000048],[121.54589490800004,15.743169765000061],[121.54910711800005,15.741996871000026],[121.54756334600006,15.749895501000026],[121.54296365400012,15.749158905000058],[121.54102816000011,15.755214287000058],[121.5332288830001,15.755017530000032],[121.53007122100007,15.749171580000052],[121.52018910400011,15.749290272000053],[121.5028814100001,15.74054252700006],[121.50155843100003,15.74964293000005],[121.49728267400008,15.75406821200005]]]]}}]}
