{"type":"FeatureCollection","source":{"dataset":"geoBoundaries gbOpen PHL ADM3","commit":"9469f09","boundary_year":2020,"license":"CC BY 3.0 IGO","organizations":["NAMRIA","Philippine Statistics Authority","OCHA Philippines"],"metadata_url":"https://www.geoboundaries.org/api/current/gbOpen/PHL/ADM3/","url":"https://media.githubusercontent.com/media/wmgeolab/geoBoundaries/9469f09/releaseData/gbOpen/PHL/ADM3/geoBoundaries-PHL-ADM3_simplified.geojson","retrieved_at":"2026-09-18","identity_source":"https://psa.gov.ph/classification/psgc/cities/1800000000","reference_area_source":"https://ulap-nga.georisk.gov.ph/arcgis/rest/services/PSA/Municipal/MapServer/0","notice":"Approximate planning/reference municipality boundaries; not legal, cadastral, or survey-grade.","identity_verified_at":"2026-09-20","region":"Negros Island Region","region_psgc_code":"1800000000"},"features":[{"type":"Feature","properties":{"shapeName":"Bacolod City","shapeISO":"","shapeID":"30758251B10359126771558","shapeGroup":"PHL","shapeType":"ADM3","psgc_code":"1830200000","legacy_psgc_code":"064501000","province":"Bacolod City","reference_area_sqkm":162.3778658,"reference_bbox":[122.896315,10.584446,123.139327,10.715837],"previous_psgc_code":"0630200000","official_name":"City of Bacolod","geographic_province":"Negros Occidental"},"geometry":{"type":"Polygon","coordinates":[[[123.13932722700008,10.659633958000029],[123.13487612400002,10.663793869000074],[123.12806520100003,10.665268599000058],[123.12412092700004,10.66448424300006],[123.10042594000004,10.668559144000028],[123.07634461500004,10.669879216000027],[123.05766655600007,10.679086870000049],[123.04982497700007,10.684967264000022],[123.04355150600009,10.684852027000034],[123.04117509500009,10.683940864000022],[123.04075645300009,10.68222935600005],[123.03596669300009,10.681207377000021],[123.02816640300011,10.681509045000041],[123.02625788700004,10.682777285000043],[123.02573458400002,10.681909218000044],[123.02492808200009,10.683288275000052],[123.02234235000003,10.68202003500005],[123.01829137100003,10.683337527000049],[123.01377865300003,10.68211238200007],[123.00347638200003,10.689284807000035],[123.0031765220001,10.693813857000066],[123.00085675800005,10.694688665000058],[123.002319123,10.697152054000071],[122.99919630300008,10.69994379800005],[122.96161394400008,10.71272773100003],[122.94898470100009,10.715716358000066],[122.94834142800005,10.70769008800005],[122.94852694700012,10.709605078000038],[122.94958671200004,10.708170825000025],[122.947851925,10.703532640000049],[122.94085609100011,10.703730472000075],[122.93942546500011,10.701704169000038],[122.94896745800008,10.703529021000065],[122.94893587700005,10.69983140000005],[122.9509659680001,10.699951813000041],[122.95115286600003,10.693655430000035],[122.9499867400001,10.693804683000053],[122.95120381600009,10.693396222000047],[122.95001808500001,10.69323451300005],[122.95134297600009,10.692645281000068],[122.951137431,10.687697287000049],[122.95056181500001,10.686772036000036],[122.94631420500002,10.68759960400007],[122.95108059300003,10.686434014000042],[122.94957537200003,10.680898738000053],[122.94692757500002,10.681875493000064],[122.94795093500011,10.684477590000029],[122.94691672600004,10.686844018000045],[122.94318280400012,10.686887260000049],[122.94085219500005,10.687961789000042],[122.94128377700008,10.689236314000027],[122.93589823600007,10.691506098000048],[122.93328411400012,10.685341329000039],[122.94339586800004,10.681057385000031],[122.9413907930001,10.676267298000027],[122.93438450200006,10.677985987000056],[122.94162493300007,10.675097382000047],[122.93859722200011,10.668894192000039],[122.93245592300002,10.66887627400007],[122.93177820200003,10.667557522000038],[122.93473739600006,10.665101854000056],[122.9295941800001,10.660541606000038],[122.92752884200002,10.656282400000066],[122.92401483600008,10.646335408000027],[122.92446348800001,10.642341216000034],[122.92288285200004,10.64184386100004],[122.92417422000005,10.637007672000038],[122.92226605100007,10.634599793000064],[122.92600444000004,10.635295734000067],[122.92650971300009,10.63416109600007],[122.92332413600002,10.627677221000056],[122.9235988910001,10.625309926000057],[122.91761733300007,10.615308319000064],[122.91866520400004,10.614875246000054],[122.91834370100003,10.612132816000042],[122.91650672000003,10.612333285000034],[122.91587649400003,10.610041827000032],[122.91366632000006,10.612188261000028],[122.91239925800005,10.611366647000068],[122.9149128900001,10.607945483000037],[122.91446952700005,10.60541666100005],[122.9012883800001,10.599309382000058],[122.89681542100004,10.59985152300004],[122.89670918500008,10.597621901000025],[122.89997056900006,10.595009190000042],[122.91548142500005,10.594376645000068],[122.92537370900004,10.591954679000025],[122.93230960300002,10.592446296000048],[122.95103008100011,10.586150562000057],[122.98803878500007,10.58473933700003],[122.98941041400008,10.584636336000074],[122.98941556500006,10.586725539000042],[122.99131249800007,10.58736071100003],[122.99015373800012,10.589000143000021],[122.9944334270001,10.591973437000036],[122.99708570200005,10.599348305000035],[122.99966244300003,10.598459063000064],[123.00028044800001,10.600901903000022],[123.0038734640001,10.602256365000073],[123.00976713800003,10.611085216000049],[123.00896814100008,10.612683210000057],[123.01215940100008,10.615614442000037],[123.013922868,10.61528822400004],[123.01709400400011,10.619615459000045],[123.021838666,10.634206204000066],[123.04134135900006,10.631646683000042],[123.07680386400011,10.646226795000075],[123.11841817400011,10.65281122600004],[123.12475722700003,10.655357568000056],[123.13830552900004,10.657486472000073],[123.13932722700008,10.659633958000029]]]}}]}
