{
  "type": "FeatureCollection",
  "source": {
    "dataset": "geoBoundaries gbOpen PHL ADM3",
    "commit": "9469f09",
    "boundary_year": 2020,
    "license": "CC BY 3.0 IGO",
    "organizations": [
      "NAMRIA",
      "Philippine Statistics Authority",
      "OCHA Philippines"
    ],
    "metadata_url": "https://www.geoboundaries.org/api/current/gbOpen/PHL/ADM3/",
    "url": "https://media.githubusercontent.com/media/wmgeolab/geoBoundaries/9469f09/releaseData/gbOpen/PHL/ADM3/geoBoundaries-PHL-ADM3_simplified.geojson",
    "retrieved_at": "2026-09-07",
    "psgc_code": "1430300000",
    "legacy_psgc_code": "141102000",
    "reference_area_sqkm": 58.08582396,
    "reference_area_source": "https://ulap-nga.georisk.gov.ph/arcgis/rest/services/PSA/Municipal/MapServer/0",
    "notice": "Approximate planning/reference city boundary; not legal, cadastral, or survey-grade."
  },
  "features": [
    {
      "type": "Feature",
      "properties": {
        "shapeName": "Baguio City",
        "shapeISO": "",
        "shapeID": "30758251B18922588133033",
        "shapeGroup": "PHL",
        "shapeType": "ADM3"
      },
      "geometry": {
        "type": "Polygon",
        "coordinates": [
          [
            [
              120.54516024500003,
              16.43451933800003
            ],
            [
              120.54426187700005,
              16.428393922000055
            ],
            [
              120.55692564300011,
              16.408159150000074
            ],
            [
              120.55457980500012,
              16.40582777900005
            ],
            [
              120.55826137100007,
              16.40318366100007
            ],
            [
              120.56919283600007,
              16.399820972000043
            ],
            [
              120.57125960600001,
              16.39461133700007
            ],
            [
              120.57086440100011,
              16.39222075200007
            ],
            [
              120.57294522100005,
              16.390158779000046
            ],
            [
              120.56771781300006,
              16.391793966000023
            ],
            [
              120.56416824900009,
              16.390698839000038
            ],
            [
              120.56399909800007,
              16.38007062300005
            ],
            [
              120.56812923300004,
              16.375498565000044
            ],
            [
              120.56791952600008,
              16.371853671000054
            ],
            [
              120.56953396500012,
              16.370247224000025
            ],
            [
              120.60126907300003,
              16.36542908000007
            ],
            [
              120.60539657800007,
              16.366380080000056
            ],
            [
              120.60517075700011,
              16.36408910700004
            ],
            [
              120.61204726800008,
              16.35914210800007
            ],
            [
              120.62031855300006,
              16.357483428000023
            ],
            [
              120.62851795100005,
              16.363138680000077
            ],
            [
              120.63418599700003,
              16.36272251400004
            ],
            [
              120.6360478690001,
              16.38613994800005
            ],
            [
              120.63320036000005,
              16.39678626700004
            ],
            [
              120.6296130610001,
              16.428606459000036
            ],
            [
              120.61457509200011,
              16.428564540000025
            ],
            [
              120.6079704870001,
              16.43164782100007
            ],
            [
              120.60254055100006,
              16.429906794000033
            ],
            [
              120.60256090200005,
              16.431412471000044
            ],
            [
              120.59842116100003,
              16.43106005100003
            ],
            [
              120.59512725400009,
              16.432695696000053
            ],
            [
              120.58358777,
              16.43215065000004
            ],
            [
              120.57723031900002,
              16.433868123000025
            ],
            [
              120.54516024500003,
              16.43451933800003
            ]
          ]
        ]
      }
    }
  ]
}
