{"type":"FeatureCollection","features":[{"type":"Feature","properties":{"name":"A. Bonifacio-Caguioa-Rimando","psgc":"1430300125","label_position":{"lat":16.418858478500056,"lng":120.59795781639764}},"geometry":{"type":"Polygon","coordinates":[[[120.59915486700004,16.420561948000056],[120.59765469900003,16.42030292900006],[120.59622587800004,16.41701101500007],[120.59703082300007,16.416724427000073],[120.59852047900006,16.41709439400006],[120.59866149400011,16.417414028000056],[120.59915486700004,16.420561948000056]]]}},{"type":"Feature","properties":{"name":"Abanao-Zandueta-Kayong-Chugum-Otek","psgc":"1430300129","label_position":{"lat":16.413956258500036,"lng":120.5933231719898}},"geometry":{"type":"Polygon","coordinates":[[[120.59444198300002,16.414607656000044],[120.59345211700008,16.41461192200006],[120.59153980100007,16.414578411000033],[120.59297086800005,16.412659479000073],[120.59483414200007,16.413334106000036],[120.59444198300002,16.414607656000044]]]}},{"type":"Feature","properties":{"name":"Alfonso Tabora","psgc":"1430300136","label_position":{"lat":16.42297192600003,"lng":120.59854351288622}},"geometry":{"type":"Polygon","coordinates":[[[120.60011523300011,16.42166526000005],[120.59911804600006,16.422545445000026],[120.59877640500008,16.423839391000058],[120.5973919710001,16.425091724000023],[120.59629287700011,16.42551973600007],[120.59398228900011,16.425436849000054],[120.59423357600008,16.423822792000067],[120.59483309300003,16.423398407000033],[120.59615130300004,16.42382921600006],[120.59805135700005,16.42341237500005],[120.59811899200008,16.422426830000063],[120.599765939,16.421233235000045],[120.60011523300011,16.42166526000005]]]}},{"type":"Feature","properties":{"name":"Ambiong","psgc":"1430300126","label_position":{"lat":16.42961359100005,"lng":120.60780666237895}},"geometry":{"type":"Polygon","coordinates":[[[120.61149635100003,16.42995436800004],[120.60782913700007,16.431647821000066],[120.60622256500004,16.430675604000044],[120.6040471430001,16.430413588000018],[120.60422049300007,16.429272814000058],[120.60574774100006,16.428823301000023],[120.60763410700008,16.428392410000075],[120.60925259200008,16.427916980000074],[120.61122628400007,16.428175457000066],[120.61149635100003,16.42995436800004]]]}},{"type":"Feature","properties":{"name":"Andres Bonifacio","psgc":"1430300117","label_position":{"lat":16.417361816000064,"lng":120.58555732437131}},"geometry":{"type":"Polygon","coordinates":[[[120.58588854200003,16.41886138300003],[120.58395335400007,16.41899759100005],[120.58420453400004,16.416662559000027],[120.58548413300002,16.415624571000023],[120.58706292100011,16.417107504000054],[120.58690774700005,16.417616128000073],[120.58588854200003,16.41886138300003]]]}},{"type":"Feature","properties":{"name":"Apugan-Loakan","psgc":"1430300001","label_position":{"lat":16.383249946500055,"lng":120.62461216323113}},"geometry":{"type":"Polygon","coordinates":[[[120.62834488200006,16.383894074000064],[120.6273569980001,16.385636221000027],[120.62535624300007,16.38766883500006],[120.62254402800012,16.387939426000056],[120.62189833000004,16.38697396700007],[120.62085283300009,16.384267117000036],[120.62090434400011,16.382517625000045],[120.62046860300006,16.381746108000073],[120.61866141900009,16.38161556400007],[120.61892465700011,16.380325678000073],[120.62053986200011,16.379917126000063],[120.6206554040001,16.37837393600006],[120.62223067900004,16.377859969000042],[120.6231317900001,16.378106940000066],[120.62454574500009,16.377904314000034],[120.62665613400009,16.381798157000045],[120.62833820700006,16.382605819000045],[120.62834488200006,16.383894074000064]]]}},{"type":"Feature","properties":{"name":"Asin Road","psgc":"1430300002","label_position":{"lat":16.404597554500043,"lng":120.56353555409888}},"geometry":{"type":"Polygon","coordinates":[[[120.56635904300005,16.409517526000055],[120.56305779600008,16.40984084300004],[120.56254345500008,16.409215225000022],[120.55842296500009,16.409741588000028],[120.5569256430001,16.408159150000074],[120.5549762170001,16.406537228000044],[120.55560807300003,16.404872958000055],[120.55660879800008,16.404670977000023],[120.55826137100007,16.40318366100007],[120.56095768600005,16.403193040000076],[120.56240845800006,16.40228904200006],[120.56761682600008,16.40060678600003],[120.56919283600006,16.39982097200004],[120.57348801500007,16.400906129000077],[120.57437055000003,16.39939565900005],[120.57590081500007,16.399308396000038],[120.578337626,16.401311211000067],[120.57699285500006,16.404792913000048],[120.57623566600012,16.404524132000063],[120.57247951300008,16.40478333400005],[120.57099653200008,16.404108795000063],[120.56816119500003,16.40635918900005],[120.56743113200002,16.408105213000052],[120.56635904300005,16.409517526000055]]]}},{"type":"Feature","properties":{"name":"Atok Trail","psgc":"1430300003","label_position":{"lat":16.379499870000046,"lng":120.6304322624733}},"geometry":{"type":"Polygon","coordinates":[[[120.63507059700008,16.37698778400005],[120.63566662300002,16.380892800000026],[120.6360478690001,16.38613994800005],[120.62834488200006,16.383894074000064],[120.62833820700006,16.382605819000045],[120.62665613400009,16.381798157000045],[120.62454574500009,16.377904314000034],[120.6231317900001,16.378106940000066],[120.623672456,16.37721917900007],[120.62578172300005,16.376598414000057],[120.62723685000002,16.37665848800003],[120.62831599500011,16.375079645000017],[120.62849411900005,16.373452777000068],[120.63057755700005,16.374878370000026],[120.63138466800002,16.375796260000072],[120.63507059700008,16.37698778400005]]]}},{"type":"Feature","properties":{"name":"Aurora Hill Proper","psgc":"1430300067","label_position":{"lat":16.424824209000064,"lng":120.60274591016744}},"geometry":{"type":"Polygon","coordinates":[[[120.6045973030001,16.424168162000058],[120.60222120000003,16.42548025600007],[120.601669893,16.42287129500005],[120.6045973030001,16.424168162000058]]]}},{"type":"Feature","properties":{"name":"Aurora Hill, North Central","psgc":"1430300078","label_position":{"lat":16.425043090500058,"lng":120.60471087940356}},"geometry":{"type":"Polygon","coordinates":[[[120.60561319100007,16.42435383100008],[120.60644343200009,16.42496748800005],[120.60594528700005,16.42605763100005],[120.60529961800012,16.42570581600006],[120.60434085300005,16.425118693000066],[120.60233977400003,16.425800195000022],[120.60222120000003,16.42548025600007],[120.6045973030001,16.424168162000058],[120.60561319100007,16.42435383100008]]]}},{"type":"Feature","properties":{"name":"Aurora Hill, South Central","psgc":"1430300128","label_position":{"lat":16.42551255950005,"lng":120.60687734276586}},"geometry":{"type":"Polygon","coordinates":[[[120.60759169000006,16.42621976500004],[120.60733348200006,16.426743997000074],[120.60594528700005,16.42605763100005],[120.60644343200009,16.42496748800005],[120.60561319100007,16.42435383100008],[120.60750578200009,16.42428268200007],[120.60759169000006,16.42621976500004]]]}},{"type":"Feature","properties":{"name":"Bagong Lipunan","psgc":"1430300130","label_position":{"lat":16.41488436000006,"lng":120.59510365785266}},"geometry":{"type":"Polygon","coordinates":[[[120.59597810800007,16.416017693000068],[120.59526354600007,16.416129510000072],[120.59444198300002,16.414607656000044],[120.59483414200007,16.413334106000036],[120.59528537200003,16.41386744300007],[120.59570590800001,16.415161064000078],[120.59597810800007,16.416017693000068]]]}},{"type":"Feature","properties":{"name":"Bakakeng Central","psgc":"1430300004","label_position":{"lat":16.39703687300005,"lng":120.57819694434038}},"geometry":{"type":"Polygon","coordinates":[[[120.58302048100006,16.404392492000053],[120.58199467800011,16.405354968000033],[120.58067097100002,16.405876844000034],[120.57905243100004,16.40501626800005],[120.57761728600008,16.40530875500002],[120.57699285500006,16.404792913000048],[120.578337626,16.401311211000067],[120.57590081500007,16.399308396000038],[120.57437055000003,16.39939565900005],[120.57348801500007,16.400906129000077],[120.56919283600006,16.39982097200004],[120.57125960600001,16.394611337000075],[120.57154474500011,16.39330521200003],[120.57303622400003,16.392616154000045],[120.5741473400001,16.393317565000075],[120.57591760300011,16.392236677000028],[120.57792176000008,16.393665563000063],[120.57924198900002,16.39309692400008],[120.57915916700004,16.39035112300007],[120.58021936500006,16.38801084500005],[120.5816031380001,16.386844684000035],[120.58300189500007,16.38637533100007],[120.58539164900004,16.384990490000064],[120.58709370000007,16.38781865900006],[120.5858104550001,16.389699702000026],[120.58617215500009,16.391289434000043],[120.58521059200008,16.39479164400007],[120.585651858,16.395263082000046],[120.58654122800012,16.398810664000056],[120.58504730300001,16.399073615000077],[120.58518763000005,16.40030199300003],[120.58361004900006,16.401731469000023],[120.58067017600003,16.40224136600005],[120.58302048100006,16.404392492000053]]]}},{"type":"Feature","properties":{"name":"Bakakeng North","psgc":"1430300005","label_position":{"lat":16.385849083500062,"lng":120.59088323383136}},"geometry":{"type":"Polygon","coordinates":[[[120.59162043400012,16.399386678000045],[120.58954462800013,16.398460935000056],[120.58904776000008,16.399598789000038],[120.58770285000004,16.399893209000027],[120.58654122800012,16.398810664000056],[120.585651858,16.395263082000046],[120.58521059200008,16.39479164400007],[120.58617215500009,16.391289434000043],[120.5858104550001,16.389699702000026],[120.58709370000007,16.38781865900006],[120.58539164900004,16.384990490000064],[120.58910610900011,16.38310007800004],[120.58837256100003,16.381870430000046],[120.58942836200004,16.381094480000055],[120.59059016700009,16.37921608700003],[120.5900050240001,16.37723593000004],[120.58986933900007,16.375323616000056],[120.59140003800006,16.374403501000074],[120.59337171400013,16.373894681000024],[120.59413918400003,16.37290248300008],[120.59555115900002,16.372877042000027],[120.59734898800002,16.373754756000036],[120.59873128200002,16.373483385000046],[120.59590553300008,16.378703158000064],[120.59743935900008,16.37832080800007],[120.59793560500007,16.379908026000063],[120.59661630200003,16.381645599000024],[120.59650322400013,16.384460662000038],[120.59545915700005,16.386707677000064],[120.59391854000012,16.38674255200004],[120.59293073700007,16.387942345000052],[120.59393141600005,16.389040548000025],[120.5961552020001,16.389960931000072],[120.5948021480001,16.39168279100005],[120.59346181,16.39276024300005],[120.59289818000002,16.394811870000066],[120.59454394800002,16.39559656400007],[120.59410977800007,16.396251066000044],[120.59274697900003,16.397002769000043],[120.5929267800001,16.39771621500006],[120.59162043400012,16.399386678000045]],[[120.58997684700012,16.39263199000004],[120.59040526000001,16.39106215500004],[120.59296362300007,16.389083910000068],[120.59154374000002,16.386930368000037],[120.58996396600004,16.38769627300007],[120.59063711700004,16.388723715000026],[120.58857373,16.38972845900002],[120.58832280700007,16.39103428000004],[120.58997684700012,16.39263199000004]]]}},{"type":"Feature","properties":{"name":"Bal-Marcoville","psgc":"1430300068","label_position":{"lat":16.406815705500065,"lng":120.60359483161764}},"geometry":{"type":"Polygon","coordinates":[[[120.60456540900009,16.40744108600006],[120.60285545700003,16.408219328000033],[120.60261755300009,16.40553010100007],[120.6017758250001,16.405493977000056],[120.60349409900003,16.40455180800007],[120.60435134800002,16.40619032500007],[120.60456540900009,16.40744108600006]]]}},{"type":"Feature","properties":{"name":"Balsigan","psgc":"1430300007","label_position":{"lat":16.39849398700005,"lng":120.5939736854531}},"geometry":{"type":"Polygon","coordinates":[[[120.5953522000001,16.399271759000047],[120.59338664900008,16.399610191000026],[120.59284783500004,16.401164604000034],[120.59099770900002,16.400875804000062],[120.59162043400012,16.399386678000045],[120.5929267800001,16.39771621500006],[120.59274697900003,16.397002769000043],[120.59410977800007,16.396251066000044],[120.59605692600009,16.397290347000023],[120.5953522000001,16.399271759000047]]]}},{"type":"Feature","properties":{"name":"Bayan Park East","psgc":"1430300010","label_position":{"lat":16.427576373500074,"lng":120.60862673172485}},"geometry":{"type":"Polygon","coordinates":[[[120.60925259200008,16.427916980000074],[120.60763410700008,16.428392410000075],[120.6081773830001,16.42723576700007],[120.60733348200006,16.426743997000074],[120.60759169000006,16.42621976500004],[120.60920046700005,16.426842825000048],[120.60925259200008,16.427916980000074]]]}},{"type":"Feature","properties":{"name":"Bayan Park Village","psgc":"1430300132","label_position":{"lat":16.42781408850007,"lng":120.60662755419122}},"geometry":{"type":"Polygon","coordinates":[[[120.60763410700008,16.428392410000075],[120.60574774100006,16.428823301000023],[120.60511072800011,16.427209552000022],[120.60594528700005,16.42605763100005],[120.60733348200006,16.426743997000074],[120.6081773830001,16.42723576700007],[120.60763410700008,16.428392410000075]]]}},{"type":"Feature","properties":{"name":"Bayan Park West","psgc":"1430300008","label_position":{"lat":16.42823595450002,"lng":120.60254160294372}},"geometry":{"type":"Polygon","coordinates":[[[120.6040471430001,16.430413588000018],[120.60254055100005,16.429906794000033],[120.59988094100004,16.428877730000064],[120.59928028700006,16.42764860800002],[120.59969712900012,16.426701438000062],[120.60187110500011,16.426596285000073],[120.6040570670001,16.426659310000048],[120.60511072800011,16.427209552000022],[120.60574774100006,16.428823301000023],[120.60422049300007,16.429272814000058],[120.6040471430001,16.430413588000018]]]}},{"type":"Feature","properties":{"name":"BGH Compound","psgc":"1430300131","label_position":{"lat":16.399492019000036,"lng":120.59751961236663}},"geometry":{"type":"Polygon","coordinates":[[[120.5996068820001,16.399712279000024],[120.59829006400003,16.401418362000076],[120.59568727900012,16.402299327000037],[120.59394598300003,16.401545285000058],[120.59549955000011,16.40028956200007],[120.5953522000001,16.399271759000047],[120.59605692600009,16.397290347000023],[120.59669680200011,16.39762187000002],[120.59884699300005,16.397077625000065],[120.600022179,16.39781666000005],[120.5996068820001,16.399712279000024]]]}},{"type":"Feature","properties":{"name":"Brookside","psgc":"1430300012","label_position":{"lat":16.420846466500052,"lng":120.60201096212806}},"geometry":{"type":"Polygon","coordinates":[[[120.60347714300009,16.421105118000074],[120.60120165,16.422534489000043],[120.60011523300011,16.42166526000005],[120.599765939,16.421233235000045],[120.60282546700012,16.419579844000054],[120.60360343100002,16.42058781500003],[120.60347714300009,16.421105118000074]]]}},{"type":"Feature","properties":{"name":"Brookspoint","psgc":"1430300011","label_position":{"lat":16.425251223500055,"lng":120.60908110815294}},"geometry":{"type":"Polygon","coordinates":[[[120.61122628400007,16.428175457000066],[120.60925259200008,16.427916980000074],[120.60920046700005,16.426842825000048],[120.60759169000006,16.42621976500004],[120.60750578200009,16.42428268200007],[120.60765245200004,16.423242177000073],[120.60891437900013,16.422238307000043],[120.60993526400011,16.42225532200007],[120.61057545300002,16.42387274300006],[120.61064776800004,16.42649414400006],[120.61122628400007,16.428175457000066]]]}},{"type":"Feature","properties":{"name":"Cabinet Hill-Teacher's Camp","psgc":"1430300013","label_position":{"lat":16.41091840750005,"lng":120.60710203968407}},"geometry":{"type":"Polygon","coordinates":[[[120.61271647900004,16.41208010100007],[120.61199445000011,16.412877363000057],[120.61021144900008,16.413333881000028],[120.60873652600003,16.414544567000064],[120.6064335120001,16.413036820000055],[120.60385462600006,16.41280966400006],[120.60320088000003,16.410444783000063],[120.60266723900007,16.409030933000054],[120.60285545700003,16.408219328000033],[120.60456540900009,16.40744108600006],[120.60686834500007,16.409943442000042],[120.60932161500011,16.40943186000004],[120.61051918200009,16.409489994000065],[120.61098934600012,16.41139203200003],[120.61271647900004,16.41208010100007]]]}},{"type":"Feature","properties":{"name":"Camdas Subdivision","psgc":"1430300133","label_position":{"lat":16.427475641500052,"lng":120.59275365136432}},"geometry":{"type":"Polygon","coordinates":[[[120.59539630100005,16.429432339000076],[120.59321425500002,16.428769707000068],[120.59164091900006,16.427918018000067],[120.5912841400001,16.427033265000034],[120.5916084800001,16.42553384600006],[120.592620365,16.42488390500006],[120.59375640100005,16.425712543000024],[120.59417223800006,16.42825495700004],[120.59539630100005,16.429432339000076]]]}},{"type":"Feature","properties":{"name":"Camp 7","psgc":"1430300017","label_position":{"lat":16.37946695250005,"lng":120.60244309685311}},"geometry":{"type":"Polygon","coordinates":[[[120.60019451700009,16.394132027000072],[120.5998428250001,16.39207179700003],[120.5975839460001,16.39200500800007],[120.59534973400002,16.39277542600007],[120.59535678300006,16.393717107000043],[120.59454394800002,16.39559656400007],[120.59289818000002,16.394811870000066],[120.59346181,16.39276024300005],[120.5948021480001,16.39168279100005],[120.5961552020001,16.389960931000072],[120.59393141600005,16.389040548000025],[120.59293073700007,16.387942345000052],[120.59391854000012,16.38674255200004],[120.59545915700005,16.386707677000064],[120.59650322400013,16.384460662000038],[120.59661630200003,16.381645599000024],[120.59793560500007,16.379908026000063],[120.59743935900008,16.37832080800007],[120.59590553300008,16.378703158000064],[120.59873128200002,16.373483385000046],[120.599176499,16.372041729000046],[120.59824790300003,16.371180976000065],[120.59776415800003,16.368989175000024],[120.59818230600001,16.366759050000038],[120.60126907300003,16.36542908000007],[120.60269934500002,16.366359705000036],[120.60459632300002,16.36652288500005],[120.60553706900009,16.365711429000037],[120.60517075700012,16.364089107000037],[120.6063655800001,16.36394524700006],[120.60623952000002,16.364798255000036],[120.6076303850001,16.365642859000047],[120.60871870600012,16.367857318000063],[120.6076261830001,16.371571894000052],[120.60833632300013,16.37231565000008],[120.60717236600011,16.37343338400007],[120.60754214300006,16.37585374100007],[120.60687402300005,16.377105940000035],[120.60733624400007,16.378177453000028],[120.60683958800008,16.379025879000036],[120.60760097100001,16.38037510300006],[120.6081159060001,16.382468137000046],[120.60736984800008,16.38322717900008],[120.60790365800005,16.38559696200002],[120.60925591700006,16.38735598600004],[120.60940250600005,16.389334937000054],[120.60845391500006,16.39028383200002],[120.60785240000008,16.390572871000074],[120.60516686300002,16.39362036500006],[120.60397113600004,16.39267216300004],[120.60247153100009,16.394188726000035],[120.60019451700009,16.394132027000072]]]}},{"type":"Feature","properties":{"name":"Camp 8","psgc":"1430300018","label_position":{"lat":16.397992445000057,"lng":120.60148372308905}},"geometry":{"type":"Polygon","coordinates":[[[120.603025967,16.398168230000064],[120.602546,16.399740854000076],[120.5996068820001,16.399712279000024],[120.600022179,16.39781666000005],[120.60091534500009,16.396982254000022],[120.6008522730001,16.39592686200007],[120.60249743900012,16.395966030000068],[120.603025967,16.398168230000064]]]}},{"type":"Feature","properties":{"name":"Camp Allen","psgc":"1430300016","label_position":{"lat":16.416299560000056,"lng":120.59133443218946}},"geometry":{"type":"Polygon","coordinates":[[[120.59372913000006,16.41766305900006],[120.59085856400009,16.417110375000046],[120.58880908600008,16.417797872000047],[120.5889532000001,16.417248403000027],[120.58942868200006,16.415408990000056],[120.59085716900006,16.414914053000075],[120.59153980100007,16.414578411000033],[120.59345211700008,16.41461192200006],[120.59331653100003,16.415488745000065],[120.59372913000006,16.41766305900006]]]}},{"type":"Feature","properties":{"name":"Campo Filipino","psgc":"1430300019","label_position":{"lat":16.41551678050004,"lng":120.58743302903665}},"geometry":{"type":"Polygon","coordinates":[[[120.5889532000001,16.417248403000027],[120.58690774700005,16.417616128000073],[120.58706292100011,16.417107504000054],[120.58548413300002,16.415624571000023],[120.58542463600008,16.415285130000026],[120.58676621600011,16.413331373000066],[120.5881289150001,16.41466714200004],[120.58942868200006,16.415408990000056],[120.5889532000001,16.417248403000027]]]}},{"type":"Feature","properties":{"name":"City Camp Central","psgc":"1430300022","label_position":{"lat":16.410932035500053,"lng":120.5868325562733}},"geometry":{"type":"Polygon","coordinates":[[[120.588549702,16.411766114000045],[120.58723120700006,16.412191798000038],[120.58617268800005,16.41154256300007],[120.58495799900005,16.41139021200007],[120.58585561100006,16.40958357500006],[120.58738472300001,16.408914990000024],[120.58693280300007,16.410133650000034],[120.5884408940001,16.410473859000035],[120.588549702,16.411766114000045]]]}},{"type":"Feature","properties":{"name":"City Camp Proper","psgc":"1430300023","label_position":{"lat":16.410674797500036,"lng":120.58963596148422}},"geometry":{"type":"Polygon","coordinates":[[[120.59068345700007,16.411946410000038],[120.588549702,16.411766114000045],[120.5884408940001,16.410473859000035],[120.58901258400012,16.409736643000034],[120.59063903400012,16.40953612100003],[120.590845005,16.41087573600004],[120.59068345700007,16.411946410000038]]]}},{"type":"Feature","properties":{"name":"Country Club Village","psgc":"1430300025","label_position":{"lat":16.397807355500046,"lng":120.61282210079031}},"geometry":{"type":"Polygon","coordinates":[[[120.62049903600008,16.410647372000025],[120.61897718900002,16.411774362000077],[120.61645174400007,16.412416006000058],[120.61544814800003,16.41306587600008],[120.61535347800009,16.412141890000044],[120.61568680500011,16.40816795000006],[120.61505261600007,16.40777878800003],[120.61253569000007,16.408253628000068],[120.60665613700006,16.406170178000025],[120.60692969400009,16.40441887700007],[120.60566752100009,16.40330924300002],[120.60855748000004,16.402606280000043],[120.60894389600004,16.401121001000035],[120.607242616,16.399386960000072],[120.60548206700004,16.399002475000028],[120.60524734800005,16.39906707200004],[120.60488123100004,16.397928781000072],[120.60605280500012,16.397216518000047],[120.60839562900003,16.39768593000002],[120.61083060500005,16.396418644000047],[120.6118534840001,16.39522518700005],[120.6121813100001,16.39360244700003],[120.6115525680001,16.392880008000077],[120.61100752800009,16.388962995000043],[120.61095150500013,16.386766883000064],[120.61218674900012,16.384713369000046],[120.61401716500006,16.38400595300004],[120.6157984030001,16.384557742000023],[120.61669828200002,16.38392022700003],[120.61721347700008,16.384497021000072],[120.62090434400011,16.382517625000045],[120.62085283300009,16.384267117000036],[120.62189833000004,16.38697396700007],[120.62254402800012,16.387939426000056],[120.62193650300004,16.389274155000063],[120.6211459110001,16.395766595000048],[120.6199090560001,16.400098603000064],[120.62129388100004,16.404150538000067],[120.62410185700004,16.405698618000027],[120.6220555000001,16.407036161000068],[120.62063616600004,16.407955348000026],[120.62049903600008,16.410647372000025]]]}},{"type":"Feature","properties":{"name":"Cresencia Village","psgc":"1430300026","label_position":{"lat":16.420383918000056,"lng":120.58748718804264}},"geometry":{"type":"Polygon","coordinates":[[[120.59055393100003,16.42218316900005],[120.58989083400002,16.423478166000056],[120.58835490700007,16.422930171000075],[120.58717463700009,16.420732133000055],[120.5858005780001,16.42077546800005],[120.58532451000008,16.41995889500004],[120.58588854200003,16.41886138300003],[120.58690774700005,16.417616128000073],[120.5889532000001,16.417248403000027],[120.58880908600008,16.417797872000047],[120.5891891870001,16.41887165600002],[120.58917915200004,16.420035703000053],[120.59055393100003,16.42218316900005]]]}},{"type":"Feature","properties":{"name":"Dagsian, Lower","psgc":"1430300058","label_position":{"lat":16.391734410000055,"lng":120.60797700515766}},"geometry":{"type":"Polygon","coordinates":[[[120.60967534300003,16.392923248000045],[120.60753257100009,16.392895949000035],[120.60624185800009,16.394500280000045],[120.60582448000002,16.394153509000038],[120.60516686300002,16.39362036500006],[120.60785240000008,16.390572871000074],[120.60845391500006,16.39028383200002],[120.60967534300003,16.392923248000045]]]}},{"type":"Feature","properties":{"name":"Dagsian, Upper","psgc":"1430300028","label_position":{"lat":16.39461301250006,"lng":120.60733246865291}},"geometry":{"type":"Polygon","coordinates":[[[120.61002181800008,16.393119355000067],[120.60826713300003,16.394725745000073],[120.60692421200008,16.395382117000054],[120.60671847100002,16.39613804200007],[120.60624185800009,16.394500280000045],[120.60753257100009,16.392895949000035],[120.60967534300003,16.392923248000045],[120.61002181800008,16.393119355000067]]]}},{"type":"Feature","properties":{"name":"Dizon Subdivision","psgc":"1430300030","label_position":{"lat":16.424740120500047,"lng":120.58997313974312}},"geometry":{"type":"Polygon","coordinates":[[[120.5912841400001,16.427033265000034],[120.58887168000001,16.426835819000072],[120.58839340500003,16.427473520000035],[120.58778227500011,16.42740266400006],[120.5874005190001,16.425561317000074],[120.5875071590001,16.423559776000044],[120.58835490700007,16.422930171000075],[120.58989083400002,16.423478166000056],[120.59055393100003,16.42218316900005],[120.59181832700004,16.423768681000073],[120.59238365100009,16.424596336000036],[120.592620365,16.42488390500006],[120.5916084800001,16.42553384600006],[120.5912841400001,16.427033265000034]]]}},{"type":"Feature","properties":{"name":"Dominican Hill-Mirador","psgc":"1430300135","label_position":{"lat":16.407095662000046,"lng":120.58186189355456}},"geometry":{"type":"Polygon","coordinates":[[[120.58448395300003,16.409222374000027],[120.58188801500012,16.410165172000067],[120.58163182900012,16.410924437000062],[120.57893758200008,16.410337721000076],[120.57865776600009,16.40766262700003],[120.57761728600008,16.40530875500002],[120.57905243100004,16.40501626800005],[120.58067097100002,16.405876844000034],[120.58199467800011,16.405354968000033],[120.58302048100006,16.404392492000053],[120.58651401800012,16.402555016000065],[120.58823895400009,16.403476272000038],[120.58697293400007,16.406237261000054],[120.58579812900007,16.40652869700006],[120.58453499000005,16.40801606200006],[120.58505574000003,16.40912229000003],[120.58448395300003,16.409222374000027]]]}},{"type":"Feature","properties":{"name":"Dontogan","psgc":"1430300137","label_position":{"lat":16.380717315000055,"lng":120.56949648098646}},"geometry":{"type":"Polygon","coordinates":[[[120.57294522100005,16.390158779000046],[120.571984873,16.390278173000066],[120.56992401800004,16.39129562300008],[120.567427113,16.391757628000054],[120.5641682490001,16.390698839000038],[120.56432074300005,16.385427654000065],[120.56399909800005,16.38007062300005],[120.5666537200001,16.376870773000057],[120.56821651500002,16.375310574000025],[120.56827917900011,16.37361996300007],[120.56791952600008,16.371853671000054],[120.56953396500013,16.37024722400003],[120.57398250200002,16.369576352000024],[120.57560927500005,16.37316169900004],[120.5758806560001,16.375608430000057],[120.57493662300011,16.37899150100003],[120.57496193500003,16.381364007000055],[120.57430911200005,16.38408213100007],[120.57504625900003,16.384756351000025],[120.57536688900008,16.386602217000075],[120.57483477100006,16.389198430000018],[120.57294522100005,16.390158779000046]]]}},{"type":"Feature","properties":{"name":"DPS Area","psgc":"1430300029","label_position":{"lat":16.405488275500062,"lng":120.60481756838935}},"geometry":{"type":"Polygon","coordinates":[[[120.60523692000004,16.403850522000027],[120.60609785000007,16.404786226000056],[120.60520360500004,16.406191468000028],[120.60435134800002,16.40619032500007],[120.60349409900003,16.40455180800007],[120.60504831800007,16.403900682000028],[120.60523692000004,16.403850522000027]]]}},{"type":"Feature","properties":{"name":"Engineers' Hill","psgc":"1430300035","label_position":{"lat":16.407276244500054,"lng":120.60167128529027}},"geometry":{"type":"Polygon","coordinates":[[[120.60266723900007,16.409030933000054],[120.60196845300004,16.409135564000053],[120.60077774600006,16.408151034000067],[120.60036334200005,16.406401455000037],[120.6017758250001,16.405493977000056],[120.60261755300009,16.40553010100007],[120.60285545700003,16.408219328000033],[120.60266723900007,16.409030933000054]]]}},{"type":"Feature","properties":{"name":"Fairview Village","psgc":"1430300036","label_position":{"lat":16.41783200650005,"lng":120.58074992009865}},"geometry":{"type":"Polygon","coordinates":[[[120.5804418030001,16.41898038100004],[120.57917880500008,16.42037476900003],[120.57748606900009,16.420296605000033],[120.57684820600004,16.41964437200005],[120.57778411100003,16.41668363200006],[120.57959718700012,16.416461719000036],[120.58178092700007,16.415636324000044],[120.58329911400006,16.414692699000057],[120.58542463600008,16.415285130000026],[120.58548413300002,16.415624571000023],[120.58420453400004,16.416662559000027],[120.58395335400007,16.41899759100005],[120.5804418030001,16.41898038100004]]]}},{"type":"Feature","properties":{"name":"Ferdinand","psgc":"1430300138","label_position":{"lat":16.402739816000057,"lng":120.59154414501997}},"geometry":{"type":"Polygon","coordinates":[[[120.59362953500012,16.40141540800005],[120.59397959600005,16.402442166000068],[120.5925150500001,16.404344767000058],[120.58918118200006,16.40303746600005],[120.58981851500005,16.40182632600005],[120.59099770900002,16.400875804000062],[120.59284783500004,16.401164604000034],[120.59362953500012,16.40141540800005]]]}},{"type":"Feature","properties":{"name":"Fort del Pilar","psgc":"1430300037","label_position":{"lat":16.365220557000043,"lng":120.61765608426441}},"geometry":{"type":"Polygon","coordinates":[[[120.62851795100003,16.363138680000077],[120.62816908900005,16.36362708700005],[120.6286156330001,16.367045934000032],[120.63079753200009,16.368287605000035],[120.63032388800004,16.369973579000032],[120.62953366500005,16.370488942000065],[120.62907599200003,16.373025278000057],[120.62794243200007,16.371683031000032],[120.626992899,16.372282327000047],[120.62586435500009,16.372165581000047],[120.61244734700006,16.368481716000073],[120.60871870600012,16.367857318000063],[120.6076303850001,16.365642859000047],[120.60623952000002,16.364798255000036],[120.6063655800001,16.36394524700006],[120.61204726800008,16.359142108000068],[120.62031855300006,16.357483428000023],[120.62250801000005,16.35796997400007],[120.62851795100003,16.363138680000077]]]}},{"type":"Feature","properties":{"name":"Gabriela Silang","psgc":"1430300144","label_position":{"lat":16.395061111500038,"lng":120.60372315373198}},"geometry":{"type":"Polygon","coordinates":[[[120.60582448000002,16.394153509000038],[120.60413310300008,16.39593349700004],[120.60249743900012,16.395966030000068],[120.60247153100009,16.394188726000035],[120.60397113600004,16.39267216300004],[120.60516686300002,16.39362036500006],[120.60582448000002,16.394153509000038]]]}},{"type":"Feature","properties":{"name":"General Emilio F. Aguinaldo","psgc":"1430300062","label_position":{"lat":16.408546200000075,"lng":120.58970238135737}},"geometry":{"type":"Polygon","coordinates":[[[120.59063903400012,16.40953612100003],[120.58901258400012,16.409736643000034],[120.58827375700002,16.409266993000077],[120.58855204600002,16.40782540700007],[120.58922994500006,16.406451400000037],[120.59155440000006,16.406967895000037],[120.59063903400012,16.40953612100003]]]}},{"type":"Feature","properties":{"name":"General Luna, Lower","psgc":"1430300039","label_position":{"lat":16.41543233300004,"lng":120.59823450941357}},"geometry":{"type":"Polygon","coordinates":[[[120.59941942300009,16.41482678100005],[120.59954235100008,16.416037885000037],[120.59852047900006,16.41709439400006],[120.59703082300007,16.416724427000073],[120.59696699000006,16.41479245300007],[120.59887950300003,16.414116076000024],[120.59922863400004,16.413073584000077],[120.59941942300009,16.41482678100005]]]}},{"type":"Feature","properties":{"name":"General Luna, Upper","psgc":"1430300038","label_position":{"lat":16.41334911100006,"lng":120.60158981450768}},"geometry":{"type":"Polygon","coordinates":[[[120.60385462600006,16.41280966400006],[120.6039549180001,16.41362463800004],[120.60221348800009,16.414380443000027],[120.60114144700003,16.415914759000028],[120.60030222800002,16.41490604900002],[120.59941942300009,16.41482678100005],[120.59922863400004,16.413073584000077],[120.599645021,16.412689494000066],[120.60021800100004,16.41305366200004],[120.60192380700005,16.412606686000057],[120.60282688000008,16.411822198000035],[120.60320088000003,16.410444783000063],[120.60385462600006,16.41280966400006]]]}},{"type":"Feature","properties":{"name":"Gibraltar","psgc":"1430300040","label_position":{"lat":16.41894528200004,"lng":120.62192999691206}},"geometry":{"type":"Polygon","coordinates":[[[120.6265430530001,16.41876138400005],[120.6268068820001,16.419918563000056],[120.62511852600004,16.421111087000046],[120.6226951760001,16.423898184000045],[120.62072219800007,16.422765764000072],[120.6190702670001,16.42049508800005],[120.6190527550001,16.419660366000073],[120.61748254400003,16.41912918000003],[120.61547332500004,16.417348762000078],[120.61559266800009,16.416354694000063],[120.6195770710001,16.41696744000006],[120.6214529350001,16.416037521000074],[120.62265430100003,16.414217544000053],[120.6246861730001,16.413699294000025],[120.62625584000011,16.415886750000027],[120.62772087700012,16.416274866000037],[120.6265430530001,16.41876138400005]]]}},{"type":"Feature","properties":{"name":"Greenwater Village","psgc":"1430300041","label_position":{"lat":16.401846066500042,"lng":120.60680193331204}},"geometry":{"type":"Polygon","coordinates":[[[120.60523692000004,16.403850522000027],[120.60504831800007,16.403900682000028],[120.60455256700004,16.402571132000052],[120.60553060500001,16.400175703000055],[120.60548206700004,16.399002475000028],[120.607242616,16.399386960000072],[120.60894389600004,16.401121001000035],[120.60855748000004,16.402606280000043],[120.60566752100009,16.40330924300002],[120.60523692000004,16.403850522000027]]]}},{"type":"Feature","properties":{"name":"Guisad Central","psgc":"1430300042","label_position":{"lat":16.42324497350006,"lng":120.58520781534389}},"geometry":{"type":"Polygon","coordinates":[[[120.5874005190001,16.425561317000074],[120.5839815920001,16.425620149000054],[120.584049626,16.423961482000042],[120.58263648500008,16.42425917400004],[120.582248606,16.421669181000027],[120.58420654200008,16.421688781000057],[120.5858005780001,16.42077546800005],[120.58717463700009,16.420732133000055],[120.58835490700007,16.422930171000075],[120.5875071590001,16.423559776000044],[120.5874005190001,16.425561317000074]]]}},{"type":"Feature","properties":{"name":"Guisad Sorong","psgc":"1430300043","label_position":{"lat":16.420202558000057,"lng":120.5836758193705}},"geometry":{"type":"Polygon","coordinates":[[[120.5858005780001,16.42077546800005],[120.58420654200008,16.421688781000057],[120.582248606,16.421669181000027],[120.58217281300004,16.420446221000077],[120.5804418030001,16.41898038100004],[120.58395335400007,16.41899759100005],[120.58588854200003,16.41886138300003],[120.58532451000008,16.41995889500004],[120.5858005780001,16.42077546800005]]]}},{"type":"Feature","properties":{"name":"Happy Hollow","psgc":"1430300006","label_position":{"lat":16.392520375000053,"lng":120.62794127015668}},"geometry":{"type":"Polygon","coordinates":[[[120.6328272950001,16.40019243000006],[120.63082898500012,16.400321760000054],[120.62655767500006,16.402998099000058],[120.62410185700004,16.405698618000027],[120.62129388100004,16.404150538000067],[120.6199090560001,16.400098603000064],[120.6211459110001,16.395766595000048],[120.62193650300004,16.389274155000063],[120.62254402800012,16.387939426000056],[120.62535624300007,16.38766883500006],[120.6273569980001,16.385636221000027],[120.62834488200006,16.383894074000064],[120.6360478690001,16.38613994800005],[120.63320036000005,16.39678626700004],[120.6328272950001,16.40019243000006]]]}},{"type":"Feature","properties":{"name":"Happy Homes","psgc":"1430300139","label_position":{"lat":16.427954519000053,"lng":120.59530306434911}},"geometry":{"type":"Polygon","coordinates":[[[120.59747199900004,16.428282761000048],[120.59665149900002,16.430508614000075],[120.59539630100005,16.429432339000076],[120.59417223800006,16.42825495700004],[120.59375640100005,16.425712543000024],[120.59398228900011,16.425436849000054],[120.59501742500004,16.425982520000048],[120.59557783300012,16.42765408100007],[120.59747199900004,16.428282761000048]]]}},{"type":"Feature","properties":{"name":"Harrison-Claudio Carantes","psgc":"1430300140","label_position":{"lat":16.411611969000035,"lng":120.59721297746803}},"geometry":{"type":"Polygon","coordinates":[[[120.59608631300011,16.412920735000057],[120.59528537200003,16.41386744300007],[120.59483414200007,16.413334106000036],[120.59730512200008,16.410909898000057],[120.59711360600011,16.409491161000062],[120.59852568400004,16.411119451000047],[120.59714721500008,16.412104487000022],[120.59608631300011,16.412920735000057]]]}},{"type":"Feature","properties":{"name":"Hillside","psgc":"1430300045","label_position":{"lat":16.39667728000006,"lng":120.60452688850006}},"geometry":{"type":"Polygon","coordinates":[[[120.60605280500012,16.397216518000047],[120.60488123100004,16.397928781000072],[120.60524734800005,16.39906707200004],[120.603025967,16.398168230000064],[120.60249743900012,16.395966030000068],[120.60413310300008,16.39593349700004],[120.60582448000002,16.394153509000038],[120.60624185800009,16.394500280000045],[120.60671847100002,16.39613804200007],[120.60605280500012,16.397216518000047]]]}},{"type":"Feature","properties":{"name":"Holy Ghost Extension","psgc":"1430300046","label_position":{"lat":16.416383262000036,"lng":120.60391555001497}},"geometry":{"type":"Polygon","coordinates":[[[120.6046925810001,16.419485136000045],[120.60360343100002,16.42058781500003],[120.60282546700012,16.419579844000054],[120.60205481100003,16.41784785700002],[120.60264510000003,16.416851765000043],[120.60207968700003,16.415713960000065],[120.60114144700003,16.415914759000028],[120.60221348800009,16.414380443000027],[120.6039549180001,16.41362463800004],[120.60385462600006,16.41280966400006],[120.6064335120001,16.413036820000055],[120.60543733200006,16.415290401000053],[120.6054030580001,16.417313196000066],[120.6046925810001,16.419485136000045]]]}},{"type":"Feature","properties":{"name":"Holy Ghost Proper","psgc":"1430300047","label_position":{"lat":16.416444825000042,"lng":120.60079581515532}},"geometry":{"type":"Polygon","coordinates":[[[120.60205481100003,16.41784785700002],[120.59866149400011,16.417414028000056],[120.59852047900006,16.41709439400006],[120.59954235100008,16.416037885000037],[120.59941942300009,16.41482678100005],[120.60030222800002,16.41490604900002],[120.60114144700003,16.415914759000028],[120.60207968700003,16.415713960000065],[120.60264510000003,16.416851765000043],[120.60205481100003,16.41784785700002]]]}},{"type":"Feature","properties":{"name":"Honeymoon","psgc":"1430300141","label_position":{"lat":16.418713850500037,"lng":120.60065267698673}},"geometry":{"type":"Polygon","coordinates":[[[120.60282546700012,16.419579844000054],[120.599765939,16.421233235000045],[120.59915486700004,16.420561948000056],[120.59866149400011,16.417414028000056],[120.60205481100003,16.41784785700002],[120.60282546700012,16.419579844000054]]]}},{"type":"Feature","properties":{"name":"Imelda R. Marcos","psgc":"1430300120","label_position":{"lat":16.40022159600005,"lng":120.58940497950951}},"geometry":{"type":"Polygon","coordinates":[[[120.58981851500005,16.40182632600005],[120.58895665600006,16.401048080000066],[120.58770889000004,16.401060944000054],[120.587522368,16.400141199000075],[120.58518763000005,16.40030199300003],[120.58504730300001,16.399073615000077],[120.58654122800012,16.398810664000056],[120.58770285000004,16.399893209000027],[120.58904776000008,16.399598789000038],[120.58954462800013,16.398460935000056],[120.59162043400012,16.399386678000045],[120.59099770900002,16.400875804000062],[120.58981851500005,16.40182632600005]]]}},{"type":"Feature","properties":{"name":"Imelda Village","psgc":"1430300049","label_position":{"lat":16.41869818950005,"lng":120.60573125326798}},"geometry":{"type":"Polygon","coordinates":[[[120.60619772300004,16.42066668200004],[120.6046925810001,16.419485136000045],[120.6054030580001,16.417313196000066],[120.60751881200008,16.416899154000077],[120.60728058400002,16.41817244400005],[120.60574442100004,16.419223935000044],[120.60619772300004,16.42066668200004]]]}},{"type":"Feature","properties":{"name":"Irisan","psgc":"1430300050","label_position":{"lat":16.422991973500075,"lng":120.55909612409971}},"geometry":{"type":"Polygon","coordinates":[[[120.56597798700011,16.434366545000046],[120.55573058300001,16.434291982000044],[120.54516024500003,16.434519338000033],[120.5437843110001,16.429791035000054],[120.54426187700005,16.428393922000055],[120.54710217700006,16.42512086300007],[120.55038806500012,16.419294828000034],[120.55178899200007,16.41768134900008],[120.5526042690001,16.41572768200007],[120.5530961390001,16.41322330400004],[120.5569256430001,16.408159150000074],[120.55842296500009,16.409741588000028],[120.56254345500008,16.409215225000022],[120.56305779600008,16.40984084300004],[120.56635904300005,16.409517526000055],[120.56977523700006,16.410750959000044],[120.57412683100007,16.413182939000023],[120.57293563700013,16.41459823700006],[120.5717927730001,16.415974146000053],[120.57062467300011,16.416435825000065],[120.57154676200003,16.417758220000056],[120.57130770900005,16.418785741000022],[120.57048379100002,16.420863084000075],[120.56853676600008,16.427836328000065],[120.56597798700011,16.434366545000046]]]}},{"type":"Feature","properties":{"name":"Kabayanihan","psgc":"1430300142","label_position":{"lat":16.41359483000005,"lng":120.59765980241033}},"geometry":{"type":"Polygon","coordinates":[[[120.59696699000006,16.41479245300007],[120.59661247600002,16.41489974000006],[120.59608631300011,16.412920735000057],[120.59714721500008,16.412104487000022],[120.59870216900003,16.411523035000073],[120.599645021,16.412689494000066],[120.59922863400004,16.413073584000077],[120.59887950300003,16.414116076000024],[120.59696699000006,16.41479245300007]]]}},{"type":"Feature","properties":{"name":"Kagitingan","psgc":"1430300053","label_position":{"lat":16.415589378500073,"lng":120.59641766432873}},"geometry":{"type":"Polygon","coordinates":[[[120.59703082300007,16.416724427000073],[120.59622587800004,16.41701101500007],[120.59618900600003,16.416882874000066],[120.59597810800007,16.416017693000068],[120.59570590800001,16.415161064000078],[120.59661247600002,16.41489974000006],[120.59696699000006,16.41479245300007],[120.59703082300007,16.416724427000073]]]}},{"type":"Feature","properties":{"name":"Kayang Extension","psgc":"1430300051","label_position":{"lat":16.414196634000035,"lng":120.58969740564729}},"geometry":{"type":"Polygon","coordinates":[[[120.59085716900006,16.414914053000075],[120.58942868200006,16.415408990000056],[120.5881289150001,16.41466714200004],[120.58902369700002,16.413726126000025],[120.59079103900001,16.413686987000062],[120.59085716900006,16.414914053000075]]]}},{"type":"Feature","properties":{"name":"Kayang-Hilltop","psgc":"1430300143","label_position":{"lat":16.415050333500062,"lng":120.59403264178701}},"geometry":{"type":"Polygon","coordinates":[[[120.59526354600007,16.416129510000072],[120.594949358,16.41620862700006],[120.59331653100003,16.415488745000065],[120.59345211700008,16.41461192200006],[120.59444198300002,16.414607656000044],[120.59526354600007,16.416129510000072]]]}},{"type":"Feature","properties":{"name":"Kias","psgc":"1430300052","label_position":{"lat":16.369378472500046,"lng":120.63246172402478}},"geometry":{"type":"Polygon","coordinates":[[[120.62851795100003,16.363138680000077],[120.63131959000009,16.36230380900002],[120.6337287880001,16.362360557000045],[120.63394030200004,16.366724972000043],[120.63436849000004,16.36878336600006],[120.63485927500005,16.37335512100003],[120.63507059700008,16.37698778400005],[120.63138466800002,16.375796260000072],[120.63057755700005,16.374878370000026],[120.62849411900005,16.373452777000068],[120.62907599200003,16.373025278000057],[120.62953366500005,16.370488942000065],[120.63032388800004,16.369973579000032],[120.63079753200009,16.368287605000035],[120.6286156330001,16.367045934000032],[120.62816908900005,16.36362708700005],[120.62851795100003,16.363138680000077]]]}},{"type":"Feature","properties":{"name":"Legarda-Burnham-Kisad","psgc":"1430300119","label_position":{"lat":16.407215097000034,"lng":120.5946858109233}},"geometry":{"type":"Polygon","coordinates":[[[120.59711360600011,16.409491161000062],[120.59730512200008,16.410909898000057],[120.59483414200007,16.413334106000036],[120.59297086800005,16.412659479000073],[120.59273060500003,16.41149528400007],[120.59188429400001,16.410658762000025],[120.590845005,16.41087573600004],[120.59063903400012,16.40953612100003],[120.59155440000006,16.406967895000037],[120.5925150500001,16.404344767000058],[120.59397959600005,16.402442166000068],[120.59362953500012,16.40141540800005],[120.59394598300003,16.401545285000058],[120.59568727900012,16.402299327000037],[120.59599196500007,16.403950442000053],[120.59687622800004,16.40498775100002],[120.597284349,16.406441683000025],[120.59810381000011,16.407462299000034],[120.59711360600011,16.409491161000062]]]}},{"type":"Feature","properties":{"name":"Liwanag-Loakan","psgc":"1430300145","label_position":{"lat":16.386181922500043,"lng":120.60982836198949}},"geometry":{"type":"Polygon","coordinates":[[[120.6115525680001,16.392880008000077],[120.61002181800008,16.393119355000067],[120.60967534300003,16.392923248000045],[120.60845391500006,16.39028383200002],[120.60940250600005,16.389334937000054],[120.60925591700006,16.38735598600004],[120.60790365800005,16.38559696200002],[120.60736984800008,16.38322717900008],[120.6081159060001,16.382468137000046],[120.60760097100001,16.38037510300006],[120.60683958800008,16.379025879000036],[120.60897876500007,16.378569484000028],[120.61055234800006,16.379255477000072],[120.61168073600005,16.378295087000026],[120.61384606700005,16.378907379000054],[120.61556980100012,16.380294241000062],[120.61679068100013,16.382996237000043],[120.61669828200002,16.38392022700003],[120.6157984030001,16.384557742000023],[120.61401716500006,16.38400595300004],[120.61218674900012,16.384713369000046],[120.61095150500013,16.386766883000064],[120.61100752800009,16.388962995000043],[120.6115525680001,16.392880008000077]]]}},{"type":"Feature","properties":{"name":"Loakan Proper","psgc":"1430300054","label_position":{"lat":16.376226077500064,"lng":120.61743794214289}},"geometry":{"type":"Polygon","coordinates":[[[120.62090434400011,16.382517625000045],[120.61721347700008,16.384497021000072],[120.61669828200002,16.38392022700003],[120.61679068100013,16.382996237000043],[120.61556980100012,16.380294241000062],[120.61384606700005,16.378907379000054],[120.61168073600005,16.378295087000026],[120.61055234800006,16.379255477000072],[120.60897876500007,16.378569484000028],[120.60683958800008,16.379025879000036],[120.60733624400007,16.378177453000028],[120.60687402300005,16.377105940000035],[120.60754214300006,16.37585374100007],[120.60717236600011,16.37343338400007],[120.60833632300013,16.37231565000008],[120.6076261830001,16.371571894000052],[120.60871870600012,16.367857318000063],[120.61244734700006,16.368481716000073],[120.62586435500009,16.372165581000047],[120.626992899,16.372282327000047],[120.62794243200007,16.371683031000032],[120.62907599200003,16.373025278000057],[120.62849411900005,16.373452777000068],[120.62831599500011,16.375079645000017],[120.62723685000002,16.37665848800003],[120.62578172300005,16.376598414000057],[120.623672456,16.37721917900007],[120.6231317900001,16.378106940000066],[120.62223067900004,16.377859969000042],[120.6206554040001,16.37837393600006],[120.62053986200011,16.379917126000063],[120.61892465700011,16.380325678000073],[120.61866141900009,16.38161556400007],[120.62046860300006,16.381746108000073],[120.62090434400011,16.382517625000045]]]}},{"type":"Feature","properties":{"name":"Lopez Jaena","psgc":"1430300055","label_position":{"lat":16.426198240000048,"lng":120.60338167621529}},"geometry":{"type":"Polygon","coordinates":[[[120.6040570670001,16.426659310000048],[120.60187110500011,16.426596285000073],[120.60233977400003,16.425800195000022],[120.60434085300005,16.425118693000066],[120.60529961800012,16.42570581600006],[120.6040570670001,16.426659310000048]]]}},{"type":"Feature","properties":{"name":"Lourdes Subdivision Extension","psgc":"1430300056","label_position":{"lat":16.411855374000055,"lng":120.58453797695972}},"geometry":{"type":"Polygon","coordinates":[[[120.58557657200004,16.412856704000028],[120.5840455770001,16.413022815000033],[120.58266448000006,16.412593059000073],[120.58248289500013,16.41216818500004],[120.58419212700005,16.411217273000034],[120.58495799900005,16.41139021200007],[120.58617268800005,16.41154256300007],[120.58557657200004,16.412856704000028]]]}},{"type":"Feature","properties":{"name":"Lourdes Subdivision, Lower","psgc":"1430300059","label_position":{"lat":16.410400424000045,"lng":120.58488069364077}},"geometry":{"type":"Polygon","coordinates":[[[120.58585561100006,16.40958357500006],[120.58495799900005,16.41139021200007],[120.58419212700005,16.411217273000034],[120.58448395300003,16.409222374000027],[120.58505574000003,16.40912229000003],[120.58585561100006,16.40958357500006]]]}},{"type":"Feature","properties":{"name":"Lourdes Subdivision, Proper","psgc":"1430300122","label_position":{"lat":16.410544804500063,"lng":120.58302521089811}},"geometry":{"type":"Polygon","coordinates":[[[120.58419212700005,16.411217273000034],[120.58248289500013,16.41216818500004],[120.58163182900012,16.410924437000062],[120.58188801500012,16.410165172000067],[120.58448395300003,16.409222374000027],[120.58419212700005,16.411217273000034]]]}},{"type":"Feature","properties":{"name":"Lualhati","psgc":"1430300063","label_position":{"lat":16.41338258500005,"lng":120.61997279344436}},"geometry":{"type":"Polygon","coordinates":[[[120.6246861730001,16.413699294000025],[120.62265430100003,16.414217544000053],[120.6214529350001,16.416037521000074],[120.6195770710001,16.41696744000006],[120.61559266800009,16.416354694000063],[120.61541283800011,16.416077456000036],[120.61576074300002,16.414809831000074],[120.61544814800003,16.41306587600008],[120.61645174400007,16.412416006000058],[120.61897718900002,16.411774362000077],[120.62049903600008,16.410647372000025],[120.62272833700003,16.410137348000035],[120.62278592000007,16.41124788500002],[120.6246861730001,16.413699294000025]]]}},{"type":"Feature","properties":{"name":"Lucnab","psgc":"1430300064","label_position":{"lat":16.404348358500044,"lng":120.62890751203798}},"geometry":{"type":"Polygon","coordinates":[[[120.6328272950001,16.40019243000006],[120.63250702200004,16.402509261000027],[120.63246317100005,16.406214763000033],[120.63198882300003,16.41003845400007],[120.63062401500008,16.409992432000024],[120.62797476100003,16.408847936000026],[120.62598648200004,16.408723979000055],[120.62320974900001,16.40803796300003],[120.6220555000001,16.407036161000068],[120.62410185700004,16.405698618000027],[120.62655767500006,16.402998099000058],[120.63082898500012,16.400321760000054],[120.6328272950001,16.40019243000006]]]}},{"type":"Feature","properties":{"name":"Magsaysay Private Road","psgc":"1430300066","label_position":{"lat":16.42420956400005,"lng":120.59339375512292}},"geometry":{"type":"Polygon","coordinates":[[[120.59398228900011,16.425436849000054],[120.59375640100005,16.425712543000024],[120.592620365,16.42488390500006],[120.59238365100009,16.424596336000036],[120.59361039500004,16.42253788300008],[120.59483309300003,16.423398407000033],[120.59423357600008,16.423822792000067],[120.59398228900011,16.425436849000054]]]}},{"type":"Feature","properties":{"name":"Magsaysay, Lower","psgc":"1430300065","label_position":{"lat":16.42101195150005,"lng":120.59273147422732}},"geometry":{"type":"Polygon","coordinates":[[[120.59361039500004,16.42253788300008],[120.59238365100009,16.424596336000036],[120.59181832700004,16.423768681000073],[120.59243032900008,16.42036309100007],[120.59389627700013,16.418961405000058],[120.59546200300008,16.417464237000036],[120.59618900600003,16.416882874000066],[120.59622587800004,16.41701101500007],[120.59561464400008,16.418981478000035],[120.59551742500003,16.41943075000006],[120.59306141500007,16.42029966400003],[120.5932292120001,16.421660812000024],[120.59402799100008,16.42191149000007],[120.59361039500004,16.42253788300008]]]}},{"type":"Feature","properties":{"name":"Magsaysay, Upper","psgc":"1430300159","label_position":{"lat":16.41651890050005,"lng":120.59557824009866}},"geometry":{"type":"Polygon","coordinates":[[[120.59618900600003,16.416882874000066],[120.59546200300008,16.417464237000036],[120.59516303600003,16.41682917400004],[120.594949358,16.41620862700006],[120.59526354600007,16.416129510000072],[120.59597810800007,16.416017693000068],[120.59618900600003,16.416882874000066]]]}},{"type":"Feature","properties":{"name":"Malcolm Square-Perfecto","psgc":"1430300147","label_position":{"lat":16.414383591500062,"lng":120.5959642050663}},"geometry":{"type":"Polygon","coordinates":[[[120.59661247600002,16.41489974000006],[120.59570590800001,16.415161064000078],[120.59528537200003,16.41386744300007],[120.59608631300011,16.412920735000057],[120.59661247600002,16.41489974000006]]]}},{"type":"Feature","properties":{"name":"Manuel A. Roxas","psgc":"1430300148","label_position":{"lat":16.414917484000057,"lng":120.60707292157107}},"geometry":{"type":"Polygon","coordinates":[[[120.60751881200008,16.416899154000077],[120.6054030580001,16.417313196000066],[120.60543733200006,16.415290401000053],[120.6064335120001,16.413036820000055],[120.60873652600003,16.414544567000064],[120.60751881200008,16.416899154000077]]]}},{"type":"Feature","properties":{"name":"Market Subdivision, Upper","psgc":"1430300160","label_position":{"lat":16.41651890050005,"lng":120.59428410543231}},"geometry":{"type":"Polygon","coordinates":[[[120.59516303600003,16.41682917400004],[120.59372913000006,16.41766305900006],[120.59331653100003,16.415488745000065],[120.594949358,16.41620862700006],[120.59516303600003,16.41682917400004]]]}},{"type":"Feature","properties":{"name":"Middle Quezon Hill Subdivision","psgc":"1430300154","label_position":{"lat":16.41612116650006,"lng":120.57428515620168}},"geometry":{"type":"Polygon","coordinates":[[[120.57796040500011,16.41606030700006],[120.57742661000009,16.416008529000063],[120.57426526400003,16.417293611000044],[120.57239496800001,16.416182026000058],[120.57154676200003,16.417758220000056],[120.57062467300011,16.416435825000065],[120.5717927730001,16.415974146000053],[120.57293563700013,16.41459823700006],[120.57580448500003,16.41514204300006],[120.57674229100006,16.41478026800007],[120.57831976900003,16.415198920000023],[120.57796040500011,16.41606030700006]]]}},{"type":"Feature","properties":{"name":"Military Cut-off","psgc":"1430300071","label_position":{"lat":16.40340922550004,"lng":120.60037858021226}},"geometry":{"type":"Polygon","coordinates":[[[120.60036334200005,16.406401455000037],[120.5997118580001,16.406113453000046],[120.59810381000011,16.407462299000034],[120.597284349,16.406441683000025],[120.59687622800004,16.40498775100002],[120.59599196500007,16.403950442000053],[120.59568727900012,16.402299327000037],[120.59829006400003,16.401418362000076],[120.5996068820001,16.399712279000024],[120.602546,16.399740854000076],[120.6023969150001,16.40291776900006],[120.60455256700004,16.402571132000052],[120.60504831800007,16.403900682000028],[120.60349409900003,16.40455180800007],[120.6017758250001,16.405493977000056],[120.60036334200005,16.406401455000037]]]}},{"type":"Feature","properties":{"name":"Mines View Park","psgc":"1430300072","label_position":{"lat":16.42414499550005,"lng":120.62618863380544}},"geometry":{"type":"Polygon","coordinates":[[[120.63086440000008,16.419159157000024],[120.63004894000005,16.422044248000084],[120.62972588100001,16.42439180700006],[120.62961306100011,16.428606459000036],[120.62638760900006,16.429409984000078],[120.62243471900001,16.42941582300006],[120.62299828800006,16.428439319000063],[120.62203054900012,16.42600787500004],[120.6226951760001,16.423898184000045],[120.62511852600004,16.421111087000046],[120.6268068820001,16.419918563000056],[120.6265430530001,16.41876138400005],[120.63086440000008,16.419159157000024]]]}},{"type":"Feature","properties":{"name":"Modern Site, East","psgc":"1430300074","label_position":{"lat":16.421671712500057,"lng":120.60620643268047}},"geometry":{"type":"Polygon","coordinates":[[[120.60750578200009,16.42428268200007],[120.60561319100007,16.42435383100008],[120.60498749500006,16.42374860500007],[120.60347714300009,16.421105118000074],[120.60360343100002,16.42058781500003],[120.6046925810001,16.419485136000045],[120.60619772300004,16.42066668200004],[120.60803812000007,16.420596385000067],[120.60891437900013,16.422238307000043],[120.60765245200004,16.423242177000073],[120.60750578200009,16.42428268200007]]]}},{"type":"Feature","properties":{"name":"Modern Site, West","psgc":"1430300075","label_position":{"lat":16.422702892000046,"lng":120.60291290003875}},"geometry":{"type":"Polygon","coordinates":[[[120.60561319100007,16.42435383100008],[120.6045973030001,16.424168162000058],[120.601669893,16.42287129500005],[120.60120165,16.422534489000043],[120.60347714300009,16.421105118000074],[120.60498749500006,16.42374860500007],[120.60561319100007,16.42435383100008]]]}},{"type":"Feature","properties":{"name":"MRR-Queen Of Peace","psgc":"1430300091","label_position":{"lat":16.41309403850005,"lng":120.58722832505865}},"geometry":{"type":"Polygon","coordinates":[[[120.58902369700002,16.413726126000025],[120.5881289150001,16.41466714200004],[120.58676621600011,16.413331373000066],[120.58557657200004,16.412856704000028],[120.58617268800005,16.41154256300007],[120.58723120700006,16.412191798000038],[120.58902369700002,16.413726126000025]]]}},{"type":"Feature","properties":{"name":"New Lucban","psgc":"1430300076","label_position":{"lat":16.422169160000067,"lng":120.59616537055328}},"geometry":{"type":"Polygon","coordinates":[[[120.599765939,16.421233235000045],[120.59811899200008,16.422426830000063],[120.59805135700005,16.42341237500005],[120.59615130300004,16.42382921600006],[120.59483309300003,16.423398407000033],[120.59361039500004,16.42253788300008],[120.59402799100008,16.42191149000007],[120.5950248800001,16.42180664300002],[120.59765469900003,16.42030292900006],[120.59915486700004,16.420561948000056],[120.599765939,16.421233235000045]]]}},{"type":"Feature","properties":{"name":"Outlook Drive","psgc":"1430300081","label_position":{"lat":16.410947628500022,"lng":120.62733756638502}},"geometry":{"type":"Polygon","coordinates":[[[120.6315421800001,16.414870311000072],[120.63015726600008,16.41538819900006],[120.628185486,16.41467239900004],[120.62585429400009,16.414308033000054],[120.6246861730001,16.413699294000025],[120.62278592000007,16.41124788500002],[120.62272833700003,16.410137348000035],[120.62049903600008,16.410647372000025],[120.62063616600004,16.407955348000026],[120.6220555000001,16.407036161000068],[120.62320974900001,16.40803796300003],[120.62598648200004,16.408723979000055],[120.62797476100003,16.408847936000026],[120.63062401500008,16.409992432000024],[120.63198882300003,16.41003845400007],[120.6315421800001,16.414870311000072]]]}},{"type":"Feature","properties":{"name":"Pacdal","psgc":"1430300082","label_position":{"lat":16.42331925350007,"lng":120.61602145081855}},"geometry":{"type":"Polygon","coordinates":[[[120.62243471900001,16.42941582300006],[120.61457509200012,16.428564540000025],[120.61149635100003,16.42995436800004],[120.61122628400007,16.428175457000066],[120.61064776800004,16.42649414400006],[120.61057545300002,16.42387274300006],[120.60993526400011,16.42225532200007],[120.61165334500004,16.419617548000073],[120.61348494000002,16.419160214000044],[120.61449278400005,16.41850483200005],[120.61453515300002,16.417457711000054],[120.61541283800011,16.416077456000036],[120.61559266800009,16.416354694000063],[120.61547332500004,16.417348762000078],[120.61748254400003,16.41912918000003],[120.6190527550001,16.419660366000073],[120.6190702670001,16.42049508800005],[120.62072219800007,16.422765764000072],[120.6226951760001,16.423898184000045],[120.62203054900012,16.42600787500004],[120.62299828800006,16.428439319000063],[120.62243471900001,16.42941582300006]]]}},{"type":"Feature","properties":{"name":"Padre Burgos","psgc":"1430300149","label_position":{"lat":16.42127313000006,"lng":120.5911190632651}},"geometry":{"type":"Polygon","coordinates":[[[120.59389627700013,16.418961405000058],[120.59243032900008,16.42036309100007],[120.59181832700004,16.423768681000073],[120.59055393100003,16.42218316900005],[120.58917915200004,16.420035703000053],[120.5891891870001,16.41887165600002],[120.59085031700012,16.41883934900005],[120.59202366900003,16.41991488900004],[120.59389627700013,16.418961405000058]]]}},{"type":"Feature","properties":{"name":"Padre Zamora","psgc":"1430300161","label_position":{"lat":16.418318610500048,"lng":120.59178096232483}},"geometry":{"type":"Polygon","coordinates":[[[120.59389627700013,16.418961405000058],[120.59202366900003,16.41991488900004],[120.59085031700012,16.41883934900005],[120.5891891870001,16.41887165600002],[120.58880908600008,16.417797872000047],[120.59085856400009,16.417110375000046],[120.59372913000006,16.41766305900006],[120.59516303600003,16.41682917400004],[120.59546200300008,16.417464237000036],[120.59389627700013,16.418961405000058]]]}},{"type":"Feature","properties":{"name":"Palma-Urbano","psgc":"1430300134","label_position":{"lat":16.41293939250005,"lng":120.58942471064377}},"geometry":{"type":"Polygon","coordinates":[[[120.59079103900001,16.413686987000062],[120.58902369700002,16.413726126000025],[120.58723120700006,16.412191798000038],[120.588549702,16.411766114000045],[120.59068345700007,16.411946410000038],[120.59079103900001,16.413686987000062]]]}},{"type":"Feature","properties":{"name":"Phil-Am","psgc":"1430300152","label_position":{"lat":16.40072708300005,"lng":120.59397887441347}},"geometry":{"type":"Polygon","coordinates":[[[120.5953522000001,16.399271759000047],[120.59549955000011,16.40028956200007],[120.59394598300003,16.401545285000058],[120.59362953500012,16.40141540800005],[120.59284783500004,16.401164604000034],[120.59338664900008,16.399610191000026],[120.5953522000001,16.399271759000047]]]}},{"type":"Feature","properties":{"name":"Pinget","psgc":"1430300086","label_position":{"lat":16.429152040000048,"lng":120.58539001424455}},"geometry":{"type":"Polygon","coordinates":[[[120.58822819800004,16.432180755000047],[120.58213414200009,16.432215160000055],[120.57967732800012,16.43263847700007],[120.580082747,16.429998734000037],[120.58259863700005,16.429090731000027],[120.58231380800008,16.428056610000056],[120.5839815920001,16.425620149000054],[120.5874005190001,16.425561317000074],[120.58778227500011,16.42740266400006],[120.58839340500003,16.427473520000035],[120.58834972700004,16.42921334900007],[120.58822819800004,16.432180755000047]]]}},{"type":"Feature","properties":{"name":"Pinsao Pilot Project","psgc":"1430300087","label_position":{"lat":16.42745923150005,"lng":120.5805446192416}},"geometry":{"type":"Polygon","coordinates":[[[120.5839815920001,16.425620149000054],[120.58231380800008,16.428056610000056],[120.58259863700005,16.429090731000027],[120.580082747,16.429998734000037],[120.57906742400009,16.429972964000058],[120.5781999510001,16.42686185300004],[120.5793182760001,16.426062424000065],[120.58050212900002,16.425940108000077],[120.58263648500008,16.42425917400004],[120.584049626,16.423961482000042],[120.5839815920001,16.425620149000054]]]}},{"type":"Feature","properties":{"name":"Pinsao Proper","psgc":"1430300088","label_position":{"lat":16.426462138500053,"lng":120.57383978599204}},"geometry":{"type":"Polygon","coordinates":[[[120.57967732800012,16.43263847700007],[120.57723031900004,16.433868123000018],[120.56597798700011,16.434366545000046],[120.56853676600008,16.427836328000065],[120.57048379100002,16.420863084000075],[120.57130770900005,16.418785741000022],[120.57298591000006,16.418714176000037],[120.57521162100012,16.42054756700002],[120.57635922700001,16.420753978000047],[120.57684820600004,16.41964437200005],[120.57748606900009,16.420296605000033],[120.57917880500008,16.42037476900003],[120.5804418030001,16.41898038100004],[120.58217281300004,16.420446221000077],[120.582248606,16.421669181000027],[120.58263648500008,16.42425917400004],[120.58050212900002,16.425940108000077],[120.5793182760001,16.426062424000065],[120.5781999510001,16.42686185300004],[120.57906742400009,16.429972964000058],[120.580082747,16.429998734000037],[120.57967732800012,16.43263847700007]]]}},{"type":"Feature","properties":{"name":"Poliwes","psgc":"1430300089","label_position":{"lat":16.396476075000038,"lng":120.59968681285974}},"geometry":{"type":"Polygon","coordinates":[[[120.60249743900012,16.395966030000068],[120.6008522730001,16.39592686200007],[120.60091534500009,16.396982254000022],[120.600022179,16.39781666000005],[120.59884699300005,16.397077625000065],[120.59818690000009,16.39596989600005],[120.60000695100008,16.394687778000048],[120.60019451700009,16.394132027000072],[120.60247153100009,16.394188726000035],[120.60249743900012,16.395966030000068]]]}},{"type":"Feature","properties":{"name":"Pucsusan","psgc":"1430300090","label_position":{"lat":16.41697990800003,"lng":120.62919579312984}},"geometry":{"type":"Polygon","coordinates":[[[120.6315421800001,16.414870311000072],[120.63082503900013,16.417684950000023],[120.63086440000008,16.419159157000024],[120.6265430530001,16.41876138400005],[120.62772087700012,16.416274866000037],[120.62625584000011,16.415886750000027],[120.6246861730001,16.413699294000025],[120.62585429400009,16.414308033000054],[120.628185486,16.41467239900004],[120.63015726600008,16.41538819900006],[120.6315421800001,16.414870311000072]]]}},{"type":"Feature","properties":{"name":"Quezon Hill Proper","psgc":"1430300153","label_position":{"lat":16.41401203600006,"lng":120.58254195920742}},"geometry":{"type":"Polygon","coordinates":[[[120.58542463600008,16.415285130000026],[120.58329911400006,16.414692699000057],[120.58178092700007,16.415636324000044],[120.57959718700012,16.416461719000036],[120.57778411100003,16.41668363200006],[120.57796040500011,16.41606030700006],[120.57831976900003,16.415198920000023],[120.57906460800007,16.41329908000006],[120.57942135500004,16.41247886800005],[120.58149475500011,16.413021610000047],[120.58266448000006,16.412593059000073],[120.5840455770001,16.413022815000033],[120.58557657200004,16.412856704000028],[120.58676621600011,16.413331373000066],[120.58542463600008,16.415285130000026]]]}},{"type":"Feature","properties":{"name":"Quezon Hill, Upper","psgc":"1430300150","label_position":{"lat":16.418236198000045,"lng":120.57436444864177}},"geometry":{"type":"Polygon","coordinates":[[[120.57684820600004,16.41964437200005],[120.57635922700001,16.420753978000047],[120.57521162100012,16.42054756700002],[120.57298591000006,16.418714176000037],[120.57130770900005,16.418785741000022],[120.57154676200003,16.417758220000056],[120.57239496800001,16.416182026000058],[120.57426526400003,16.417293611000044],[120.57742661000009,16.416008529000063],[120.57796040500011,16.41606030700006],[120.57778411100003,16.41668363200006],[120.57684820600004,16.41964437200005]]]}},{"type":"Feature","properties":{"name":"Quirino Hill, East","psgc":"1430300034","label_position":{"lat":16.430948125500066,"lng":120.59463010496457}},"geometry":{"type":"Polygon","coordinates":[[[120.59739847600008,16.431387637000057],[120.59512725400009,16.432695696000053],[120.5921637900001,16.432447077000063],[120.59228477200008,16.429908368000042],[120.59321425500002,16.428769707000068],[120.59539630100005,16.429432339000076],[120.59665149900002,16.430508614000075],[120.59739847600008,16.431387637000057]]]}},{"type":"Feature","properties":{"name":"Quirino Hill, Lower","psgc":"1430300061","label_position":{"lat":16.428156832000067,"lng":120.5896102718061}},"geometry":{"type":"Polygon","coordinates":[[[120.58992480300005,16.429078384000036],[120.58834972700004,16.42921334900007],[120.58839340500003,16.427473520000035],[120.58887168000001,16.426835819000072],[120.5912841400001,16.427033265000034],[120.59164091900006,16.427918018000067],[120.590047667,16.428395646000066],[120.58992480300005,16.429078384000036]]]}},{"type":"Feature","properties":{"name":"Quirino Hill, Middle","psgc":"1430300069","label_position":{"lat":16.431177722500053,"lng":120.59106972412522}},"geometry":{"type":"Polygon","coordinates":[[[120.5921637900001,16.432447077000063],[120.58990900100002,16.43252116200005],[120.58992480300005,16.429078384000036],[120.590047667,16.428395646000066],[120.59164091900006,16.427918018000067],[120.59321425500002,16.428769707000068],[120.59228477200008,16.429908368000042],[120.5921637900001,16.432447077000063]]]}},{"type":"Feature","properties":{"name":"Quirino Hill, West","psgc":"1430300116","label_position":{"lat":16.430697052000056,"lng":120.58910316798949}},"geometry":{"type":"Polygon","coordinates":[[[120.58990900100002,16.43252116200005],[120.58822819800004,16.432180755000047],[120.58834972700004,16.42921334900007],[120.58992480300005,16.429078384000036],[120.58990900100002,16.43252116200005]]]}},{"type":"Feature","properties":{"name":"Quirino-Magsaysay, Upper","psgc":"1430300124","label_position":{"lat":16.40516270550006,"lng":120.58984058060545}},"geometry":{"type":"Polygon","coordinates":[[[120.5925150500001,16.404344767000058],[120.59155440000006,16.406967895000037],[120.58922994500006,16.406451400000037],[120.58854801000005,16.405980644000067],[120.58697293400007,16.406237261000054],[120.58823895400009,16.403476272000038],[120.58918118200006,16.40303746600005],[120.5925150500001,16.404344767000058]]]}},{"type":"Feature","properties":{"name":"Rizal Monument Area","psgc":"1430300155","label_position":{"lat":16.413173233000066,"lng":120.59167350722157}},"geometry":{"type":"Polygon","coordinates":[[[120.59153980100007,16.414578411000033],[120.59085716900006,16.414914053000075],[120.59079103900001,16.413686987000062],[120.59068345700007,16.411946410000038],[120.590845005,16.41087573600004],[120.59188429400001,16.410658762000025],[120.59273060500003,16.41149528400007],[120.59297086800005,16.412659479000073],[120.59153980100007,16.414578411000033]]]}},{"type":"Feature","properties":{"name":"Rock Quarry, Lower","psgc":"1430300092","label_position":{"lat":16.40909099150005,"lng":120.58781359435508}},"geometry":{"type":"Polygon","coordinates":[[[120.5884408940001,16.410473859000035],[120.58693280300007,16.410133650000034],[120.58738472300001,16.408914990000024],[120.58855204600002,16.40782540700007],[120.58827375700002,16.409266993000077],[120.58901258400012,16.409736643000034],[120.5884408940001,16.410473859000035]]]}},{"type":"Feature","properties":{"name":"Rock Quarry, Middle","psgc":"1430300151","label_position":{"lat":16.408465526000043,"lng":120.58596499872723}},"geometry":{"type":"Polygon","coordinates":[[[120.58738472300001,16.408914990000024],[120.58585561100006,16.40958357500006],[120.58505574000003,16.40912229000003],[120.58453499000005,16.40801606200006],[120.58579812900007,16.40652869700006],[120.58661877200008,16.40720475200004],[120.58738472300001,16.408914990000024]]]}},{"type":"Feature","properties":{"name":"Rock Quarry, Upper","psgc":"1430300114","label_position":{"lat":16.407515079500058,"lng":120.5877314547055}},"geometry":{"type":"Polygon","coordinates":[[[120.58855204600002,16.40782540700007],[120.58738472300001,16.408914990000024],[120.58661877200008,16.40720475200004],[120.58579812900007,16.40652869700006],[120.58697293400007,16.406237261000054],[120.58854801000005,16.405980644000067],[120.58922994500006,16.406451400000037],[120.58855204600002,16.40782540700007]]]}},{"type":"Feature","properties":{"name":"Saint Joseph Village","psgc":"1430300110","label_position":{"lat":16.417178432500066,"lng":120.61108965115758}},"geometry":{"type":"Polygon","coordinates":[[[120.60993526400011,16.42225532200007],[120.60891437900013,16.422238307000043],[120.60803812000007,16.420596385000067],[120.60619772300004,16.42066668200004],[120.60574442100004,16.419223935000044],[120.60728058400002,16.41817244400005],[120.60751881200008,16.416899154000077],[120.60873652600003,16.414544567000064],[120.61021144900008,16.413333881000028],[120.61199445000011,16.412877363000057],[120.61271647900004,16.41208010100007],[120.61535347800009,16.412141890000044],[120.61544814800003,16.41306587600008],[120.61576074300002,16.414809831000074],[120.61541283800011,16.416077456000036],[120.61453515300002,16.417457711000054],[120.61449278400005,16.41850483200005],[120.61348494000002,16.419160214000044],[120.61165334500004,16.419617548000073],[120.60993526400011,16.42225532200007]]]}},{"type":"Feature","properties":{"name":"Salud Mitra","psgc":"1430300094","label_position":{"lat":16.410983909000066,"lng":120.60124711935504}},"geometry":{"type":"Polygon","coordinates":[[[120.60320088000003,16.410444783000063],[120.60282688000008,16.411822198000035],[120.60192380700005,16.412606686000057],[120.60021800100004,16.41305366200004],[120.599645021,16.412689494000066],[120.59870216900003,16.411523035000073],[120.60196845300004,16.409135564000053],[120.60266723900007,16.409030933000054],[120.60320088000003,16.410444783000063]]]}},{"type":"Feature","properties":{"name":"San Antonio Village","psgc":"1430300096","label_position":{"lat":16.42635847050005,"lng":120.60508821923747}},"geometry":{"type":"Polygon","coordinates":[[[120.60594528700005,16.42605763100005],[120.60511072800011,16.427209552000022],[120.6040570670001,16.426659310000048],[120.60529961800012,16.42570581600006],[120.60594528700005,16.42605763100005]]]}},{"type":"Feature","properties":{"name":"San Luis Village","psgc":"1430300097","label_position":{"lat":16.408811369500054,"lng":120.5728365062335}},"geometry":{"type":"Polygon","coordinates":[[[120.57942135500004,16.41247886800005],[120.57906460800007,16.41329908000006],[120.57695462000005,16.413024659000033],[120.57412683100007,16.413182939000023],[120.56977523700006,16.410750959000044],[120.56635904300005,16.409517526000055],[120.56743113200002,16.408105213000052],[120.56816119500003,16.40635918900005],[120.57099653200008,16.404108795000063],[120.57247951300008,16.40478333400005],[120.57623566600012,16.404524132000063],[120.57699285500006,16.404792913000048],[120.57761728600008,16.40530875500002],[120.57865776600009,16.40766262700003],[120.57893758200008,16.410337721000076],[120.57854156200005,16.411715323000063],[120.57942135500004,16.41247886800005]]]}},{"type":"Feature","properties":{"name":"San Roque Village","psgc":"1430300098","label_position":{"lat":16.411319880000065,"lng":120.58027883054082}},"geometry":{"type":"Polygon","coordinates":[[[120.58266448000006,16.412593059000073],[120.58149475500011,16.413021610000047],[120.57942135500004,16.41247886800005],[120.57854156200005,16.411715323000063],[120.57893758200008,16.410337721000076],[120.58163182900012,16.410924437000062],[120.58248289500013,16.41216818500004],[120.58266448000006,16.412593059000073]]]}},{"type":"Feature","properties":{"name":"San Vicente","psgc":"1430300099","label_position":{"lat":16.39514217100006,"lng":120.59705118793603}},"geometry":{"type":"Polygon","coordinates":[[[120.59884699300005,16.397077625000065],[120.59669680200011,16.39762187000002],[120.59605692600009,16.397290347000023],[120.59410977800007,16.396251066000044],[120.59454394800002,16.39559656400007],[120.59535678300006,16.393717107000043],[120.59534973400002,16.39277542600007],[120.5975839460001,16.39200500800007],[120.5998428250001,16.39207179700003],[120.60019451700009,16.394132027000072],[120.60000695100008,16.394687778000048],[120.59818690000009,16.39596989600005],[120.59884699300005,16.397077625000065]]]}},{"type":"Feature","properties":{"name":"Sanitary Camp, North","psgc":"1430300079","label_position":{"lat":16.42939226200005,"lng":120.59913687885862}},"geometry":{"type":"Polygon","coordinates":[[[120.60254055100005,16.429906794000033],[120.60256090200004,16.43141247100004],[120.59739847600008,16.431387637000057],[120.59665149900002,16.430508614000075],[120.59747199900004,16.428282761000048],[120.59969712900012,16.426701438000062],[120.59928028700006,16.42764860800002],[120.59988094100004,16.428877730000064],[120.60254055100005,16.429906794000033]]]}},{"type":"Feature","properties":{"name":"Sanitary Camp, South","psgc":"1430300109","label_position":{"lat":16.427201664500046,"lng":120.59720970003332}},"geometry":{"type":"Polygon","coordinates":[[[120.59969712900012,16.426701438000062],[120.59747199900004,16.428282761000048],[120.59557783300012,16.42765408100007],[120.59501742500004,16.425982520000048],[120.5969646740001,16.425923016000066],[120.59795754000004,16.426749248000025],[120.59969712900012,16.426701438000062]]]}},{"type":"Feature","properties":{"name":"Santa Escolastica","psgc":"1430300100","label_position":{"lat":16.401373417500054,"lng":120.60375548685565}},"geometry":{"type":"Polygon","coordinates":[[[120.60455256700004,16.402571132000052],[120.6023969150001,16.40291776900006],[120.602546,16.399740854000076],[120.603025967,16.398168230000064],[120.60524734800005,16.39906707200004],[120.60548206700004,16.399002475000028],[120.60553060500001,16.400175703000055],[120.60455256700004,16.402571132000052]]]}},{"type":"Feature","properties":{"name":"Santo Rosario","psgc":"1430300101","label_position":{"lat":16.40239819100006,"lng":120.5851795534097}},"geometry":{"type":"Polygon","coordinates":[[[120.58823895400009,16.403476272000038],[120.58651401800012,16.402555016000065],[120.58302048100006,16.404392492000053],[120.58067017600003,16.40224136600005],[120.58361004900006,16.401731469000023],[120.58518763000005,16.40030199300003],[120.587522368,16.400141199000075],[120.58770889000004,16.401060944000054],[120.58895665600006,16.401048080000066],[120.58981851500005,16.40182632600005],[120.58918118200006,16.40303746600005],[120.58823895400009,16.403476272000038]]]}},{"type":"Feature","properties":{"name":"Santo Tomas Proper","psgc":"1430300103","label_position":{"lat":16.384419241000046,"lng":120.5805958892378}},"geometry":{"type":"Polygon","coordinates":[[[120.58539164900004,16.384990490000064],[120.58300189500007,16.38637533100007],[120.5816031380001,16.386844684000035],[120.58021936500006,16.38801084500005],[120.57915916700004,16.39035112300007],[120.57924198900002,16.39309692400008],[120.57792176000008,16.393665563000063],[120.57591760300011,16.392236677000028],[120.5741473400001,16.393317565000075],[120.57303622400003,16.392616154000045],[120.57154474500011,16.39330521200003],[120.5708644010001,16.39222075200007],[120.57294522100005,16.390158779000046],[120.57483477100006,16.389198430000018],[120.57536688900008,16.386602217000075],[120.57504625900003,16.384756351000025],[120.57430911200005,16.38408213100007],[120.57496193500003,16.381364007000055],[120.57493662300011,16.37899150100003],[120.5758806560001,16.375608430000057],[120.5785574240001,16.375340672000053],[120.57929543200011,16.37700275900005],[120.58200493800007,16.375339816000064],[120.58486853800002,16.375076571000022],[120.58895205800002,16.37582136400005],[120.58986933900007,16.375323616000056],[120.5900050240001,16.37723593000004],[120.59059016700009,16.37921608700003],[120.58942836200004,16.381094480000055],[120.58837256100003,16.381870430000046],[120.58910610900011,16.38310007800004],[120.58539164900004,16.384990490000064]]]}},{"type":"Feature","properties":{"name":"Santo Tomas School Area","psgc":"1430300102","label_position":{"lat":16.371611352500054,"lng":120.58680902004542}},"geometry":{"type":"Polygon","coordinates":[[[120.58986933900007,16.375323616000056],[120.58895205800002,16.37582136400005],[120.58486853800002,16.375076571000022],[120.58200493800007,16.375339816000064],[120.57929543200011,16.37700275900005],[120.5785574240001,16.375340672000053],[120.5758806560001,16.375608430000057],[120.57560927500005,16.37316169900004],[120.57398250200002,16.369576352000024],[120.58047390700007,16.36885530000006],[120.58206051500008,16.36899241400004],[120.59818230600001,16.366759050000038],[120.59776415800003,16.368989175000024],[120.59824790300003,16.371180976000065],[120.599176499,16.372041729000046],[120.59873128200002,16.373483385000046],[120.59734898800002,16.373754756000036],[120.59555115900002,16.372877042000027],[120.59413918400003,16.37290248300008],[120.59337171400013,16.373894681000024],[120.59140003800006,16.374403501000074],[120.58986933900007,16.375323616000056]]]}},{"type":"Feature","properties":{"name":"Scout Barrio","psgc":"1430300105","label_position":{"lat":16.395303652000052,"lng":120.60943549164092}},"geometry":{"type":"Polygon","coordinates":[[[120.6115525680001,16.392880008000077],[120.6121813100001,16.39360244700003],[120.6118534840001,16.39522518700005],[120.61083060500005,16.396418644000047],[120.60839562900003,16.39768593000002],[120.60605280500012,16.397216518000047],[120.60671847100002,16.39613804200007],[120.60692421200008,16.395382117000054],[120.60826713300003,16.394725745000073],[120.61002181800008,16.393119355000067],[120.6115525680001,16.392880008000077]]]}},{"type":"Feature","properties":{"name":"Session Road Area","psgc":"1430300106","label_position":{"lat":16.40864329900006,"lng":120.59945025601502}},"geometry":{"type":"Polygon","coordinates":[[[120.59870216900003,16.411523035000073],[120.59714721500008,16.412104487000022],[120.59852568400004,16.411119451000047],[120.59711360600011,16.409491161000062],[120.59810381000011,16.407462299000034],[120.5997118580001,16.406113453000046],[120.60036334200005,16.406401455000037],[120.60077774600006,16.408151034000067],[120.60196845300004,16.409135564000053],[120.59870216900003,16.411523035000073]]]}},{"type":"Feature","properties":{"name":"Slaughter House Area","psgc":"1430300107","label_position":{"lat":16.42043260600005,"lng":120.59412200063142}},"geometry":{"type":"Polygon","coordinates":[[[120.5950248800001,16.42180664300002],[120.59402799100008,16.42191149000007],[120.5932292120001,16.421660812000024],[120.59306141500007,16.42029966400003],[120.59551742500003,16.41943075000006],[120.59561464400008,16.418981478000035],[120.59576622700001,16.41991880100005],[120.5950109460001,16.420565548000067],[120.5950248800001,16.42180664300002]]]}},{"type":"Feature","properties":{"name":"SLU-SVP Housing Village","psgc":"1430300156","label_position":{"lat":16.390381369500027,"lng":120.58986697677027}},"geometry":{"type":"Polygon","coordinates":[[[120.58997684700012,16.39263199000004],[120.58832280700007,16.39103428000004],[120.58857373,16.38972845900002],[120.59063711700004,16.388723715000026],[120.58996396600004,16.38769627300007],[120.59154374000002,16.386930368000037],[120.59296362300007,16.389083910000068],[120.59040526000001,16.39106215500004],[120.58997684700012,16.39263199000004]]]}},{"type":"Feature","properties":{"name":"South Drive","psgc":"1430300157","label_position":{"lat":16.407609937000046,"lng":120.6077199900657}},"geometry":{"type":"Polygon","coordinates":[[[120.61535347800009,16.412141890000044],[120.61271647900004,16.41208010100007],[120.61098934600012,16.41139203200003],[120.61051918200009,16.409489994000065],[120.60932161500011,16.40943186000004],[120.60686834500007,16.409943442000042],[120.60456540900009,16.40744108600006],[120.60435134800002,16.40619032500007],[120.60520360500004,16.406191468000028],[120.60609785000007,16.404786226000056],[120.60523692000004,16.403850522000027],[120.60566752100009,16.40330924300002],[120.60692969400009,16.40441887700007],[120.60665613700006,16.406170178000025],[120.61253569000007,16.408253628000068],[120.61505261600007,16.40777878800003],[120.61568680500011,16.40816795000006],[120.61535347800009,16.412141890000044]]]}},{"type":"Feature","properties":{"name":"Teodora Alonzo","psgc":"1430300111","label_position":{"lat":16.419450139500043,"lng":120.59648749504794}},"geometry":{"type":"Polygon","coordinates":[[[120.59765469900003,16.42030292900006],[120.5950248800001,16.42180664300002],[120.5950109460001,16.420565548000067],[120.59576622700001,16.41991880100005],[120.59561464400008,16.418981478000035],[120.59622587800004,16.41701101500007],[120.59765469900003,16.42030292900006]]]}},{"type":"Feature","properties":{"name":"Trancoville","psgc":"1430300112","label_position":{"lat":16.424465557500042,"lng":120.60004548458106}},"geometry":{"type":"Polygon","coordinates":[[[120.60187110500011,16.426596285000073],[120.59969712900012,16.426701438000062],[120.59795754000004,16.426749248000025],[120.5969646740001,16.425923016000066],[120.59501742500004,16.425982520000048],[120.59398228900011,16.425436849000054],[120.59629287700011,16.42551973600007],[120.5973919710001,16.425091724000023],[120.59877640500008,16.423839391000058],[120.59911804600006,16.422545445000026],[120.60011523300011,16.42166526000005],[120.60120165,16.422534489000043],[120.601669893,16.42287129500005],[120.60222120000003,16.42548025600007],[120.60233977400003,16.425800195000022],[120.60187110500011,16.426596285000073]]]}},{"type":"Feature","properties":{"name":"Victoria Village","psgc":"1430300115","label_position":{"lat":16.41394865850006,"lng":120.57614614853314}},"geometry":{"type":"Polygon","coordinates":[[[120.57831976900003,16.415198920000023],[120.57674229100006,16.41478026800007],[120.57580448500003,16.41514204300006],[120.57293563700013,16.41459823700006],[120.57412683100007,16.413182939000023],[120.57695462000005,16.413024659000033],[120.57906460800007,16.41329908000006],[120.57831976900003,16.415198920000023]]]}}]}
