{"type":"FeatureCollection","source":{"dataset":"geoBoundaries gbOpen PHL ADM3","commit":"9469f09","license":"CC BY 3.0 IGO","boundary_year":2020,"url":"https://media.githubusercontent.com/media/wmgeolab/geoBoundaries/9469f09/releaseData/gbOpen/PHL/ADM3/geoBoundaries-PHL-ADM3_simplified.geojson","upstream_sources":["NAMRIA","PSA","OCHA Philippines"],"reference":"https://ulap-nga.georisk.gov.ph/arcgis/rest/services/PSA/Municipal/MapServer/0","psgc_reference":"https://psa.gov.ph/classification/psgc/provinces/0200000000","notice":"Approximate planning/reference boundaries, not legal, cadastral, or survey-grade."},"features":[{"type":"Feature","properties":{"shapeName":"Basco","shapeISO":"","shapeID":"30758251B45522051354426","shapeGroup":"PHL","shapeType":"ADM3","psgc_code":"0200901000","legacy_psgc_code":"020901000","province":"Batanes"},"geometry":{"type":"Polygon","coordinates":[[[121.97060045,20.419051952000075],[121.97765592700011,20.423747137000078],[121.98115725100001,20.424191062000034],[121.98584208500006,20.42825108200003],[121.98654177100002,20.42969101400007],[121.98366380800007,20.432355983000036],[121.98638923300007,20.438121989000024],[122.00695790200007,20.447477268000057],[122.01389547400004,20.447962679000057],[122.02080862200012,20.452846332000036],[122.02278716600006,20.452791039000033],[122.029193684,20.460287898000047],[122.03520849300003,20.464514773000076],[122.0342541010001,20.471625894000056],[122.02765473700003,20.481202061000033],[122.02273698400006,20.484072106000042],[122.01143803600007,20.485954629000048],[122.00253716200007,20.48951308100004],[121.9753625190001,20.47142869000004],[121.9657763990001,20.469140871000036],[121.9619703940001,20.472205280000026],[121.96205641600011,20.47024044500006],[121.95745488000011,20.469834896000066],[121.95761590400002,20.464776202000053],[121.9601709000001,20.461227138000027],[121.95985105500006,20.455648861000043],[121.96105286400007,20.455274493000047],[121.95985163400007,20.45378602100004],[121.96756219300005,20.446716813000023],[121.96514660300011,20.443200922000074],[121.96186302800004,20.442366840000034],[121.961715389,20.440739698000073],[121.96354902400003,20.440348096000037],[121.96302599600006,20.438658129000032],[121.95590675200003,20.429735840000035],[121.95962592400008,20.426941243000044],[121.96619957300004,20.426343367000072],[121.97060045,20.419051952000075]]]}},{"type":"Feature","properties":{"shapeName":"Itbayat","shapeISO":"","shapeID":"30758251B11360025127524","shapeGroup":"PHL","shapeType":"ADM3","psgc_code":"0200902000","legacy_psgc_code":"020902000","province":"Batanes"},"geometry":{"type":"MultiPolygon","coordinates":[[[[121.94332865700005,20.700232493000044],[121.9418487260001,20.699247006000064],[121.94266430100004,20.698168464000048],[121.94332865700005,20.700232493000044]]],[[[121.93317627400006,20.712346409000077],[121.9251460160001,20.709288842000035],[121.92265022700008,20.70615538100003],[121.9212180190001,20.700228245000062],[121.92804857200008,20.697994016000052],[121.93516998500002,20.698292190000075],[121.93317627400006,20.712346409000077]]],[[[121.86002349600005,20.836194656000032],[121.849949906,20.832540805000065],[121.84233664400006,20.826469780000025],[121.83671041100001,20.825213034000058],[121.83444189000011,20.82076244800004],[121.83523220000006,20.816552779000062],[121.8334135450001,20.811940349000054],[121.83465631000001,20.80536230100006],[121.82809203400006,20.788713081000026],[121.82222243300009,20.78514185100005],[121.82191043900002,20.782358690000024],[121.81702201000007,20.77778584300006],[121.81579344700003,20.772755284000027],[121.81684767800004,20.769223846000045],[121.81416342700004,20.763156774000038],[121.81519332800008,20.760229091000042],[121.81226659100003,20.75892990600005],[121.81140998500007,20.75578901700004],[121.80634872000007,20.757290348000026],[121.80329394500006,20.75481084300003],[121.80123879500002,20.754983823000032],[121.80046145500012,20.752753882000036],[121.7976938920001,20.751386917000048],[121.79282840100007,20.744424233000075],[121.79341589700005,20.74150594200006],[121.79212051400009,20.74161930300005],[121.78874160900011,20.735726745000022],[121.78794488800008,20.728248832000077],[121.78272710300007,20.72158550100005],[121.78296919600007,20.716547011000046],[121.78963391700006,20.70795881600003],[121.78981504700005,20.703454240000042],[121.79141080400007,20.703235796000058],[121.79362018100005,20.699117784000066],[121.79677968200008,20.699175340000068],[121.79750446500009,20.69635589300003],[121.800059067,20.69505345400006],[121.79957186400009,20.68873165100007],[121.810532856,20.689605262000043],[121.8154114990001,20.69405478400006],[121.82297063900012,20.697644858000046],[121.82656134500007,20.70362102200005],[121.82777290400008,20.703167423000025],[121.8271045670001,20.70457165700003],[121.82874036500004,20.706964411000058],[121.83359927700008,20.706269424000027],[121.83590598700005,20.708452903000023],[121.83835621000003,20.708148582000035],[121.84264587300004,20.71060618000007],[121.84425388600005,20.713888234000024],[121.846200801,20.713566566000054],[121.85356629500006,20.723000108000065],[121.85305423900002,20.72599116600003],[121.85659779100001,20.730787531000033],[121.85538524100002,20.73170809800007],[121.85664280600008,20.731727945000046],[121.85572140200009,20.732809038000028],[121.8569917210001,20.73277424400004],[121.85724281000012,20.735912747000043],[121.85610314700011,20.736141435000036],[121.8571876090001,20.736656717000074],[121.85484736700005,20.738299046000066],[121.8584216050001,20.740247157000056],[121.85543410000002,20.745752036000056],[121.85665217100006,20.75136337400005],[121.86453399200002,20.754216846000077],[121.86779777000004,20.753883807000022],[121.8712966280001,20.75571979600005],[121.8714277790001,20.75720358600006],[121.8740670090001,20.757024511000054],[121.87476576300003,20.75997379200004],[121.87649312200006,20.758629082000027],[121.87768909200008,20.762606568000024],[121.87648633600008,20.766683448000038],[121.87159851400008,20.768262795000055],[121.87181914000007,20.77053598300006],[121.87397220200012,20.77166657500004],[121.87219444700008,20.773644537000052],[121.87336554600006,20.777204288000064],[121.86920607000002,20.779732976000048],[121.86774201800006,20.782640688000072],[121.87063812200006,20.784916254000052],[121.87026501800005,20.786817760000076],[121.87268247000009,20.788844651000034],[121.8729529630001,20.791763219000075],[121.8814912260001,20.79523877400004],[121.87971379500004,20.796516085000064],[121.87985648100005,20.798357200000055],[121.882914206,20.80001966100008],[121.88310765000006,20.803874379000035],[121.88170545500009,20.804995467000026],[121.88341141,20.806637843000033],[121.88208599600011,20.809697663000065],[121.88317951400006,20.80968682400004],[121.88017197700003,20.811987588000022],[121.88104960900012,20.81420278400003],[121.87878848500009,20.817383865000068],[121.88022255300007,20.81994086000003],[121.87516742900004,20.82320793300005],[121.875940764,20.824691045000066],[121.87185159800003,20.827167737000025],[121.87081455500004,20.830190001000062],[121.86531890000003,20.833649967000042],[121.86555306900004,20.834932669000068],[121.8634591760001,20.833220378000078],[121.86002349600005,20.836194656000032]]],[[[121.90139605400009,20.90902865000004],[121.89848914900006,20.90516830400003],[121.89987926000003,20.902828338000063],[121.89856120200011,20.900771588000055],[121.9010018460001,20.898819615000036],[121.9033948440001,20.89885080700003],[121.90481404700006,20.90059126600005],[121.90650677700012,20.90031625000006],[121.9064490070001,20.904412491000073],[121.9078453190001,20.905164210000066],[121.90139605400009,20.90902865000004]]],[[[121.92018209200012,20.93557757600007],[121.9142202380001,20.93343092200007],[121.91356943700009,20.93020542100004],[121.9265957340001,20.926092061000077],[121.9300135740001,20.922163096000077],[121.93202777800002,20.92179906000007],[121.9303341320001,20.926201693000053],[121.92671866600006,20.92696069400006],[121.92018209200012,20.93557757600007]]],[[[121.93465625500005,21.06959503300004],[121.92800343100009,21.065834451000057],[121.92761921100009,21.06197194300006],[121.93305616100008,21.06135387200004],[121.93543371400006,21.062492105000047],[121.9361149340001,21.06824620200007],[121.93465625500005,21.06959503300004]]],[[[121.94566696200002,21.121755276000044],[121.9470012050001,21.117544132000035],[121.94645547700009,21.110459431000038],[121.9488878410001,21.102982182000062],[121.95186774700005,21.103995703000066],[121.95530868300011,21.107960024000022],[121.95561915600001,21.113598353000043],[121.95199979200004,21.117450983000026],[121.95222034300002,21.119063408000045],[121.94566696200002,21.121755276000044]]]]}},{"type":"Feature","properties":{"shapeName":"Ivana","shapeISO":"","shapeID":"30758251B76768461289658","shapeGroup":"PHL","shapeType":"ADM3","psgc_code":"0200903000","legacy_psgc_code":"020903000","province":"Batanes"},"geometry":{"type":"Polygon","coordinates":[[[121.93754867000007,20.411844254000073],[121.93157002300006,20.406337480000047],[121.92711477500006,20.409391651000078],[121.92579830000011,20.408382251000035],[121.92686170400009,20.404976310000052],[121.92474637900011,20.392972409000038],[121.91929722700002,20.383201761000066],[121.920522505,20.379833516000076],[121.91309415500007,20.370468653000046],[121.9155326770001,20.361383768000053],[121.91480409200005,20.347588194000025],[121.91923504500005,20.35007885400006],[121.93074626500004,20.349320953000074],[121.93378035900002,20.363254796000035],[121.94581421900011,20.381078153000033],[121.9553208420001,20.389996429000064],[121.94380550200003,20.395004964000066],[121.93754867000007,20.411844254000073]]]}},{"type":"Feature","properties":{"shapeName":"Mahatao","shapeISO":"","shapeID":"30758251B69383770374215","shapeGroup":"PHL","shapeType":"ADM3","psgc_code":"0200904000","legacy_psgc_code":"020904000","province":"Batanes"},"geometry":{"type":"Polygon","coordinates":[[[121.95590675200003,20.429735840000035],[121.94900724400009,20.427566557000034],[121.94860196000002,20.424509562000026],[121.94685554500006,20.42316584300005],[121.9465733290001,20.420666796000035],[121.94803400800004,20.421687835000057],[121.94596002700007,20.419459634000077],[121.94620058300006,20.416042232000052],[121.93754867000007,20.411844254000073],[121.94380550200003,20.395004964000066],[121.9553208420001,20.389996429000064],[121.9778947960001,20.38043993200006],[121.98066703400002,20.382562949000032],[121.97797160400012,20.39020141900005],[121.98044554900002,20.39200452800003],[121.97716544000002,20.391980560000036],[121.97590915100011,20.396294992000037],[121.96940323800004,20.395440907000022],[121.96470916900012,20.398960337000062],[121.9615222110001,20.403902397000024],[121.96239566600002,20.41258308700003],[121.96474360900004,20.413443785000027],[121.96697403600001,20.41200004800004],[121.96734488800007,20.41614471200006],[121.97060045,20.419051952000075],[121.96619957300004,20.426343367000072],[121.95962592400008,20.426941243000044],[121.95590675200003,20.429735840000035]]]}},{"type":"Feature","properties":{"shapeName":"Sabtang","shapeISO":"","shapeID":"30758251B59177504805395","shapeGroup":"PHL","shapeType":"ADM3","psgc_code":"0200905000","legacy_psgc_code":"020905000","province":"Batanes"},"geometry":{"type":"MultiPolygon","coordinates":[[[[121.80941423100012,20.336653299000034],[121.80006748200003,20.334199613000067],[121.80078496100009,20.319909332000066],[121.79990252400012,20.31559768900007],[121.79814524900007,20.314279894000038],[121.79981681100003,20.311563385000056],[121.79855419000012,20.308395397000027],[121.80658754800004,20.300858214000073],[121.80672786000002,20.29904337100004],[121.81129235100002,20.301169291000065],[121.8116952690001,20.307728647000033],[121.81691921900006,20.313783197000078],[121.81960547100005,20.325700495000035],[121.81505828800005,20.33323353700007],[121.80941423100012,20.336653299000034]]],[[[121.78282914200008,20.338509002000023],[121.78089545400007,20.338392017000047],[121.7801667650001,20.336515199000075],[121.7774068760001,20.33675326100007],[121.77920597600007,20.333519076000073],[121.785782089,20.330090231000042],[121.78666514400004,20.328157774000033],[121.78966128900004,20.32878228800007],[121.7911489390001,20.332596413000033],[121.78282914200008,20.338509002000023]]],[[[121.84473327,20.355984787000068],[121.84217602500007,20.351699266000026],[121.84337191100008,20.35042050100003],[121.84305721900012,20.34510407600004],[121.83793309500004,20.32462182000006],[121.84184789800008,20.305171578000056],[121.84154243600005,20.298834155000065],[121.84558496800003,20.296386107000046],[121.84718245400006,20.292780841000024],[121.84609890600007,20.289785873000028],[121.84050524700001,20.28722706600007],[121.84225305700011,20.28489888400003],[121.84198050500004,20.281647133000035],[121.84408594100012,20.281409133000068],[121.84358318800003,20.280216019000022],[121.84940339200011,20.27245673400006],[121.84840054000006,20.27127732200006],[121.8508671400001,20.269997467000053],[121.85015289000012,20.268535886000052],[121.85147369700007,20.26899469700004],[121.85114813100006,20.26733143200005],[121.85453839200011,20.265490339000053],[121.85595684200007,20.26197872000006],[121.86107236400005,20.260324749000063],[121.86328818700008,20.260741464000034],[121.86445320200005,20.262775051000062],[121.86596702000008,20.262242185000048],[121.8661338280001,20.264023965000035],[121.86374126300007,20.26543579300005],[121.86102096500008,20.271629543000074],[121.86820670600002,20.280012922000026],[121.8705173410001,20.280426920000025],[121.86930790100007,20.28099263300004],[121.87004931500007,20.282709160000024],[121.87432149400001,20.28458309800004],[121.88227108700005,20.28533161300004],[121.88317750300007,20.28435745200005],[121.88419988400005,20.288186347000078],[121.8864097500001,20.288023629000065],[121.88585441200007,20.29250479700005],[121.88785216500003,20.294689853000023],[121.88631527300004,20.29597846100006],[121.88917533600011,20.302463769000042],[121.88928427200005,20.31316702500004],[121.88075824500004,20.324117408000063],[121.87722209600008,20.332263768000075],[121.87270176400011,20.33519053300006],[121.87224871600006,20.339697126000033],[121.86937953800009,20.341374462000033],[121.86764243900006,20.340004598000064],[121.86420545500005,20.341112534000047],[121.86069741800009,20.344984759000056],[121.85858929400001,20.34488016100005],[121.85368908200007,20.348526121000077],[121.85329480000007,20.35078820900003],[121.85157445700008,20.350430542000026],[121.84473327,20.355984787000068]]]]}},{"type":"Feature","properties":{"shapeName":"Uyugan","shapeISO":"","shapeID":"30758251B6116437750205","shapeGroup":"PHL","shapeType":"ADM3","psgc_code":"0200906000","legacy_psgc_code":"020906000","province":"Batanes"},"geometry":{"type":"Polygon","coordinates":[[[121.93074626500004,20.349320953000074],[121.94144154800006,20.348738755000056],[121.94434801700004,20.346825323000076],[121.95068714400009,20.348633148000033],[121.950201407,20.349801444000036],[121.95333770700006,20.352088898000034],[121.954971784,20.359285964000037],[121.95946331300001,20.36543398400005],[121.9650492180001,20.367325423000068],[121.97178541700009,20.366555430000062],[121.97040354900003,20.368933630000072],[121.97022285800006,20.376807932000077],[121.97203852900009,20.37831782300003],[121.97506466100003,20.377838277000023],[121.9778947960001,20.38043993200006],[121.9553208420001,20.389996429000064],[121.94581421900011,20.381078153000033],[121.93378035900002,20.363254796000035],[121.93074626500004,20.349320953000074]]]}}]}
