{"type":"FeatureCollection","source":{"dataset":"geoBoundaries gbOpen PHL ADM3","commit":"9469f09","license":"CC BY 3.0 IGO","boundary_year":2020,"url":"https://media.githubusercontent.com/media/wmgeolab/geoBoundaries/9469f09/releaseData/gbOpen/PHL/ADM3/geoBoundaries-PHL-ADM3_simplified.geojson","upstream_sources":["NAMRIA","PSA","OCHA Philippines"],"reference":"https://ulap-nga.georisk.gov.ph/arcgis/rest/services/PSA/Municipal/MapServer/0","psgc_reference":"https://psa.gov.ph/classification/psgc/citimuni/0300000000","notice":"Approximate planning/reference boundaries, not legal, cadastral, or survey-grade."},"features":[{"type":"Feature","properties":{"shapeName":"Abucay","shapeISO":"","shapeID":"30758251B46343582936162","shapeGroup":"PHL","shapeType":"ADM3","psgc_code":"0300801000","legacy_psgc_code":"030801000","province":"Bataan"},"geometry":{"type":"Polygon","coordinates":[[[120.54912983600002,14.74075461700005],[120.52773953100007,14.75230725700004],[120.52137943600007,14.753423282000028],[120.519016039,14.756447996000077],[120.51156125900002,14.755945250000025],[120.50954576000004,14.757131840000056],[120.50481280800011,14.755700489000048],[120.49890548200005,14.755981822000024],[120.498200773,14.75792479200004],[120.49477285300009,14.75452815500006],[120.49051775700002,14.753542218000064],[120.4908118080001,14.75494328600007],[120.48952317200008,14.753836269000033],[120.48768967500007,14.754822206000028],[120.48659130700003,14.75289357500003],[120.48317512200003,14.752106555000069],[120.482773285,14.748598925000067],[120.47731969000006,14.746542438000063],[120.47631747800006,14.744225636000067],[120.45908463900003,14.742156134000027],[120.45327961900011,14.743548818000022],[120.4446892310001,14.74112789000003],[120.44230101000005,14.73778459700003],[120.43958687200006,14.738249179000036],[120.43463095400011,14.73169279900003],[120.42999931200006,14.730707682000059],[120.41789869700006,14.716646318000073],[120.40032200400003,14.711798445000056],[120.4029901020001,14.710316168000077],[120.40956802700009,14.700078456000028],[120.42691113400008,14.701163413000074],[120.44789814,14.699650836000046],[120.46746463600005,14.695439706000059],[120.47165644400002,14.69140847600005],[120.47392991400011,14.691038630000037],[120.47858563200009,14.693845114000055],[120.48073437000005,14.692733978000035],[120.4828349170001,14.694444260000068],[120.4909711890001,14.692697770000052],[120.4949495940001,14.694040560000076],[120.49574277700003,14.692223110000043],[120.49943232600003,14.69129877100005],[120.50440980700012,14.693585265000024],[120.50594762700007,14.692176248000067],[120.50892638700009,14.693742802000031],[120.50986166500002,14.695909244000063],[120.5160168860001,14.698281289000022],[120.51805128700005,14.697255227000028],[120.53242200500006,14.698504182000022],[120.53556124400006,14.702367754000022],[120.5409424500001,14.70198186500005],[120.54209303700009,14.699928510000063],[120.55219625900008,14.705209836000051],[120.55337887000007,14.706046136000055],[120.54888535000009,14.714193696000052],[120.54861536500005,14.720482387000061],[120.54535757000008,14.720876807000025],[120.55076088100009,14.721163371000046],[120.54781840700002,14.722738648000075],[120.54658337400008,14.726362146000042],[120.54912983600002,14.74075461700005]]]}},{"type":"Feature","properties":{"shapeName":"Bagac","shapeISO":"","shapeID":"30758251B72127248939453","shapeGroup":"PHL","shapeType":"ADM3","psgc_code":"0300802000","legacy_psgc_code":"030802000","province":"Bataan"},"geometry":{"type":"Polygon","coordinates":[[[120.40032200400003,14.711798445000056],[120.39809858800004,14.710612623000031],[120.37882075200002,14.67976262600007],[120.36843878200011,14.667407706000063],[120.36015118300008,14.648928600000033],[120.34973568700002,14.638625099000024],[120.34635076100005,14.631868223000026],[120.34530850700003,14.628342815000053],[120.34796305200007,14.626570336000043],[120.34851528900003,14.619530154000074],[120.35296118400004,14.620995315000073],[120.35623611400001,14.62454666900004],[120.35883351700011,14.620490001000064],[120.35964194900009,14.623608151000042],[120.36300631300003,14.624004357000047],[120.36580894300005,14.626484614000049],[120.36803668300001,14.625765517000048],[120.3682574400001,14.619252974000062],[120.37087433600004,14.619334267000056],[120.37621575800006,14.614312479000034],[120.38827769200009,14.59369606000007],[120.3892618430001,14.589453712000022],[120.39330920900011,14.586576028000025],[120.39251740800012,14.582458425000027],[120.39442048700005,14.580148124000061],[120.39396640000007,14.578248251000048],[120.38983522500007,14.573864547000028],[120.38450804000001,14.573917684000037],[120.38291084200011,14.568660504000036],[120.38560662500004,14.563935849000075],[120.38823087000003,14.56424746600004],[120.39077752800006,14.561710007000045],[120.3903859610001,14.55425014900004],[120.38816400300004,14.551455025000053],[120.38520528700008,14.552007980000042],[120.3809418830001,14.548768513000027],[120.38998539900001,14.54557681600005],[120.39037835900001,14.54344481000004],[120.38880727700007,14.542483],[120.38964505500007,14.541135387000054],[120.38843050800006,14.540735010000049],[120.3898673970001,14.539900816000056],[120.38993739000011,14.537608445000046],[120.38672229200006,14.533578765000073],[120.38082532700003,14.53454079900007],[120.38108823900006,14.532389887000022],[120.37473747600006,14.524744715000054],[120.3751522440001,14.521876105000047],[120.38111695700002,14.516688330000022],[120.38147086000004,14.511062705000029],[120.378810326,14.508683838000024],[120.3794992490001,14.503113147000022],[120.3769738950001,14.498295476000067],[120.38035974000002,14.497584327000027],[120.38106802200002,14.495455544000038],[120.38347243500004,14.495725236000055],[120.38321028500002,14.491773461000037],[120.38773991100004,14.490550983000048],[120.38871733000008,14.487703130000057],[120.38456153000004,14.484568464000063],[120.38651135100008,14.484451142000069],[120.39004267000007,14.480189849000055],[120.38804696500006,14.477293434000046],[120.38140198300005,14.47536640900006],[120.38536982500011,14.469619015000035],[120.39330468800006,14.47011599700005],[120.39369139700011,14.467945604000022],[120.39182957300011,14.465158013000064],[120.46217613400006,14.528758865000043],[120.47632616600004,14.539141382000025],[120.47678739900005,14.541933710000023],[120.48053410000011,14.546794445000046],[120.47966942500011,14.550944887000071],[120.47685058200011,14.556081060000054],[120.4770581040001,14.558450271000027],[120.47161064900001,14.561061591000055],[120.47225050800012,14.561822505000066],[120.465056408,14.569068486000049],[120.46495264700002,14.576954327000067],[120.4616841730001,14.581502520000072],[120.46170871600009,14.58909770200006],[120.4634762710001,14.593271095000034],[120.46259931300006,14.599975800000038],[120.46406136400003,14.603641839000034],[120.46578336800007,14.604864855000073],[120.4623620210001,14.606428106000067],[120.45999225600008,14.615568255000028],[120.45727091100002,14.61798144200003],[120.45973243100002,14.627633548000063],[120.46130337800003,14.629270677000022],[120.46250161800003,14.627859959000034],[120.46377997200011,14.62994991100004],[120.45994848500004,14.633972138000047],[120.44917417700003,14.636218610000071],[120.44702989900009,14.640394309000044],[120.44585296500009,14.639999311000054],[120.40956802700009,14.700078456000028],[120.4029901020001,14.710316168000077],[120.40032200400003,14.711798445000056]]]}},{"type":"Feature","properties":{"shapeName":"City of Balanga","shapeISO":"","shapeID":"30758251B46674947380799","shapeGroup":"PHL","shapeType":"ADM3","psgc_code":"0300803000","legacy_psgc_code":"030803000","province":"Bataan"},"geometry":{"type":"Polygon","coordinates":[[[120.40956802700009,14.700078456000028],[120.44585296500009,14.639999311000054],[120.44702989900009,14.640394309000044],[120.44917417700003,14.636218610000071],[120.45994848500004,14.633972138000047],[120.46377997200011,14.62994991100004],[120.46250161800003,14.627859959000034],[120.46130337800003,14.629270677000022],[120.45973243100002,14.627633548000063],[120.45727091100002,14.61798144200003],[120.45999225600008,14.615568255000028],[120.4623620210001,14.606428106000067],[120.46578336800007,14.604864855000073],[120.46406136400003,14.603641839000034],[120.46904436400007,14.601599101000033],[120.47351005700011,14.606737219000024],[120.47202251100009,14.616727733000062],[120.47349120100012,14.618849922000038],[120.47313671200004,14.62618519800003],[120.47919810100007,14.636390127000027],[120.48359072300002,14.638364721000073],[120.48504453300006,14.63699478500007],[120.48958689800008,14.639677902000074],[120.49729901,14.639992411000037],[120.50174600700007,14.63714303200004],[120.50583753300009,14.636636615000043],[120.50660921600002,14.634096492000026],[120.51254152700005,14.638075482000033],[120.51579865200006,14.635566994000044],[120.52059520900002,14.635470779000059],[120.53028202900009,14.638869339000053],[120.53232504700009,14.643156500000032],[120.53431513600003,14.643939833000047],[120.53522549600007,14.642965959000037],[120.53622054100003,14.644500869000069],[120.53666513500002,14.648311678000027],[120.5346115320001,14.650968659000057],[120.53769193700009,14.653054019000024],[120.53659905300003,14.65917521800003],[120.53821394600004,14.66086109500003],[120.5470337480001,14.662511481000024],[120.54919877000009,14.66609618900003],[120.54911004000007,14.668846831000053],[120.54394593000006,14.676087232000043],[120.548673043,14.680075664000071],[120.55035777600006,14.685860415000036],[120.55676810300008,14.686676887000033],[120.55912062900006,14.688977959000056],[120.56714747700005,14.694488786000022],[120.56400177600005,14.696725271000048],[120.56268425000007,14.700590778000048],[120.55956667800001,14.694150788000059],[120.56210444700002,14.701578856000026],[120.55837291600005,14.701135426000064],[120.55668753000009,14.703238645000056],[120.55641979000006,14.701729259000047],[120.55219625900008,14.705209836000051],[120.54209303700009,14.699928510000063],[120.5409424500001,14.70198186500005],[120.53556124400006,14.702367754000022],[120.53242200500006,14.698504182000022],[120.51805128700005,14.697255227000028],[120.5160168860001,14.698281289000022],[120.50986166500002,14.695909244000063],[120.50892638700009,14.693742802000031],[120.50594762700007,14.692176248000067],[120.50440980700012,14.693585265000024],[120.49943232600003,14.69129877100005],[120.49574277700003,14.692223110000043],[120.4949495940001,14.694040560000076],[120.4909711890001,14.692697770000052],[120.4828349170001,14.694444260000068],[120.48073437000005,14.692733978000035],[120.47858563200009,14.693845114000055],[120.47392991400011,14.691038630000037],[120.47165644400002,14.69140847600005],[120.46746463600005,14.695439706000059],[120.44789814,14.699650836000046],[120.42691113400008,14.701163413000074],[120.40956802700009,14.700078456000028]]]}},{"type":"Feature","properties":{"shapeName":"Dinalupihan","shapeISO":"","shapeID":"30758251B87193060903149","shapeGroup":"PHL","shapeType":"ADM3","psgc_code":"0300804000","legacy_psgc_code":"030804000","province":"Bataan"},"geometry":{"type":"Polygon","coordinates":[[[120.47934569400002,14.890787504000059],[120.47937885400006,14.89609994600005],[120.48653124400005,14.90433949900006],[120.48638751100009,14.908958146000032],[120.4838347650001,14.913516805000029],[120.47357078700009,14.920860990000051],[120.4673985500001,14.922759493000058],[120.46126986800004,14.921266418000073],[120.46302714300009,14.917770368000049],[120.45540784600007,14.919217907000075],[120.45260200400003,14.917580469000029],[120.44646870500003,14.91852271700003],[120.44389110700001,14.920270428000038],[120.43360639200012,14.912103191000028],[120.42658594200009,14.915052610000032],[120.42280570000003,14.914471035000076],[120.41366665300006,14.904916577000051],[120.41186574900007,14.900298614000064],[120.40797872000007,14.89978486800004],[120.40603959000009,14.89043229500004],[120.40774005800006,14.888552831000027],[120.40665743800002,14.88570509300007],[120.39973272300006,14.884227821000025],[120.38866433900012,14.87536287200004],[120.3816082400001,14.872383910000053],[120.37718078500006,14.873312132000024],[120.37166500100011,14.872229120000043],[120.34618065900008,14.860527562000073],[120.3445825550001,14.86074308600007],[120.33957911200002,14.854293436000034],[120.34341963500003,14.851802405000058],[120.339448403,14.84953181700007],[120.33981070700008,14.847071166000035],[120.33743560100004,14.846588094000026],[120.33630120900011,14.842825056000038],[120.3390555960001,14.841486584000052],[120.34112714500009,14.841699027000061],[120.34181418600008,14.844098963000022],[120.34441113200012,14.845739346000073],[120.34834878600009,14.845991176000041],[120.34984829300004,14.844271849000052],[120.35878946100001,14.842346397000028],[120.36206109900002,14.846101628000042],[120.36509184700003,14.846115342000076],[120.36689779200003,14.850230718000034],[120.36966931900008,14.850645946000043],[120.37119015700011,14.853187347000073],[120.37291896500005,14.850712765000026],[120.38093893300004,14.85206097300005],[120.3825861360001,14.849521593000077],[120.38643021300004,14.849471963000042],[120.38660166200009,14.845830918000047],[120.388262015,14.84473003200003],[120.39121726200005,14.848289864000037],[120.40409881000005,14.845251473000076],[120.40634211600002,14.843403677000026],[120.41136046000008,14.844563984000047],[120.4138046700001,14.846664907000047],[120.41544558700002,14.844412938000062],[120.41793099200004,14.845312352000064],[120.42182387700007,14.84426189100003],[120.42572725100001,14.846299397000053],[120.42849070700004,14.844735074000027],[120.42740331100003,14.843371743000034],[120.42823725400001,14.842456041000048],[120.43076633300007,14.848141020000071],[120.43266314300001,14.847873940000056],[120.43306103700002,14.853444456000034],[120.435693678,14.856289670000024],[120.43768859800002,14.855254056000035],[120.44133505100001,14.859183940000037],[120.4456867240001,14.855542006000064],[120.44537917700006,14.851070684000035],[120.45168916800003,14.85068910700005],[120.45338300100002,14.851489489000073],[120.4577418240001,14.861949459000073],[120.46068383400006,14.859325304000038],[120.46235431600007,14.860822282000072],[120.46482281200008,14.860119992000023],[120.46692968200011,14.862263548000044],[120.47155221600008,14.85383082900006],[120.48224717800008,14.849807665000071],[120.48731934200009,14.845840575000068],[120.48665660800009,14.84355903200003],[120.49076338500004,14.841612737000048],[120.4936130420001,14.84465272400007],[120.49074895600006,14.851461137000058],[120.48142159200006,14.857738520000055],[120.48009294300005,14.861316976000069],[120.47672813600002,14.86108752900003],[120.47540706000007,14.86381080700005],[120.4768231060001,14.868354091000072],[120.47319937500004,14.872606002000055],[120.47491606300002,14.878431613000032],[120.47361265200004,14.88176167000006],[120.47524191600007,14.884765873000049],[120.47501938200003,14.889168859000051],[120.47934569400002,14.890787504000059]]]}},{"type":"Feature","properties":{"shapeName":"Hermosa","shapeISO":"","shapeID":"30758251B15732618156338","shapeGroup":"PHL","shapeType":"ADM3","psgc_code":"0300805000","legacy_psgc_code":"030805000","province":"Bataan"},"geometry":{"type":"Polygon","coordinates":[[[120.3390555960001,14.841486584000052],[120.33925053200005,14.836686803000077],[120.34273443300003,14.834179996000046],[120.34170311800005,14.832349371000078],[120.34424776300011,14.829856962000065],[120.34312543900012,14.827158448000034],[120.345824622,14.825631533000035],[120.34463300900006,14.824102039000024],[120.3460683610001,14.822194684000067],[120.3435656800001,14.820492401000024],[120.34483813700001,14.816957798000033],[120.33833218900008,14.817343184000038],[120.33947124300005,14.812756183000033],[120.341456891,14.813171784000076],[120.34228809300009,14.805675577000045],[120.34134914300012,14.80509065700005],[120.34635313800004,14.804289126000072],[120.35157298000001,14.807087202000048],[120.35314953900001,14.805819454000073],[120.35536719600009,14.800166555000033],[120.35409583600006,14.799054115000047],[120.3554033150001,14.798216173000071],[120.35377077200008,14.797284324000032],[120.35649408400002,14.79727710000003],[120.36257157200009,14.790855687000033],[120.36058266300006,14.777602718000026],[120.36655831300004,14.777086332000067],[120.36947279600008,14.770030216000066],[120.3774492760001,14.758218890000023],[120.381437516,14.744873626000071],[120.38343163600007,14.742572718000076],[120.3864995130001,14.741959143000031],[120.3956147130001,14.744547584000031],[120.40178781600002,14.751275501000066],[120.40469580600006,14.751154335000024],[120.41198447600004,14.757259735000048],[120.4160296450001,14.756856562000053],[120.41675535600007,14.760041628000067],[120.42006137400006,14.76219188400006],[120.42776197800004,14.76029697100006],[120.4301003810001,14.761761833000037],[120.43258661400012,14.770349417000034],[120.43569104500011,14.77217713400006],[120.43480499400005,14.773938893000036],[120.43593088500006,14.77692257700005],[120.43790227400007,14.776456691000021],[120.43779443000005,14.779247694000048],[120.44249211400006,14.786154023000051],[120.44070231300009,14.788403154000036],[120.4438308440001,14.791594084000053],[120.44446190600002,14.795839415000046],[120.4470578690001,14.797517468000024],[120.44813354400003,14.800285538000026],[120.45039963200009,14.801920564000056],[120.45137491100002,14.800945286000058],[120.45404258500002,14.806266291000043],[120.4722909300001,14.805322545000024],[120.48265945000003,14.807079256000065],[120.48570172200004,14.809432555000058],[120.48869681400004,14.80830435200005],[120.48829522800008,14.812029736000056],[120.49295567100012,14.812617936000038],[120.49372913000002,14.81512357500003],[120.5032240600001,14.811859022000021],[120.50825462300008,14.819710160000056],[120.52003024200008,14.823392829000056],[120.52996468200001,14.832459915000072],[120.5248654620001,14.840197249000028],[120.52457314100002,14.847515500000043],[120.5180731580001,14.859971469000072],[120.51209896000012,14.863432470000078],[120.50599482200005,14.861656435000043],[120.49762585500002,14.872238],[120.49489526600007,14.879275215000064],[120.4905360360001,14.88003258200007],[120.49307808600008,14.885877124000046],[120.49085503200001,14.88988196200006],[120.47934569400002,14.890787504000059],[120.47501938200003,14.889168859000051],[120.47524191600007,14.884765873000049],[120.47361265200004,14.88176167000006],[120.47491606300002,14.878431613000032],[120.47319937500004,14.872606002000055],[120.4768231060001,14.868354091000072],[120.47540706000007,14.86381080700005],[120.47672813600002,14.86108752900003],[120.48009294300005,14.861316976000069],[120.48142159200006,14.857738520000055],[120.49074895600006,14.851461137000058],[120.4936130420001,14.84465272400007],[120.49076338500004,14.841612737000048],[120.48665660800009,14.84355903200003],[120.48731934200009,14.845840575000068],[120.48224717800008,14.849807665000071],[120.47155221600008,14.85383082900006],[120.46692968200011,14.862263548000044],[120.46482281200008,14.860119992000023],[120.46235431600007,14.860822282000072],[120.46068383400006,14.859325304000038],[120.4577418240001,14.861949459000073],[120.45338300100002,14.851489489000073],[120.45168916800003,14.85068910700005],[120.44537917700006,14.851070684000035],[120.4456867240001,14.855542006000064],[120.44133505100001,14.859183940000037],[120.43768859800002,14.855254056000035],[120.435693678,14.856289670000024],[120.43306103700002,14.853444456000034],[120.43266314300001,14.847873940000056],[120.43076633300007,14.848141020000071],[120.42823725400001,14.842456041000048],[120.42740331100003,14.843371743000034],[120.42849070700004,14.844735074000027],[120.42572725100001,14.846299397000053],[120.42182387700007,14.84426189100003],[120.41793099200004,14.845312352000064],[120.41544558700002,14.844412938000062],[120.4138046700001,14.846664907000047],[120.41136046000008,14.844563984000047],[120.40634211600002,14.843403677000026],[120.40409881000005,14.845251473000076],[120.39121726200005,14.848289864000037],[120.388262015,14.84473003200003],[120.38660166200009,14.845830918000047],[120.38643021300004,14.849471963000042],[120.3825861360001,14.849521593000077],[120.38093893300004,14.85206097300005],[120.37291896500005,14.850712765000026],[120.37119015700011,14.853187347000073],[120.36966931900008,14.850645946000043],[120.36689779200003,14.850230718000034],[120.36509184700003,14.846115342000076],[120.36206109900002,14.846101628000042],[120.35878946100001,14.842346397000028],[120.34984829300004,14.844271849000052],[120.34834878600009,14.845991176000041],[120.34441113200012,14.845739346000073],[120.34181418600008,14.844098963000022],[120.34112714500009,14.841699027000061],[120.3390555960001,14.841486584000052]]]}},{"type":"Feature","properties":{"shapeName":"Limay","shapeISO":"","shapeID":"30758251B34995051512109","shapeGroup":"PHL","shapeType":"ADM3","psgc_code":"0300806000","legacy_psgc_code":"030806000","province":"Bataan"},"geometry":{"type":"Polygon","coordinates":[[[120.61101563700004,14.511469778000048],[120.61016065400008,14.513605304000066],[120.6120849880001,14.514314176000028],[120.60978626200006,14.514646077000066],[120.60861595500012,14.519889571000022],[120.60996832700005,14.521736033000025],[120.61482259500008,14.522150166000074],[120.609236527,14.521921380000038],[120.60794659700002,14.527795380000043],[120.6059341450001,14.529472816000066],[120.60819969500005,14.53137158800007],[120.60842371700005,14.533553079000058],[120.61284479900007,14.533648933000052],[120.60579176700003,14.534186144000046],[120.60085434400003,14.538639577000026],[120.6007535870001,14.540904363000038],[120.60348645500005,14.544774420000067],[120.60097998000003,14.545407300000022],[120.5992013660001,14.54862573400004],[120.59899145300005,14.555809981000039],[120.60050871800001,14.559861384000044],[120.59483733900004,14.570799202000046],[120.59267934900004,14.581285602000037],[120.56584382000005,14.575284762000024],[120.56268864000003,14.567892267000047],[120.55769598000006,14.56710933000005],[120.55872481300003,14.565727373000072],[120.55743912500009,14.56425777800007],[120.55102601500005,14.562329097000031],[120.551371474,14.55863041400005],[120.52991764100011,14.552746158000048],[120.52280077300009,14.548096947000033],[120.5172574830001,14.541802632000042],[120.47632616600004,14.539141382000025],[120.52990372200009,14.520405466000057],[120.53270888700001,14.516383033000068],[120.535668482,14.516085075000035],[120.53731895900012,14.512447933000033],[120.5455403850001,14.511683985000047],[120.54602892800006,14.51052728600007],[120.55370101000005,14.511509707000073],[120.5559225940001,14.51114197000004],[120.55638510800009,14.50964069500003],[120.5584171370001,14.510224524000023],[120.56130444700011,14.504748130000053],[120.563854934,14.505088640000054],[120.5652303280001,14.503225849000046],[120.5691495320001,14.503980313000056],[120.58150582000007,14.501371219000077],[120.58312602500007,14.503641286000061],[120.58606375900001,14.503371252000022],[120.58823590200006,14.506831250000062],[120.591520822,14.508669559000055],[120.60733206200007,14.509731707000071],[120.61092647700002,14.511408636000056],[120.61097262100009,14.511440280000045],[120.61101563700004,14.511469778000048]]]}},{"type":"Feature","properties":{"shapeName":"Mariveles","shapeISO":"","shapeID":"30758251B81885646660603","shapeGroup":"PHL","shapeType":"ADM3","psgc_code":"0300807000","legacy_psgc_code":"030807000","province":"Bataan"},"geometry":{"type":"Polygon","coordinates":[[[120.39182957300011,14.465158013000064],[120.38861950800003,14.462489067000035],[120.3891525470001,14.45874914600006],[120.39165849200003,14.45946239500006],[120.3928312810001,14.45725741900003],[120.39633918900006,14.458880348000037],[120.39883605600005,14.457889851000061],[120.40064094600007,14.458724935000077],[120.40165285600006,14.457824815000038],[120.40004813400003,14.45364025300006],[120.40544705400009,14.456511154000054],[120.40842952100002,14.45434487700004],[120.41374803700012,14.45536895600003],[120.41458803100011,14.45147815100006],[120.4179319220001,14.454140737000046],[120.42027542700009,14.451751777000027],[120.42014243200003,14.453384589000052],[120.42199269800005,14.452805754000053],[120.42322568000009,14.451150772000062],[120.42040934600004,14.445776153000054],[120.42452933300001,14.440567170000065],[120.42681003200005,14.442129968000074],[120.42827579000004,14.441395326000077],[120.431131133,14.446935219000068],[120.43390732900002,14.446937925000043],[120.43461037800012,14.445677080000053],[120.43666269800008,14.446425447000024],[120.43928253700005,14.441112862000068],[120.44456931400009,14.446255696000037],[120.44679983200001,14.445963592000055],[120.44736265000006,14.441004621000047],[120.45064877800007,14.44217333000006],[120.45305198000005,14.441187263000074],[120.45297221700002,14.438862756000049],[120.45499965600004,14.439710218000073],[120.45658523600002,14.438412853000045],[120.45537801900002,14.437405138000031],[120.45630856900004,14.43584031100005],[120.45460972500007,14.435074860000043],[120.45935088100009,14.43433914800005],[120.45830948600008,14.432366461000072],[120.45963361800011,14.431272100000058],[120.457597168,14.42997744400003],[120.45826984200005,14.42753370500003],[120.45700377700007,14.426257689000067],[120.45939965600007,14.427205129000072],[120.45968458400012,14.425545596000063],[120.46084750600005,14.426468251000074],[120.46272718500006,14.424418090000074],[120.46569955500001,14.427021841000055],[120.46749042400006,14.426316159000066],[120.46355852900001,14.41955400200004],[120.46652053500009,14.418484942000077],[120.4698351190001,14.421942039000044],[120.47241997600008,14.421440551000046],[120.46942993900007,14.414440999000021],[120.47213793200001,14.415613156000063],[120.473956197,14.418634902000065],[120.47570791700002,14.417648688000043],[120.47749685200006,14.419821321000029],[120.47973890900005,14.419365263000032],[120.47948461800001,14.416196072000048],[120.47671303600009,14.413927882000053],[120.47832378500004,14.413398586000028],[120.47569703600004,14.40945425800004],[120.47656950700002,14.410327104000032],[120.47760528700007,14.409318192000057],[120.48225394200006,14.416542247000052],[120.48434829700011,14.416967949000025],[120.48589342100001,14.415794652000045],[120.4853113900001,14.410419],[120.48806707500012,14.413931755000021],[120.48787676600011,14.415764102000026],[120.49090755400005,14.416354482000031],[120.49437816700004,14.413654423000025],[120.49396809100006,14.409666748000063],[120.49524146800002,14.410251036000034],[120.49784751000004,14.407546791000073],[120.49996878800005,14.407841973000075],[120.50030983600004,14.41138065900003],[120.49412350900002,14.414646495000056],[120.4907019640001,14.421445536000022],[120.48750101700011,14.42261588200006],[120.48360762100003,14.428680264000036],[120.48569521500008,14.430157867000048],[120.48637460100008,14.433438327000033],[120.48623253300002,14.432088931000067],[120.48956507600008,14.435197082000059],[120.49383388400008,14.436047917000053],[120.49433993500008,14.435063133000028],[120.49559661900003,14.436857304000057],[120.49658411300004,14.435620719000042],[120.49763402100007,14.436535640000045],[120.49687245900009,14.434780358000069],[120.4987372600001,14.434723392000024],[120.49940540300008,14.43623268600004],[120.50193203700007,14.435218955000039],[120.50287654500005,14.437127541000052],[120.50371595900003,14.433061500000065],[120.503827537,14.435834159000024],[120.50473904600005,14.43398572700005],[120.50478881800007,14.43579176000003],[120.50669454900003,14.435752036000054],[120.50787104400001,14.438357904000043],[120.50783615000012,14.432917744000065],[120.5105086430001,14.432085808000068],[120.51364887700004,14.427364896000029],[120.51259092900011,14.425439265000023],[120.51719430600008,14.424982023000041],[120.5197484570001,14.422653549000074],[120.521870669,14.424131031000059],[120.52018696700009,14.427724268000077],[120.5209535250001,14.42914769400005],[120.5271508190001,14.427606997000055],[120.52665410300006,14.428474081000047],[120.53189884900007,14.429508037000062],[120.53292914600001,14.428187845000025],[120.53161239600001,14.424081905000037],[120.53466828700004,14.422644982000065],[120.53434200100003,14.419488749000038],[120.53724860900002,14.418787576000057],[120.53472585100008,14.419732876000069],[120.53473696600008,14.422637052000027],[120.53997928100011,14.42072517300005],[120.54507156400007,14.42171214700005],[120.5468807520001,14.423502410000026],[120.55118266700003,14.422028242000067],[120.55914764600004,14.424690130000045],[120.564281187,14.423254588000077],[120.56567368200001,14.424075470000048],[120.56344166800011,14.425976296000044],[120.56624091800006,14.425498642000036],[120.56494976800002,14.426432092000027],[120.56673953300003,14.427546844000062],[120.56750811500001,14.430736627000044],[120.56964971000002,14.429280839000057],[120.57011560300009,14.425435350000043],[120.57143374200007,14.425611272000026],[120.57070912300003,14.42676969400003],[120.57185561400001,14.427251689000059],[120.57067692300006,14.426840498000047],[120.56948429600004,14.430092026000068],[120.57037527600005,14.432149955000057],[120.5764523580001,14.432012300000054],[120.58005391100005,14.435546798000075],[120.580922815,14.439899167000021],[120.58466058600004,14.44095199800006],[120.5885151970001,14.448156442000027],[120.59238669600006,14.450357962000055],[120.59477721600001,14.45706586700004],[120.60160246800001,14.460785384000076],[120.60383471400007,14.467667036000023],[120.60622584200007,14.467759817000058],[120.6039196910001,14.469251144000054],[120.60913948500001,14.468398749000073],[120.60942227300006,14.470093921000057],[120.60899885700007,14.468603313000074],[120.60693147200004,14.468954016000055],[120.60724963500002,14.470921779000037],[120.60388177000004,14.471456372000034],[120.6056388400001,14.477596661000064],[120.60796421600003,14.477679760000058],[120.609065353,14.481027271000073],[120.61505819700005,14.47966724500003],[120.6091152790001,14.48121132600005],[120.60805485300011,14.483770416000027],[120.60983366700009,14.485671325000055],[120.60839199800012,14.48825948700005],[120.61065536600006,14.49607356100006],[120.61002249500007,14.501659291000067],[120.61797296700001,14.50163486200006],[120.61822655500009,14.498861757000043],[120.61799813300001,14.501689414000055],[120.61052067500009,14.502067773000022],[120.61092647700002,14.511408636000056],[120.60733206200007,14.509731707000071],[120.591520822,14.508669559000055],[120.58823590200006,14.506831250000062],[120.58606375900001,14.503371252000022],[120.58312602500007,14.503641286000061],[120.58150582000007,14.501371219000077],[120.5691495320001,14.503980313000056],[120.5652303280001,14.503225849000046],[120.563854934,14.505088640000054],[120.56130444700011,14.504748130000053],[120.5584171370001,14.510224524000023],[120.55638510800009,14.50964069500003],[120.5559225940001,14.51114197000004],[120.55370101000005,14.511509707000073],[120.54602892800006,14.51052728600007],[120.5455403850001,14.511683985000047],[120.53731895900012,14.512447933000033],[120.535668482,14.516085075000035],[120.53270888700001,14.516383033000068],[120.52990372200009,14.520405466000057],[120.47632616600004,14.539141382000025],[120.46217613400006,14.528758865000043],[120.39182957300011,14.465158013000064]]]}},{"type":"Feature","properties":{"shapeName":"Morong","shapeISO":"","shapeID":"30758251B50173683620188","shapeGroup":"PHL","shapeType":"ADM3","psgc_code":"0300808000","legacy_psgc_code":"030808000","province":"Bataan"},"geometry":{"type":"Polygon","coordinates":[[[120.40032200400003,14.711798445000056],[120.40978018700002,14.72896584800003],[120.4142494460001,14.734204394000074],[120.41429176100007,14.736581080000065],[120.41647803,14.73579120200003],[120.41576573000009,14.737448536000045],[120.42089993700006,14.74057278600003],[120.42048384100008,14.74189160000003],[120.42257137600006,14.74342904100007],[120.41341267400003,14.741804698000067],[120.4085930120001,14.744268333000036],[120.3956147130001,14.744547584000031],[120.3864995130001,14.741959143000031],[120.38343163600007,14.742572718000076],[120.381437516,14.744873626000071],[120.3774492760001,14.758218890000023],[120.36947279600008,14.770030216000066],[120.36655831300004,14.777086332000067],[120.36058266300006,14.777602718000026],[120.34251727800006,14.772638812000025],[120.33851750300005,14.769633200000044],[120.33130403500002,14.767899193000062],[120.3254777730001,14.763737578000075],[120.32043759400005,14.756940272000065],[120.30568697800004,14.751137130000075],[120.29692446500007,14.749611204000075],[120.28873995300012,14.754790104000051],[120.28272873100002,14.754998184000044],[120.28055611200011,14.752839710000046],[120.28333285300005,14.74887743100004],[120.29095037600007,14.748161783000057],[120.28547257700006,14.742079258000047],[120.2782164140001,14.738910109000074],[120.2771472070001,14.738530748000073],[120.27923213600002,14.737082455000063],[120.279507,14.734041130000037],[120.276167912,14.731633436000038],[120.27372534400001,14.731982110000047],[120.27220534100002,14.734933841000043],[120.25487499300004,14.73468602500003],[120.255844109,14.731062221000059],[120.24988865700004,14.725963468000032],[120.25571981100006,14.722925683000028],[120.25441127500005,14.720003356000063],[120.24932746700006,14.715990985000076],[120.25200961300004,14.711189348000062],[120.24949663400002,14.706621966000057],[120.24853871700009,14.699742155000024],[120.2496313150001,14.696617924000066],[120.24818549100007,14.692205337000075],[120.25251806500012,14.684911773000067],[120.25995009500002,14.679563581000025],[120.26095920400007,14.680185581000046],[120.26489829200011,14.67324564200004],[120.26575742900002,14.668707428000062],[120.26735441900007,14.667914653000025],[120.27249037900003,14.67029341500006],[120.27560838600004,14.66976082800005],[120.28789593800002,14.660412883000049],[120.30061959900002,14.644190829000024],[120.3026664890001,14.639967518000049],[120.30242160000012,14.63514093200007],[120.30316029200003,14.636685185000033],[120.31253603800008,14.64003479400003],[120.31300433500007,14.634120882000047],[120.31073798800003,14.629667065000035],[120.31235691400002,14.62607498500006],[120.31481669000004,14.626072640000075],[120.32026725300011,14.631863494000072],[120.32384145600008,14.631078046000027],[120.32864613100003,14.636293804000047],[120.33365746700008,14.635489371000062],[120.33515018500009,14.633278537000024],[120.33434997800009,14.631679028000065],[120.33722533800005,14.631487019000076],[120.3380511040001,14.629724450000026],[120.34161906100007,14.63054240100007],[120.34350665000011,14.632570411000074],[120.34635076100005,14.631868223000026],[120.34973568700002,14.638625099000024],[120.36015118300008,14.648928600000033],[120.36843878200011,14.667407706000063],[120.37882075200002,14.67976262600007],[120.39809858800004,14.710612623000031],[120.40032200400003,14.711798445000056]]]}},{"type":"Feature","properties":{"shapeName":"Orani","shapeISO":"","shapeID":"30758251B4793511613736","shapeGroup":"PHL","shapeType":"ADM3","psgc_code":"0300809000","legacy_psgc_code":"030809000","province":"Bataan"},"geometry":{"type":"Polygon","coordinates":[[[120.3956147130001,14.744547584000031],[120.4085930120001,14.744268333000036],[120.41341267400003,14.741804698000067],[120.42257137600006,14.74342904100007],[120.42508206000002,14.74429649700005],[120.42982132800012,14.749966693000033],[120.43368608900005,14.74886650600007],[120.43693023100002,14.752258750000067],[120.44505886600007,14.753293365000047],[120.44832270300003,14.755944531000068],[120.4463057050001,14.75719268000006],[120.44826918100011,14.758577954000032],[120.45016640500012,14.75801179900003],[120.46053741300011,14.768030743000054],[120.46626556800004,14.76775477700005],[120.4728589120001,14.770961947000046],[120.4751725960001,14.774930045000076],[120.4765241880001,14.774466482000037],[120.47905423400005,14.776756369000054],[120.48030529500011,14.781498111000076],[120.48327402100006,14.78190728900006],[120.48448189900012,14.784341919000042],[120.4899031970001,14.786450987000023],[120.49860369400005,14.785606416000064],[120.50905939000006,14.789664132000041],[120.51654422100012,14.78849785400007],[120.52290065500006,14.789521524000065],[120.52444980200005,14.788102952000031],[120.53243905700003,14.78718910300006],[120.53284705500005,14.786063591000072],[120.54013907300009,14.78587469100006],[120.54093162900006,14.78378114700007],[120.54723027900002,14.786174901000038],[120.54692125200006,14.788443206000068],[120.54818898600001,14.788716769000075],[120.54658637900002,14.788770165000074],[120.54660433800007,14.790595014000075],[120.54866968600004,14.790074694000054],[120.54864866000003,14.792063269000039],[120.54774103200009,14.793508951000035],[120.545687917,14.79270897400005],[120.5468646920001,14.793502083000021],[120.5445312390001,14.79381244700005],[120.54782016800004,14.794501854000032],[120.543034239,14.802636622000023],[120.54135274100008,14.802448668000068],[120.54223236700011,14.803677459000028],[120.53974450500004,14.804298113000073],[120.54043327300008,14.80611887200007],[120.53868274800004,14.80659588800006],[120.53865809700005,14.809313932000066],[120.54058358700001,14.814694291000023],[120.54426770400005,14.81380744300003],[120.54216406000012,14.813915509000026],[120.54168235600002,14.81208726500006],[120.54292757400003,14.80397651900006],[120.55126701800009,14.795669615000065],[120.55344820100004,14.791482557000052],[120.55444157000011,14.792092437000065],[120.55187263500011,14.79599194800005],[120.55331681300004,14.796890263000023],[120.55343837800001,14.799958393000054],[120.55617815100004,14.799598649000075],[120.55632827200009,14.803367138000056],[120.5531824740001,14.803114292000032],[120.55592152600002,14.80886048900004],[120.55107342500003,14.815175388000057],[120.54586803100005,14.816757405000033],[120.54173354200009,14.820421141000054],[120.55031915400002,14.816930155000023],[120.55426459000012,14.820737035000036],[120.52996468200001,14.832459915000072],[120.52003024200008,14.823392829000056],[120.50825462300008,14.819710160000056],[120.5032240600001,14.811859022000021],[120.49372913000002,14.81512357500003],[120.49295567100012,14.812617936000038],[120.48829522800008,14.812029736000056],[120.48869681400004,14.80830435200005],[120.48570172200004,14.809432555000058],[120.48265945000003,14.807079256000065],[120.4722909300001,14.805322545000024],[120.45404258500002,14.806266291000043],[120.45137491100002,14.800945286000058],[120.45039963200009,14.801920564000056],[120.44813354400003,14.800285538000026],[120.4470578690001,14.797517468000024],[120.44446190600002,14.795839415000046],[120.4438308440001,14.791594084000053],[120.44070231300009,14.788403154000036],[120.44249211400006,14.786154023000051],[120.43779443000005,14.779247694000048],[120.43790227400007,14.776456691000021],[120.43593088500006,14.77692257700005],[120.43480499400005,14.773938893000036],[120.43569104500011,14.77217713400006],[120.43258661400012,14.770349417000034],[120.4301003810001,14.761761833000037],[120.42776197800004,14.76029697100006],[120.42006137400006,14.76219188400006],[120.41675535600007,14.760041628000067],[120.4160296450001,14.756856562000053],[120.41198447600004,14.757259735000048],[120.40469580600006,14.751154335000024],[120.40178781600002,14.751275501000066],[120.3956147130001,14.744547584000031]]]}},{"type":"Feature","properties":{"shapeName":"Orion","shapeISO":"","shapeID":"30758251B25905682576781","shapeGroup":"PHL","shapeType":"ADM3","psgc_code":"0300810000","legacy_psgc_code":"030810000","province":"Bataan"},"geometry":{"type":"Polygon","coordinates":[[[120.47632616600004,14.539141382000025],[120.5172574830001,14.541802632000042],[120.52280077300009,14.548096947000033],[120.52991764100011,14.552746158000048],[120.551371474,14.55863041400005],[120.55102601500005,14.562329097000031],[120.55743912500009,14.56425777800007],[120.55872481300003,14.565727373000072],[120.55769598000006,14.56710933000005],[120.56268864000003,14.567892267000047],[120.56584382000005,14.575284762000024],[120.59267934900004,14.581285602000037],[120.59104670200009,14.584817741000052],[120.59288951400003,14.586302114000034],[120.58922187100006,14.586223290000078],[120.588255247,14.588057160000062],[120.58939259300007,14.588628696000058],[120.58741183000006,14.589565478000054],[120.58818027500001,14.592587201000072],[120.58648299900005,14.592287958000043],[120.58636031600008,14.604699566000022],[120.58500694700001,14.60736614800004],[120.58631828500006,14.61318245900003],[120.58335684400004,14.614821942000049],[120.58516936800004,14.61537346700004],[120.58477330300002,14.617698494000024],[120.58619137900007,14.618188953000072],[120.58389020400011,14.618804431000058],[120.5864197520001,14.620029799000065],[120.58477056600009,14.622626083000057],[120.58627028600006,14.62263665100005],[120.58693358200003,14.62548705200004],[120.58577879100005,14.625349161000031],[120.58474816900002,14.628908047000039],[120.58410972500008,14.639636617000065],[120.58220347400004,14.640251141000022],[120.58438426900011,14.640905262000047],[120.58427579200008,14.642544582000028],[120.58209743900011,14.644273454000029],[120.58310909500005,14.64563664600007],[120.57774852000011,14.658174625000072],[120.56753061500001,14.653296233000049],[120.5678826840001,14.651668197000049],[120.56531067700007,14.651437994000048],[120.56537095400006,14.650152110000022],[120.56184592200009,14.647944498000072],[120.5625277580001,14.643406786000071],[120.552986454,14.63912846200003],[120.55240862100004,14.637236005000034],[120.54477209000004,14.635483717000056],[120.5453978160001,14.632477412000071],[120.54372294100006,14.63037911400005],[120.54246678600009,14.631357692000051],[120.53961220700012,14.629976862000035],[120.53004166500011,14.631102462000058],[120.52731147500003,14.628537201000029],[120.52755631700006,14.627172149000046],[120.52244758800009,14.625177327000074],[120.52237805100003,14.62208111600006],[120.52510828100003,14.620609866000052],[120.52381270300009,14.618750675000058],[120.52462152400005,14.615134768000075],[120.52291970500005,14.613410991000023],[120.52573045100007,14.606819646000076],[120.52273185400009,14.603517828000065],[120.51895855700002,14.60329394200005],[120.51770261200011,14.60107692500003],[120.51869799600001,14.599778879000041],[120.51653054200005,14.599421480000046],[120.51611432300001,14.596480678000034],[120.5122173420001,14.592587040000069],[120.50994564100006,14.583172625000032],[120.49573782800007,14.584637759000032],[120.47657989000004,14.595286724000061],[120.47273925400009,14.600084792000075],[120.46904436400007,14.601599101000033],[120.46406136400003,14.603641839000034],[120.46259931300006,14.599975800000038],[120.4634762710001,14.593271095000034],[120.46170871600009,14.58909770200006],[120.4616841730001,14.581502520000072],[120.46495264700002,14.576954327000067],[120.465056408,14.569068486000049],[120.47225050800012,14.561822505000066],[120.47161064900001,14.561061591000055],[120.4770581040001,14.558450271000027],[120.47685058200011,14.556081060000054],[120.47966942500011,14.550944887000071],[120.48053410000011,14.546794445000046],[120.47678739900005,14.541933710000023],[120.47632616600004,14.539141382000025]]]}},{"type":"Feature","properties":{"shapeName":"Pilar","shapeISO":"","shapeID":"30758251B7851333843517","shapeGroup":"PHL","shapeType":"ADM3","psgc_code":"0300811000","legacy_psgc_code":"030811000","province":"Bataan"},"geometry":{"type":"Polygon","coordinates":[[[120.46904436400007,14.601599101000033],[120.47273925400009,14.600084792000075],[120.47657989000004,14.595286724000061],[120.49573782800007,14.584637759000032],[120.50994564100006,14.583172625000032],[120.5122173420001,14.592587040000069],[120.51611432300001,14.596480678000034],[120.51653054200005,14.599421480000046],[120.51869799600001,14.599778879000041],[120.51770261200011,14.60107692500003],[120.51895855700002,14.60329394200005],[120.52273185400009,14.603517828000065],[120.52573045100007,14.606819646000076],[120.52291970500005,14.613410991000023],[120.52462152400005,14.615134768000075],[120.52381270300009,14.618750675000058],[120.52510828100003,14.620609866000052],[120.52237805100003,14.62208111600006],[120.52244758800009,14.625177327000074],[120.52755631700006,14.627172149000046],[120.52731147500003,14.628537201000029],[120.53004166500011,14.631102462000058],[120.53961220700012,14.629976862000035],[120.54246678600009,14.631357692000051],[120.54372294100006,14.63037911400005],[120.5453978160001,14.632477412000071],[120.54477209000004,14.635483717000056],[120.55240862100004,14.637236005000034],[120.552986454,14.63912846200003],[120.5625277580001,14.643406786000071],[120.56184592200009,14.647944498000072],[120.56537095400006,14.650152110000022],[120.56531067700007,14.651437994000048],[120.5678826840001,14.651668197000049],[120.56753061500001,14.653296233000049],[120.57774852000011,14.658174625000072],[120.56974906000005,14.668757595000045],[120.57049933500002,14.670547403000057],[120.56581895500005,14.679849847000071],[120.56631916000003,14.689911100000074],[120.56385346600007,14.691370951000067],[120.55912062900006,14.688977959000056],[120.55676810300008,14.686676887000033],[120.55035777600006,14.685860415000036],[120.548673043,14.680075664000071],[120.54394593000006,14.676087232000043],[120.54911004000007,14.668846831000053],[120.54919877000009,14.66609618900003],[120.5470337480001,14.662511481000024],[120.53821394600004,14.66086109500003],[120.53659905300003,14.65917521800003],[120.53769193700009,14.653054019000024],[120.5346115320001,14.650968659000057],[120.53666513500002,14.648311678000027],[120.53622054100003,14.644500869000069],[120.53522549600007,14.642965959000037],[120.53431513600003,14.643939833000047],[120.53232504700009,14.643156500000032],[120.53028202900009,14.638869339000053],[120.52059520900002,14.635470779000059],[120.51579865200006,14.635566994000044],[120.51254152700005,14.638075482000033],[120.50660921600002,14.634096492000026],[120.50583753300009,14.636636615000043],[120.50174600700007,14.63714303200004],[120.49729901,14.639992411000037],[120.48958689800008,14.639677902000074],[120.48504453300006,14.63699478500007],[120.48359072300002,14.638364721000073],[120.47919810100007,14.636390127000027],[120.47313671200004,14.62618519800003],[120.47349120100012,14.618849922000038],[120.47202251100009,14.616727733000062],[120.47351005700011,14.606737219000024],[120.46904436400007,14.601599101000033]]]}},{"type":"Feature","properties":{"shapeName":"Samal","shapeISO":"","shapeID":"30758251B26373043106772","shapeGroup":"PHL","shapeType":"ADM3","psgc_code":"0300812000","legacy_psgc_code":"030812000","province":"Bataan"},"geometry":{"type":"Polygon","coordinates":[[[120.54912983600002,14.74075461700005],[120.55037536500004,14.744100927000034],[120.55431456000008,14.747867039000027],[120.553892399,14.749907682000071],[120.55524859600007,14.749925851000057],[120.55118219700012,14.755865409000023],[120.54878321000001,14.763707354000076],[120.55025822000005,14.771089380000035],[120.54938667300007,14.772984402000077],[120.55196382000008,14.774642049000022],[120.55104994500005,14.775565947000075],[120.54823112100007,14.774674287000039],[120.54746994400011,14.776086556000052],[120.5512522680001,14.777066962000049],[120.55117015400003,14.780146197000022],[120.54771676300004,14.781515067000043],[120.54871913500006,14.782270878000077],[120.54723027900002,14.786174901000038],[120.54093162900006,14.78378114700007],[120.54013907300009,14.78587469100006],[120.53284705500005,14.786063591000072],[120.53243905700003,14.78718910300006],[120.52444980200005,14.788102952000031],[120.52290065500006,14.789521524000065],[120.51654422100012,14.78849785400007],[120.50905939000006,14.789664132000041],[120.49860369400005,14.785606416000064],[120.4899031970001,14.786450987000023],[120.48448189900012,14.784341919000042],[120.48327402100006,14.78190728900006],[120.48030529500011,14.781498111000076],[120.47905423400005,14.776756369000054],[120.4765241880001,14.774466482000037],[120.4751725960001,14.774930045000076],[120.4728589120001,14.770961947000046],[120.46626556800004,14.76775477700005],[120.46053741300011,14.768030743000054],[120.45016640500012,14.75801179900003],[120.44826918100011,14.758577954000032],[120.4463057050001,14.75719268000006],[120.44832270300003,14.755944531000068],[120.44505886600007,14.753293365000047],[120.43693023100002,14.752258750000067],[120.43368608900005,14.74886650600007],[120.42982132800012,14.749966693000033],[120.42508206000002,14.74429649700005],[120.42257137600006,14.74342904100007],[120.42048384100008,14.74189160000003],[120.42089993700006,14.74057278600003],[120.41576573000009,14.737448536000045],[120.41647803,14.73579120200003],[120.41429176100007,14.736581080000065],[120.4142494460001,14.734204394000074],[120.40978018700002,14.72896584800003],[120.40032200400003,14.711798445000056],[120.41789869700006,14.716646318000073],[120.42999931200006,14.730707682000059],[120.43463095400011,14.73169279900003],[120.43958687200006,14.738249179000036],[120.44230101000005,14.73778459700003],[120.4446892310001,14.74112789000003],[120.45327961900011,14.743548818000022],[120.45908463900003,14.742156134000027],[120.47631747800006,14.744225636000067],[120.47731969000006,14.746542438000063],[120.482773285,14.748598925000067],[120.48317512200003,14.752106555000069],[120.48659130700003,14.75289357500003],[120.48768967500007,14.754822206000028],[120.48952317200008,14.753836269000033],[120.4908118080001,14.75494328600007],[120.49051775700002,14.753542218000064],[120.49477285300009,14.75452815500006],[120.498200773,14.75792479200004],[120.49890548200005,14.755981822000024],[120.50481280800011,14.755700489000048],[120.50954576000004,14.757131840000056],[120.51156125900002,14.755945250000025],[120.519016039,14.756447996000077],[120.52137943600007,14.753423282000028],[120.52773953100007,14.75230725700004],[120.54912983600002,14.74075461700005]]]}}]}
