{
  "type": "FeatureCollection",
  "source": {
    "dataset": "geoBoundaries gbOpen PHL ADM3",
    "commit": "9469f09",
    "boundary_year": 2020,
    "license": "CC BY 3.0 IGO",
    "organizations": [
      "NAMRIA",
      "Philippine Statistics Authority",
      "OCHA Philippines"
    ],
    "metadata_url": "https://www.geoboundaries.org/api/current/gbOpen/PHL/ADM3/",
    "url": "https://media.githubusercontent.com/media/wmgeolab/geoBoundaries/9469f09/releaseData/gbOpen/PHL/ADM3/geoBoundaries-PHL-ADM3_simplified.geojson",
    "retrieved_at": "2026-09-07",
    "identity_source": "https://psa.gov.ph/classification/psgc/citimuni/1401100000",
    "reference_area_source": "https://ulap-nga.georisk.gov.ph/arcgis/rest/services/PSA/Municipal/MapServer/0",
    "notice": "Approximate planning/reference municipality boundaries; not legal, cadastral, or survey-grade."
  },
  "features": [
    {
      "type": "Feature",
      "properties": {
        "shapeName": "Atok",
        "shapeISO": "",
        "shapeID": "30758251B63625349740918",
        "shapeGroup": "PHL",
        "shapeType": "ADM3",
        "psgc_code": "1401101000",
        "legacy_psgc_code": "141101000",
        "province": "Benguet",
        "reference_area_sqkm": 178.49992574
      },
      "geometry": {
        "type": "Polygon",
        "coordinates": [
          [
            [
              120.78635211500011,
              16.678985526000076
            ],
            [
              120.77745936400004,
              16.680205926000042
            ],
            [
              120.76462637200007,
              16.679072421000058
            ],
            [
              120.75862272800009,
              16.67690921800005
            ],
            [
              120.73364437400005,
              16.678402774000062
            ],
            [
              120.73247991000005,
              16.67700541800002
            ],
            [
              120.73083302700002,
              16.677487838000047
            ],
            [
              120.72931922500004,
              16.672414106000076
            ],
            [
              120.73193094900012,
              16.671532441000068
            ],
            [
              120.73068331000002,
              16.66862128300005
            ],
            [
              120.73321185900011,
              16.667656443000055
            ],
            [
              120.73500845900003,
              16.663747174000036
            ],
            [
              120.7308829320001,
              16.659272308000027
            ],
            [
              120.727938504,
              16.658307467000043
            ],
            [
              120.7268904880001,
              16.653084018000072
            ],
            [
              120.72783797600005,
              16.649311814000043
            ],
            [
              120.72320958600005,
              16.64656161100004
            ],
            [
              120.72222015300008,
              16.64352497400006
            ],
            [
              120.71929474300009,
              16.642798422000055
            ],
            [
              120.71642022100002,
              16.645276457000023
            ],
            [
              120.71218461300009,
              16.64144224100005
            ],
            [
              120.71276196800011,
              16.64362225600007
            ],
            [
              120.7015420240001,
              16.645059381000067
            ],
            [
              120.68749821300003,
              16.644569664000073
            ],
            [
              120.67944756500003,
              16.630651439000076
            ],
            [
              120.67292820800003,
              16.62536426300005
            ],
            [
              120.66984029500009,
              16.624653429000034
            ],
            [
              120.6690906660001,
              16.62231250700006
            ],
            [
              120.66412423600002,
              16.620814110000026
            ],
            [
              120.64414923900006,
              16.603173579000043
            ],
            [
              120.64318805300002,
              16.564463871000044
            ],
            [
              120.64574449500003,
              16.55149787000005
            ],
            [
              120.65001587400002,
              16.53021790200006
            ],
            [
              120.65367780600002,
              16.52417794400003
            ],
            [
              120.65723230700007,
              16.52217734800007
            ],
            [
              120.65998371700005,
              16.518496248000076
            ],
            [
              120.65989643900002,
              16.516349210000044
            ],
            [
              120.66309081200006,
              16.516261932000077
            ],
            [
              120.66808311000011,
              16.510737238000047
            ],
            [
              120.66968902500003,
              16.51078960500007
            ],
            [
              120.67816811000012,
              16.498100600000043
            ],
            [
              120.69598646200006,
              16.50603577800007
            ],
            [
              120.70151102000011,
              16.514197195000065
            ],
            [
              120.70858945300006,
              16.52038385700007
            ],
            [
              120.72817149100001,
              16.53333464900004
            ],
            [
              120.73516386800009,
              16.548785972000076
            ],
            [
              120.74489423700004,
              16.561883501000068
            ],
            [
              120.74882252800012,
              16.563483390000044
            ],
            [
              120.75456098500001,
              16.569887153000025
            ],
            [
              120.76625251400003,
              16.60332866600004
            ],
            [
              120.76970522600004,
              16.60687551600006
            ],
            [
              120.77455797200003,
              16.616677156000037
            ],
            [
              120.77687722900009,
              16.62786655700006
            ],
            [
              120.78397571800008,
              16.63077667500005
            ],
            [
              120.78105375700011,
              16.643147772000077
            ],
            [
              120.78587430400012,
              16.655309765000027
            ],
            [
              120.7839484750001,
              16.66627647000007
            ],
            [
              120.78656920700007,
              16.67481553400006
            ],
            [
              120.78635211500011,
              16.678985526000076
            ]
          ]
        ]
      }
    },
    {
      "type": "Feature",
      "properties": {
        "shapeName": "La Trinidad",
        "shapeISO": "",
        "shapeID": "30758251B70129135029645",
        "shapeGroup": "PHL",
        "shapeType": "ADM3",
        "psgc_code": "1401110000",
        "legacy_psgc_code": "141110000",
        "province": "Benguet",
        "reference_area_sqkm": 70.42025049
      },
      "geometry": {
        "type": "Polygon",
        "coordinates": [
          [
            [
              120.6296130610001,
              16.428606459000036
            ],
            [
              120.64207371700002,
              16.42895461300003
            ],
            [
              120.6455776570001,
              16.437624518000064
            ],
            [
              120.64443775100005,
              16.437846166000043
            ],
            [
              120.64362734100007,
              16.442615471000067
            ],
            [
              120.65909829400005,
              16.45803607000005
            ],
            [
              120.65327260600009,
              16.45993358000004
            ],
            [
              120.65240707600003,
              16.463861758000064
            ],
            [
              120.65059279000002,
              16.463562151000076
            ],
            [
              120.64947735500004,
              16.465723699000023
            ],
            [
              120.63001518500005,
              16.470486709000056
            ],
            [
              120.62011365800004,
              16.489760196000077
            ],
            [
              120.60239474800005,
              16.49736814000005
            ],
            [
              120.59878741700004,
              16.496722517000023
            ],
            [
              120.59656584800007,
              16.49853734800007
            ],
            [
              120.5884118560001,
              16.500680948000024
            ],
            [
              120.5828814360001,
              16.504490924000038
            ],
            [
              120.57764429800011,
              16.513659276000055
            ],
            [
              120.57539310000004,
              16.512801677000027
            ],
            [
              120.57355283400011,
              16.509585679000054
            ],
            [
              120.56978297,
              16.508067013000073
            ],
            [
              120.56043274300009,
              16.510320584000056
            ],
            [
              120.55270214200004,
              16.464773367000078
            ],
            [
              120.54886870900009,
              16.456943471000045
            ],
            [
              120.54599286000007,
              16.44553193400003
            ],
            [
              120.54356019500005,
              16.436621261000028
            ],
            [
              120.54516024500003,
              16.43451933800003
            ],
            [
              120.57723031900002,
              16.433868123000025
            ],
            [
              120.58358777,
              16.43215065000004
            ],
            [
              120.59512725400009,
              16.432695696000053
            ],
            [
              120.59842116100003,
              16.43106005100003
            ],
            [
              120.60256090200005,
              16.431412471000044
            ],
            [
              120.60254055100006,
              16.429906794000033
            ],
            [
              120.6079704870001,
              16.43164782100007
            ],
            [
              120.61457509200011,
              16.428564540000025
            ],
            [
              120.6296130610001,
              16.428606459000036
            ]
          ]
        ]
      }
    },
    {
      "type": "Feature",
      "properties": {
        "shapeName": "Tublay",
        "shapeISO": "",
        "shapeID": "30758251B5924892224435",
        "shapeGroup": "PHL",
        "shapeType": "ADM3",
        "psgc_code": "1401114000",
        "legacy_psgc_code": "141114000",
        "province": "Benguet",
        "reference_area_sqkm": 76.29699492
      },
      "geometry": {
        "type": "Polygon",
        "coordinates": [
          [
            [
              120.64574449500003,
              16.55149787000005
            ],
            [
              120.61800515400012,
              16.544331339000053
            ],
            [
              120.58783865500004,
              16.543408400000033
            ],
            [
              120.56889795000006,
              16.547376216000032
            ],
            [
              120.56658141600008,
              16.535981245000073
            ],
            [
              120.57544562600003,
              16.516183536000028
            ],
            [
              120.57539310000004,
              16.512801677000027
            ],
            [
              120.57764429800011,
              16.513659276000055
            ],
            [
              120.5828814360001,
              16.504490924000038
            ],
            [
              120.5884118560001,
              16.500680948000024
            ],
            [
              120.59656584800007,
              16.49853734800007
            ],
            [
              120.59878741700004,
              16.496722517000023
            ],
            [
              120.60239474800005,
              16.49736814000005
            ],
            [
              120.62011365800004,
              16.489760196000077
            ],
            [
              120.63001518500005,
              16.470486709000056
            ],
            [
              120.64947735500004,
              16.465723699000023
            ],
            [
              120.65059279000002,
              16.463562151000076
            ],
            [
              120.65240707600003,
              16.463861758000064
            ],
            [
              120.65327260600009,
              16.45993358000004
            ],
            [
              120.65909829400005,
              16.45803607000005
            ],
            [
              120.6586322390001,
              16.455605926000032
            ],
            [
              120.66092922400003,
              16.454856910000046
            ],
            [
              120.6967647130001,
              16.471520826000074
            ],
            [
              120.69242512200003,
              16.48162859300004
            ],
            [
              120.69593620300009,
              16.48468811300006
            ],
            [
              120.69937553800003,
              16.48447015000005
            ],
            [
              120.70049322200009,
              16.486270986000022
            ],
            [
              120.69408421900005,
              16.491790194000032
            ],
            [
              120.68144434100009,
              16.494101965000027
            ],
            [
              120.67816811000012,
              16.498100600000043
            ],
            [
              120.66968902500003,
              16.51078960500007
            ],
            [
              120.66808311000011,
              16.510737238000047
            ],
            [
              120.66309081200006,
              16.516261932000077
            ],
            [
              120.65989643900002,
              16.516349210000044
            ],
            [
              120.65998371700005,
              16.518496248000076
            ],
            [
              120.65723230700007,
              16.52217734800007
            ],
            [
              120.65367780600002,
              16.52417794400003
            ],
            [
              120.65001587400002,
              16.53021790200006
            ],
            [
              120.64574449500003,
              16.55149787000005
            ]
          ]
        ]
      }
    }
  ]
}
