{
  "type": "FeatureCollection",
  "source": {
    "dataset": "geoBoundaries gbOpen PHL ADM3",
    "commit": "9469f09",
    "boundary_year": 2020,
    "license": "CC BY 3.0 IGO",
    "organizations": [
      "NAMRIA",
      "Philippine Statistics Authority",
      "OCHA Philippines"
    ],
    "metadata_url": "https://www.geoboundaries.org/api/current/gbOpen/PHL/ADM3/",
    "url": "https://media.githubusercontent.com/media/wmgeolab/geoBoundaries/9469f09/releaseData/gbOpen/PHL/ADM3/geoBoundaries-PHL-ADM3_simplified.geojson",
    "retrieved_at": "2026-09-08",
    "identity_source": "https://psa.gov.ph/classification/psgc/citimuni/1401100000",
    "reference_area_source": "https://ulap-nga.georisk.gov.ph/arcgis/rest/services/PSA/Municipal/MapServer/0",
    "notice": "Approximate planning/reference municipality boundaries; not legal, cadastral, or survey-grade."
  },
  "features": [
    {
      "type": "Feature",
      "properties": {
        "shapeName": "Bakun",
        "shapeISO": "",
        "shapeID": "30758251B56433040620438",
        "shapeGroup": "PHL",
        "shapeType": "ADM3",
        "psgc_code": "1401103000",
        "legacy_psgc_code": "141103000",
        "province": "Benguet",
        "reference_area_sqkm": 315.23852867,
        "reference_bbox": [
          120.58502253200004,
          16.712375655000073,
          120.80694334000009,
          16.914968000000044
        ]
      },
      "geometry": {
        "type": "Polygon",
        "coordinates": [
          [
            [
              120.58601613200005,
              16.836661373000027
            ],
            [
              120.58502253200004,
              16.82009566200003
            ],
            [
              120.58800386400003,
              16.776149760000067
            ],
            [
              120.58796283600009,
              16.772888213000044
            ],
            [
              120.58623612600002,
              16.770829762000062
            ],
            [
              120.58826171400005,
              16.767441333000022
            ],
            [
              120.58961744100009,
              16.74718269500005
            ],
            [
              120.59903624900005,
              16.738317935000055
            ],
            [
              120.617988,
              16.734127
            ],
            [
              120.627265,
              16.734525
            ],
            [
              120.64066028200011,
              16.738247853000075
            ],
            [
              120.65134850700008,
              16.74323987300005
            ],
            [
              120.66680494600007,
              16.754053099000032
            ],
            [
              120.6723122200001,
              16.760619464000058
            ],
            [
              120.679344,
              16.783641
            ],
            [
              120.68260763500007,
              16.785920177000037
            ],
            [
              120.69128383000009,
              16.78172201800004
            ],
            [
              120.7281481440001,
              16.72760518700005
            ],
            [
              120.73395317900008,
              16.72456575800004
            ],
            [
              120.745292,
              16.713996
            ],
            [
              120.76605386000006,
              16.712375655000073
            ],
            [
              120.7665216480001,
              16.715940470000078
            ],
            [
              120.77065325400008,
              16.717765029000077
            ],
            [
              120.77118322900003,
              16.719874223000033
            ],
            [
              120.77288557300005,
              16.719338895000078
            ],
            [
              120.77408470800003,
              16.721410615000025
            ],
            [
              120.78077660300005,
              16.722135424000044
            ],
            [
              120.78259576800008,
              16.724670463000052
            ],
            [
              120.78630124800009,
              16.725651499000037
            ],
            [
              120.78728228400007,
              16.729150135000054
            ],
            [
              120.790715911,
              16.728068631000042
            ],
            [
              120.79600376600001,
              16.72893272400006
            ],
            [
              120.79675886300004,
              16.73135422100006
            ],
            [
              120.80046517500011,
              16.732711821000066
            ],
            [
              120.800945769,
              16.73854637900007
            ],
            [
              120.79914227400002,
              16.73966126700003
            ],
            [
              120.79850715100008,
              16.743833751000068
            ],
            [
              120.80093455500003,
              16.747446893000074
            ],
            [
              120.80065225300007,
              16.75247782300005
            ],
            [
              120.80198264800003,
              16.755263773000024
            ],
            [
              120.80096733100004,
              16.756564678000075
            ],
            [
              120.80464469100002,
              16.755614712000067
            ],
            [
              120.80574396400004,
              16.757073519000073
            ],
            [
              120.80489150300002,
              16.75856428900005
            ],
            [
              120.80625753000004,
              16.759304585000052
            ],
            [
              120.80513344400003,
              16.760740591000058
            ],
            [
              120.80614937900009,
              16.761342998000032
            ],
            [
              120.80437734500003,
              16.76228661500005
            ],
            [
              120.80693552500009,
              16.765317976000063
            ],
            [
              120.80577157700009,
              16.76666530800003
            ],
            [
              120.80346527100005,
              16.765390187000037
            ],
            [
              120.80404547,
              16.766972778000024
            ],
            [
              120.784480013,
              16.776600657000074
            ],
            [
              120.76741385900004,
              16.801242588000036
            ],
            [
              120.76869610000006,
              16.803477349000048
            ],
            [
              120.76741385900004,
              16.81129901500003
            ],
            [
              120.76426556800004,
              16.815064388000053
            ],
            [
              120.76065767800003,
              16.81673876800005
            ],
            [
              120.7578869780001,
              16.81544311700003
            ],
            [
              120.75736871700008,
              16.817695556000047
            ],
            [
              120.75491694700008,
              16.81634010600004
            ],
            [
              120.75360136300003,
              16.818971274000035
            ],
            [
              120.74991374100011,
              16.81869221100004
            ],
            [
              120.74744203700004,
              16.82054598800005
            ],
            [
              120.74581292800008,
              16.82622161300003
            ],
            [
              120.74721264200002,
              16.827925039000036
            ],
            [
              120.74615625400008,
              16.82929834400005
            ],
            [
              120.74796531900006,
              16.83010384000005
            ],
            [
              120.74583933800011,
              16.831239457000038
            ],
            [
              120.74361453000006,
              16.82921649900004
            ],
            [
              120.73749101800001,
              16.87466353900004
            ],
            [
              120.73532967400001,
              16.873022281000033
            ],
            [
              120.73258072700003,
              16.878200176000064
            ],
            [
              120.73492249200001,
              16.880049824000025
            ],
            [
              120.731965349,
              16.88366683000004
            ],
            [
              120.7343932440001,
              16.885076855000023
            ],
            [
              120.73435805000008,
              16.88693306400006
            ],
            [
              120.72931393400006,
              16.886500956000077
            ],
            [
              120.73013856500006,
              16.893384585000035
            ],
            [
              120.7334174560001,
              16.89476260600003
            ],
            [
              120.73175267300007,
              16.895674834000033
            ],
            [
              120.73225123600002,
              16.898525309000036
            ],
            [
              120.73580999500007,
              16.898084544000028
            ],
            [
              120.7385179580001,
              16.900414819000048
            ],
            [
              120.7375377080001,
              16.902669338000067
            ],
            [
              120.73360965200004,
              16.90257070900003
            ],
            [
              120.72896588200001,
              16.904648526000074
            ],
            [
              120.73195126400003,
              16.905678600000044
            ],
            [
              120.73065843300003,
              16.90762357600005
            ],
            [
              120.73261738400004,
              16.91226098100003
            ],
            [
              120.73581488800005,
              16.912303337000026
            ],
            [
              120.734095722,
              16.914688058000024
            ],
            [
              120.717689,
              16.914968
            ],
            [
              120.669563,
              16.911981
            ],
            [
              120.6600777640001,
              16.908990164000045
            ],
            [
              120.65715485500004,
              16.901457238000035
            ],
            [
              120.64433170600012,
              16.897367019000058
            ],
            [
              120.6245359400001,
              16.877777002000073
            ],
            [
              120.61305110600006,
              16.85698522900003
            ],
            [
              120.61018355700003,
              16.840016965000075
            ],
            [
              120.58601613200005,
              16.836661373000027
            ]
          ]
        ]
      }
    },
    {
      "type": "Feature",
      "properties": {
        "shapeName": "Bokod",
        "shapeISO": "",
        "shapeID": "30758251B72023971813507",
        "shapeGroup": "PHL",
        "shapeType": "ADM3",
        "psgc_code": "1401104000",
        "legacy_psgc_code": "141104000",
        "province": "Benguet",
        "reference_area_sqkm": 392.0003863,
        "reference_bbox": [
          120.67816811000012,
          16.303560539000046,
          120.89210972500007,
          16.569887153000025
        ]
      },
      "geometry": {
        "type": "Polygon",
        "coordinates": [
          [
            [
              120.67816811000012,
              16.498100600000043
            ],
            [
              120.68144434100009,
              16.494101965000027
            ],
            [
              120.69408421900005,
              16.491790194000032
            ],
            [
              120.70049322200009,
              16.486270986000022
            ],
            [
              120.69937553800003,
              16.48447015000005
            ],
            [
              120.69593620300009,
              16.48468811300006
            ],
            [
              120.69242512200003,
              16.48162859300004
            ],
            [
              120.6967647130001,
              16.471520826000074
            ],
            [
              120.70765393900001,
              16.476644339000075
            ],
            [
              120.71292630900007,
              16.475136619000068
            ],
            [
              120.7140319880001,
              16.47608331200007
            ],
            [
              120.71387300100002,
              16.47410320700004
            ],
            [
              120.71700214500004,
              16.474963179000042
            ],
            [
              120.71534001300006,
              16.47288190100005
            ],
            [
              120.71724062500004,
              16.472571155000026
            ],
            [
              120.72130966600002,
              16.465404877000026
            ],
            [
              120.71801421700002,
              16.438811187000056
            ],
            [
              120.7057269500001,
              16.42335668100003
            ],
            [
              120.73565790700002,
              16.42130953800006
            ],
            [
              120.75670828400007,
              16.41799241700005
            ],
            [
              120.78774849800004,
              16.363833128000067
            ],
            [
              120.79610273500009,
              16.332068985000035
            ],
            [
              120.80005260900009,
              16.304845744000033
            ],
            [
              120.81311988300001,
              16.303560539000046
            ],
            [
              120.81592652800009,
              16.31314990800007
            ],
            [
              120.82317702600005,
              16.31852931000003
            ],
            [
              120.82832254100003,
              16.31969874500004
            ],
            [
              120.84552298100004,
              16.319500078000033
            ],
            [
              120.86034722400007,
              16.353388911000025
            ],
            [
              120.86392001700005,
              16.374813353000036
            ],
            [
              120.8711584460001,
              16.384243957000024
            ],
            [
              120.87814482400006,
              16.421579058000077
            ],
            [
              120.889427,
              16.436073
            ],
            [
              120.88320633500007,
              16.50539150700007
            ],
            [
              120.89210972500007,
              16.558460226000022
            ],
            [
              120.852836464,
              16.555835676000072
            ],
            [
              120.80565856500004,
              16.563136284000052
            ],
            [
              120.79639369800009,
              16.56837590400005
            ],
            [
              120.75456098500001,
              16.569887153000025
            ],
            [
              120.74882252800012,
              16.563483390000044
            ],
            [
              120.74489423700004,
              16.561883501000068
            ],
            [
              120.73516386800009,
              16.548785972000076
            ],
            [
              120.72817149100001,
              16.53333464900004
            ],
            [
              120.70858945300006,
              16.52038385700007
            ],
            [
              120.70151102000011,
              16.514197195000065
            ],
            [
              120.69598646200006,
              16.50603577800007
            ],
            [
              120.67816811000012,
              16.498100600000043
            ]
          ]
        ]
      }
    },
    {
      "type": "Feature",
      "properties": {
        "shapeName": "Buguias",
        "shapeISO": "",
        "shapeID": "30758251B42417191393765",
        "shapeGroup": "PHL",
        "shapeType": "ADM3",
        "psgc_code": "1401105000",
        "legacy_psgc_code": "141105000",
        "province": "Benguet",
        "reference_area_sqkm": 176.38592402,
        "reference_bbox": [
          120.74529200000006,
          16.676721000000043,
          120.89861210400011,
          16.84185635800003
        ]
      },
      "geometry": {
        "type": "Polygon",
        "coordinates": [
          [
            [
              120.78635211500011,
              16.678985526000076
            ],
            [
              120.798263,
              16.676721
            ],
            [
              120.8403786660001,
              16.678004092000037
            ],
            [
              120.864921,
              16.682857
            ],
            [
              120.89432851800007,
              16.692844897000043
            ],
            [
              120.89380443700009,
              16.743587141000035
            ],
            [
              120.89861210400011,
              16.77632258400007
            ],
            [
              120.89232181200009,
              16.814869805000058
            ],
            [
              120.89301445400008,
              16.821064410000076
            ],
            [
              120.88616453300006,
              16.827413768000042
            ],
            [
              120.87463829900003,
              16.82733462400006
            ],
            [
              120.8701147590001,
              16.829583596000077
            ],
            [
              120.856741026,
              16.84185635800003
            ],
            [
              120.84883421400002,
              16.840034764000052
            ],
            [
              120.847000309,
              16.838331304000064
            ],
            [
              120.84812834400009,
              16.83625790800005
            ],
            [
              120.84529564400009,
              16.835347071000058
            ],
            [
              120.83790269000008,
              16.82604855900007
            ],
            [
              120.83558123300008,
              16.826996261000033
            ],
            [
              120.83304838200002,
              16.824633575000064
            ],
            [
              120.82958336700005,
              16.814611541000033
            ],
            [
              120.81791002500006,
              16.80038495100007
            ],
            [
              120.816452,
              16.794399
            ],
            [
              120.813758,
              16.79256
            ],
            [
              120.81073992000006,
              16.784906500000034
            ],
            [
              120.81155811200006,
              16.784090916000025
            ],
            [
              120.80995872800008,
              16.78323004500004
            ],
            [
              120.81121289000009,
              16.78284549400007
            ],
            [
              120.80998444800002,
              16.778426323000076
            ],
            [
              120.80819908600006,
              16.780172992000075
            ],
            [
              120.80505976500001,
              16.769893573000047
            ],
            [
              120.8033317070001,
              16.769320684000036
            ],
            [
              120.80404547,
              16.766972778000024
            ],
            [
              120.80346527100005,
              16.765390187000037
            ],
            [
              120.80577157700009,
              16.76666530800003
            ],
            [
              120.80693552500009,
              16.765317976000063
            ],
            [
              120.80437734500003,
              16.76228661500005
            ],
            [
              120.80614937900009,
              16.761342998000032
            ],
            [
              120.80513344400003,
              16.760740591000058
            ],
            [
              120.80625753000004,
              16.759304585000052
            ],
            [
              120.80489150300002,
              16.75856428900005
            ],
            [
              120.80574396400004,
              16.757073519000073
            ],
            [
              120.80464469100002,
              16.755614712000067
            ],
            [
              120.80096733100004,
              16.756564678000075
            ],
            [
              120.80198264800003,
              16.755263773000024
            ],
            [
              120.80065225300007,
              16.75247782300005
            ],
            [
              120.80093455500003,
              16.747446893000074
            ],
            [
              120.79850715100008,
              16.743833751000068
            ],
            [
              120.79914227400002,
              16.73966126700003
            ],
            [
              120.800945769,
              16.73854637900007
            ],
            [
              120.80046517500011,
              16.732711821000066
            ],
            [
              120.79675886300004,
              16.73135422100006
            ],
            [
              120.79600376600001,
              16.72893272400006
            ],
            [
              120.790715911,
              16.728068631000042
            ],
            [
              120.78728228400007,
              16.729150135000054
            ],
            [
              120.78630124800009,
              16.725651499000037
            ],
            [
              120.78259576800008,
              16.724670463000052
            ],
            [
              120.78077660300005,
              16.722135424000044
            ],
            [
              120.77408470800003,
              16.721410615000025
            ],
            [
              120.77288557300005,
              16.719338895000078
            ],
            [
              120.77118322900003,
              16.719874223000033
            ],
            [
              120.77065325400008,
              16.717765029000077
            ],
            [
              120.7665216480001,
              16.715940470000078
            ],
            [
              120.76605386000006,
              16.712375655000073
            ],
            [
              120.745292,
              16.713996
            ],
            [
              120.75353440700007,
              16.69320854500006
            ],
            [
              120.75273376000007,
              16.692125979000025
            ],
            [
              120.75638626500006,
              16.68853596200006
            ],
            [
              120.75634123200007,
              16.682724087000054
            ],
            [
              120.75893157900009,
              16.680736972000034
            ],
            [
              120.75862272800009,
              16.67690921800005
            ],
            [
              120.76462637200007,
              16.679072421000058
            ],
            [
              120.77745936400004,
              16.680205926000042
            ],
            [
              120.78635211500011,
              16.678985526000076
            ]
          ]
        ]
      }
    },
    {
      "type": "Feature",
      "properties": {
        "shapeName": "Itogon",
        "shapeISO": "",
        "shapeID": "30758251B42509136002589",
        "shapeGroup": "PHL",
        "shapeType": "ADM3",
        "psgc_code": "1401106000",
        "legacy_psgc_code": "141106000",
        "province": "Benguet",
        "reference_area_sqkm": 438.15593933,
        "reference_bbox": [
          120.62554748000002,
          16.183926918000054,
          120.80005260900009,
          16.476644339000075
        ]
      },
      "geometry": {
        "type": "Polygon",
        "coordinates": [
          [
            [
              120.62851795100005,
              16.363138680000077
            ],
            [
              120.6335876060001,
              16.357878585000037
            ],
            [
              120.63148274700006,
              16.353546506000043
            ],
            [
              120.631797731,
              16.344911740000043
            ],
            [
              120.63999363500011,
              16.33263471400005
            ],
            [
              120.64680245000011,
              16.328592455000035
            ],
            [
              120.64908459500009,
              16.310997497000074
            ],
            [
              120.64666103600007,
              16.305418288000055
            ],
            [
              120.63971735400003,
              16.29982179900003
            ],
            [
              120.6408488620001,
              16.288064535000046
            ],
            [
              120.64576514800001,
              16.282217212000035
            ],
            [
              120.64680272400005,
              16.27742945400007
            ],
            [
              120.64327147100005,
              16.261823409000044
            ],
            [
              120.637979846,
              16.25997891800006
            ],
            [
              120.63710063200006,
              16.257680599000025
            ],
            [
              120.63594757200008,
              16.252163221000046
            ],
            [
              120.63770600900011,
              16.246433221000075
            ],
            [
              120.63577920600005,
              16.241611247000037
            ],
            [
              120.63572878800005,
              16.223499487000026
            ],
            [
              120.62554748000002,
              16.19798548700004
            ],
            [
              120.63016696400007,
              16.196197701000074
            ],
            [
              120.62940579400004,
              16.192898212000046
            ],
            [
              120.63264559400011,
              16.18986848000003
            ],
            [
              120.63063283000008,
              16.185849930000074
            ],
            [
              120.63237185700007,
              16.183949238000025
            ],
            [
              120.68196558300008,
              16.183926918000054
            ],
            [
              120.69775323600004,
              16.191001208000046
            ],
            [
              120.71715609900002,
              16.192864986000075
            ],
            [
              120.76896590800004,
              16.198033657000053
            ],
            [
              120.78636563100008,
              16.255991836000078
            ],
            [
              120.80005260900009,
              16.304845744000033
            ],
            [
              120.79610273500009,
              16.332068985000035
            ],
            [
              120.78774849800004,
              16.363833128000067
            ],
            [
              120.75670828400007,
              16.41799241700005
            ],
            [
              120.73565790700002,
              16.42130953800006
            ],
            [
              120.7057269500001,
              16.42335668100003
            ],
            [
              120.71801421700002,
              16.438811187000056
            ],
            [
              120.72130966600002,
              16.465404877000026
            ],
            [
              120.71724062500004,
              16.472571155000026
            ],
            [
              120.71534001300006,
              16.47288190100005
            ],
            [
              120.71700214500004,
              16.474963179000042
            ],
            [
              120.71387300100002,
              16.47410320700004
            ],
            [
              120.7140319880001,
              16.47608331200007
            ],
            [
              120.71292630900007,
              16.475136619000068
            ],
            [
              120.70765393900001,
              16.476644339000075
            ],
            [
              120.6967647130001,
              16.471520826000074
            ],
            [
              120.66092922400003,
              16.454856910000046
            ],
            [
              120.6586322390001,
              16.455605926000032
            ],
            [
              120.65909829400005,
              16.45803607000005
            ],
            [
              120.64362734100007,
              16.442615471000067
            ],
            [
              120.64443775100005,
              16.437846166000043
            ],
            [
              120.6455776570001,
              16.437624518000064
            ],
            [
              120.64207371700002,
              16.42895461300003
            ],
            [
              120.6296130610001,
              16.428606459000036
            ],
            [
              120.63320036000005,
              16.39678626700004
            ],
            [
              120.6360478690001,
              16.38613994800005
            ],
            [
              120.63418599700003,
              16.36272251400004
            ],
            [
              120.62851795100005,
              16.363138680000077
            ]
          ]
        ]
      }
    },
    {
      "type": "Feature",
      "properties": {
        "shapeName": "Kabayan",
        "shapeISO": "",
        "shapeID": "30758251B34627250160857",
        "shapeGroup": "PHL",
        "shapeType": "ADM3",
        "psgc_code": "1401107000",
        "legacy_psgc_code": "141107000",
        "province": "Benguet",
        "reference_area_sqkm": 190.17825829,
        "reference_bbox": [
          120.75456098500001,
          16.555672956000024,
          120.92950614800009,
          16.692844897000043
        ]
      },
      "geometry": {
        "type": "Polygon",
        "coordinates": [
          [
            [
              120.75456098500001,
              16.569887153000025
            ],
            [
              120.79639369800009,
              16.56837590400005
            ],
            [
              120.80565856500004,
              16.563136284000052
            ],
            [
              120.852836464,
              16.555835676000072
            ],
            [
              120.89210972500007,
              16.558460226000022
            ],
            [
              120.90440899500004,
              16.595359904000077
            ],
            [
              120.92950614800009,
              16.600053544000048
            ],
            [
              120.91516794800009,
              16.62996236300006
            ],
            [
              120.89432851800007,
              16.692844897000043
            ],
            [
              120.864921,
              16.682857
            ],
            [
              120.8403786660001,
              16.678004092000037
            ],
            [
              120.798263,
              16.676721
            ],
            [
              120.78635211500011,
              16.678985526000076
            ],
            [
              120.78656920700007,
              16.67481553400006
            ],
            [
              120.7839484750001,
              16.66627647000007
            ],
            [
              120.78587430400012,
              16.655309765000027
            ],
            [
              120.78105375700011,
              16.643147772000077
            ],
            [
              120.78397571800008,
              16.63077667500005
            ],
            [
              120.77687722900009,
              16.62786655700006
            ],
            [
              120.77455797200003,
              16.616677156000037
            ],
            [
              120.76970522600004,
              16.60687551600006
            ],
            [
              120.76625251400003,
              16.60332866600004
            ],
            [
              120.75456098500001,
              16.569887153000025
            ]
          ]
        ]
      }
    },
    {
      "type": "Feature",
      "properties": {
        "shapeName": "Kapangan",
        "shapeISO": "",
        "shapeID": "30758251B17255873954553",
        "shapeGroup": "PHL",
        "shapeType": "ADM3",
        "psgc_code": "1401108000",
        "legacy_psgc_code": "141108000",
        "province": "Benguet",
        "reference_area_sqkm": 180.96918408,
        "reference_bbox": [
          120.51203773400005,
          16.543408400000033,
          120.67944756500003,
          16.692408458000045
        ]
      },
      "geometry": {
        "type": "Polygon",
        "coordinates": [
          [
            [
              120.67944756500003,
              16.630651439000076
            ],
            [
              120.67119438000009,
              16.63708169000006
            ],
            [
              120.66712649300007,
              16.643624011000043
            ],
            [
              120.63292580300003,
              16.661914979000073
            ],
            [
              120.58222139700001,
              16.692408458000045
            ],
            [
              120.57452221100004,
              16.671264867000048
            ],
            [
              120.57151000700003,
              16.672513195000022
            ],
            [
              120.5650648840001,
              16.669766382000034
            ],
            [
              120.54121983300001,
              16.638014294000072
            ],
            [
              120.51785667800004,
              16.594691728000043
            ],
            [
              120.51203773400005,
              16.571698316000038
            ],
            [
              120.5159224250001,
              16.571051429000022
            ],
            [
              120.51708050200011,
              16.568623203000072
            ],
            [
              120.5133821280001,
              16.56226312000007
            ],
            [
              120.51635794300012,
              16.558020404000047
            ],
            [
              120.51263136200009,
              16.550257849000047
            ],
            [
              120.56889795000006,
              16.547376216000032
            ],
            [
              120.58783865500004,
              16.543408400000033
            ],
            [
              120.61800515400012,
              16.544331339000053
            ],
            [
              120.64574449500003,
              16.55149787000005
            ],
            [
              120.64318805300002,
              16.564463871000044
            ],
            [
              120.64414923900006,
              16.603173579000043
            ],
            [
              120.66412423600002,
              16.620814110000026
            ],
            [
              120.6690906660001,
              16.62231250700006
            ],
            [
              120.66984029500009,
              16.624653429000034
            ],
            [
              120.67292820800003,
              16.62536426300005
            ],
            [
              120.67944756500003,
              16.630651439000076
            ]
          ]
        ]
      }
    },
    {
      "type": "Feature",
      "properties": {
        "shapeName": "Kibungan",
        "shapeISO": "",
        "shapeID": "30758251B24433463121222",
        "shapeGroup": "PHL",
        "shapeType": "ADM3",
        "psgc_code": "1401109000",
        "legacy_psgc_code": "141109000",
        "province": "Benguet",
        "reference_area_sqkm": 167.11283852,
        "reference_bbox": [
          120.58222139700001,
          16.630651439000076,
          120.75907351500007,
          16.785920177000037
        ]
      },
      "geometry": {
        "type": "Polygon",
        "coordinates": [
          [
            [
              120.75862272800009,
              16.67690921800005
            ],
            [
              120.75893157900009,
              16.680736972000034
            ],
            [
              120.75634123200007,
              16.682724087000054
            ],
            [
              120.75638626500006,
              16.68853596200006
            ],
            [
              120.75273376000007,
              16.692125979000025
            ],
            [
              120.75353440700007,
              16.69320854500006
            ],
            [
              120.745292,
              16.713996
            ],
            [
              120.73395317900008,
              16.72456575800004
            ],
            [
              120.7281481440001,
              16.72760518700005
            ],
            [
              120.69128383000009,
              16.78172201800004
            ],
            [
              120.68260763500007,
              16.785920177000037
            ],
            [
              120.679344,
              16.783641
            ],
            [
              120.6723122200001,
              16.760619464000058
            ],
            [
              120.66680494600007,
              16.754053099000032
            ],
            [
              120.65134850700008,
              16.74323987300005
            ],
            [
              120.64066028200011,
              16.738247853000075
            ],
            [
              120.627265,
              16.734525
            ],
            [
              120.617988,
              16.734127
            ],
            [
              120.59903624900005,
              16.738317935000055
            ],
            [
              120.58222139700001,
              16.692408458000045
            ],
            [
              120.63292580300003,
              16.661914979000073
            ],
            [
              120.66712649300007,
              16.643624011000043
            ],
            [
              120.67119438000009,
              16.63708169000006
            ],
            [
              120.67944756500003,
              16.630651439000076
            ],
            [
              120.68749821300003,
              16.644569664000073
            ],
            [
              120.7015420240001,
              16.645059381000067
            ],
            [
              120.71276196800011,
              16.64362225600007
            ],
            [
              120.71218461300009,
              16.64144224100005
            ],
            [
              120.71642022100002,
              16.645276457000023
            ],
            [
              120.71929474300009,
              16.642798422000055
            ],
            [
              120.72222015300008,
              16.64352497400006
            ],
            [
              120.72320958600005,
              16.64656161100004
            ],
            [
              120.72783797600005,
              16.649311814000043
            ],
            [
              120.7268904880001,
              16.653084018000072
            ],
            [
              120.727938504,
              16.658307467000043
            ],
            [
              120.7308829320001,
              16.659272308000027
            ],
            [
              120.73500845900003,
              16.663747174000036
            ],
            [
              120.73321185900011,
              16.667656443000055
            ],
            [
              120.73068331000002,
              16.66862128300005
            ],
            [
              120.73193094900012,
              16.671532441000068
            ],
            [
              120.72931922500004,
              16.672414106000076
            ],
            [
              120.73083302700002,
              16.677487838000047
            ],
            [
              120.73247991000005,
              16.67700541800002
            ],
            [
              120.73364437400005,
              16.678402774000062
            ],
            [
              120.75862272800009,
              16.67690921800005
            ]
          ]
        ]
      }
    },
    {
      "type": "Feature",
      "properties": {
        "shapeName": "Mankayan",
        "shapeISO": "",
        "shapeID": "30758251B68871031890947",
        "shapeGroup": "PHL",
        "shapeType": "ADM3",
        "psgc_code": "1401111000",
        "legacy_psgc_code": "141111000",
        "province": "Benguet",
        "reference_area_sqkm": 146.1012692,
        "reference_bbox": [
          120.72896588200001,
          16.766972778000024,
          120.85674102600001,
          16.926593121000053
        ]
      },
      "geometry": {
        "type": "Polygon",
        "coordinates": [
          [
            [
              120.80404547,
              16.766972778000024
            ],
            [
              120.8033317070001,
              16.769320684000036
            ],
            [
              120.80505976500001,
              16.769893573000047
            ],
            [
              120.80819908600006,
              16.780172992000075
            ],
            [
              120.80998444800002,
              16.778426323000076
            ],
            [
              120.81121289000009,
              16.78284549400007
            ],
            [
              120.80995872800008,
              16.78323004500004
            ],
            [
              120.81155811200006,
              16.784090916000025
            ],
            [
              120.81073992000006,
              16.784906500000034
            ],
            [
              120.813758,
              16.79256
            ],
            [
              120.816452,
              16.794399
            ],
            [
              120.81791002500006,
              16.80038495100007
            ],
            [
              120.82958336700005,
              16.814611541000033
            ],
            [
              120.83304838200002,
              16.824633575000064
            ],
            [
              120.83558123300008,
              16.826996261000033
            ],
            [
              120.83790269000008,
              16.82604855900007
            ],
            [
              120.84529564400009,
              16.835347071000058
            ],
            [
              120.84812834400009,
              16.83625790800005
            ],
            [
              120.847000309,
              16.838331304000064
            ],
            [
              120.84883421400002,
              16.840034764000052
            ],
            [
              120.856741026,
              16.84185635800003
            ],
            [
              120.8564290710001,
              16.85399791900005
            ],
            [
              120.8520054810001,
              16.85772700900003
            ],
            [
              120.85423092600001,
              16.860931489000052
            ],
            [
              120.85244241700002,
              16.86396382500004
            ],
            [
              120.85100619000002,
              16.87432044600007
            ],
            [
              120.85004227900004,
              16.894031853000058
            ],
            [
              120.85106485100005,
              16.89793572900004
            ],
            [
              120.84886982100011,
              16.900830407000058
            ],
            [
              120.841316387,
              16.90663692100003
            ],
            [
              120.82131214900005,
              16.901669063000043
            ],
            [
              120.81172529700007,
              16.896213617000058
            ],
            [
              120.80120005000003,
              16.89876578700006
            ],
            [
              120.79613820700001,
              16.90044759500006
            ],
            [
              120.78527385300004,
              16.92133500700004
            ],
            [
              120.77062128400007,
              16.921185493000053
            ],
            [
              120.75882434800008,
              16.926498180000067
            ],
            [
              120.74751261300003,
              16.926550587000065
            ],
            [
              120.74668887200005,
              16.923633293000023
            ],
            [
              120.74068769300004,
              16.917780107000056
            ],
            [
              120.73856888600005,
              16.915983209000046
            ],
            [
              120.73626407400002,
              16.917234412000028
            ],
            [
              120.734095722,
              16.914688058000024
            ],
            [
              120.73581488800005,
              16.912303337000026
            ],
            [
              120.73261738400004,
              16.91226098100003
            ],
            [
              120.73065843300003,
              16.90762357600005
            ],
            [
              120.73195126400003,
              16.905678600000044
            ],
            [
              120.72896588200001,
              16.904648526000074
            ],
            [
              120.73360965200004,
              16.90257070900003
            ],
            [
              120.7375377080001,
              16.902669338000067
            ],
            [
              120.7385179580001,
              16.900414819000048
            ],
            [
              120.73580999500007,
              16.898084544000028
            ],
            [
              120.73225123600002,
              16.898525309000036
            ],
            [
              120.73175267300007,
              16.895674834000033
            ],
            [
              120.7334174560001,
              16.89476260600003
            ],
            [
              120.73013856500006,
              16.893384585000035
            ],
            [
              120.72931393400006,
              16.886500956000077
            ],
            [
              120.73435805000008,
              16.88693306400006
            ],
            [
              120.7343932440001,
              16.885076855000023
            ],
            [
              120.731965349,
              16.88366683000004
            ],
            [
              120.73492249200001,
              16.880049824000025
            ],
            [
              120.73258072700003,
              16.878200176000064
            ],
            [
              120.73532967400001,
              16.873022281000033
            ],
            [
              120.73749101800001,
              16.87466353900004
            ],
            [
              120.74361453000006,
              16.82921649900004
            ],
            [
              120.74583933800011,
              16.831239457000038
            ],
            [
              120.74796531900006,
              16.83010384000005
            ],
            [
              120.74615625400008,
              16.82929834400005
            ],
            [
              120.74721264200002,
              16.827925039000036
            ],
            [
              120.74581292800008,
              16.82622161300003
            ],
            [
              120.74744203700004,
              16.82054598800005
            ],
            [
              120.74991374100011,
              16.81869221100004
            ],
            [
              120.75360136300003,
              16.818971274000035
            ],
            [
              120.75491694700008,
              16.81634010600004
            ],
            [
              120.75736871700008,
              16.817695556000047
            ],
            [
              120.7578869780001,
              16.81544311700003
            ],
            [
              120.76065767800003,
              16.81673876800005
            ],
            [
              120.76426556800004,
              16.815064388000053
            ],
            [
              120.76741385900004,
              16.81129901500003
            ],
            [
              120.76869610000006,
              16.803477349000048
            ],
            [
              120.76741385900004,
              16.801242588000036
            ],
            [
              120.784480013,
              16.776600657000074
            ],
            [
              120.80404547,
              16.766972778000024
            ]
          ]
        ]
      }
    },
    {
      "type": "Feature",
      "properties": {
        "shapeName": "Sablan",
        "shapeISO": "",
        "shapeID": "30758251B47648783241888",
        "shapeGroup": "PHL",
        "shapeType": "ADM3",
        "psgc_code": "1401112000",
        "legacy_psgc_code": "141112000",
        "province": "Benguet",
        "reference_area_sqkm": 101.55429773,
        "reference_bbox": [
          120.4673463900001,
          16.444748181000023,
          120.57560705100002,
          16.550257849000047
        ]
      },
      "geometry": {
        "type": "Polygon",
        "coordinates": [
          [
            [
              120.47233806600002,
              16.451502042000072
            ],
            [
              120.50109244400005,
              16.44907997400003
            ],
            [
              120.51160494200008,
              16.446681462000072
            ],
            [
              120.53890510100007,
              16.444748181000023
            ],
            [
              120.53961908000008,
              16.445855125000037
            ],
            [
              120.54599286000007,
              16.44553193400003
            ],
            [
              120.54886870900009,
              16.456943471000045
            ],
            [
              120.55270214200004,
              16.464773367000078
            ],
            [
              120.56043274300009,
              16.510320584000056
            ],
            [
              120.56978297,
              16.508067013000073
            ],
            [
              120.57355283400011,
              16.509585679000054
            ],
            [
              120.57539310000004,
              16.512801677000027
            ],
            [
              120.57544562600003,
              16.516183536000028
            ],
            [
              120.56658141600008,
              16.535981245000073
            ],
            [
              120.56889795000006,
              16.547376216000032
            ],
            [
              120.51263136200009,
              16.550257849000047
            ],
            [
              120.48809029900008,
              16.540866315000073
            ],
            [
              120.47820839000008,
              16.52999621600003
            ],
            [
              120.47904665800002,
              16.522822865000023
            ],
            [
              120.46914610300007,
              16.50847851800006
            ],
            [
              120.4673463900001,
              16.502706239000076
            ],
            [
              120.4712448900001,
              16.48761033100004
            ],
            [
              120.47172054100008,
              16.47964626600003
            ],
            [
              120.47311491200003,
              16.472720889000072
            ],
            [
              120.47233806600002,
              16.451502042000072
            ]
          ]
        ]
      }
    },
    {
      "type": "Feature",
      "properties": {
        "shapeName": "Tuba",
        "shapeISO": "",
        "shapeID": "30758251B14138125500475",
        "shapeGroup": "PHL",
        "shapeType": "ADM3",
        "psgc_code": "1401113000",
        "legacy_psgc_code": "141113000",
        "province": "Benguet",
        "reference_area_sqkm": 341.9426068,
        "reference_bbox": [
          120.44461437400003,
          16.18025614000004,
          120.64908459500009,
          16.451502042000072
        ]
      },
      "geometry": {
        "type": "Polygon",
        "coordinates": [
          [
            [
              120.44461437400003,
              16.38612987700003
            ],
            [
              120.4690371590001,
              16.379756875000055
            ],
            [
              120.48440041100002,
              16.358889514000055
            ],
            [
              120.4822740300001,
              16.354441677000068
            ],
            [
              120.47909265200008,
              16.355366109000045
            ],
            [
              120.48161193700003,
              16.350527416000034
            ],
            [
              120.47980471400001,
              16.34871186600003
            ],
            [
              120.48084990500001,
              16.34760837700003
            ],
            [
              120.49472417200002,
              16.347753779000072
            ],
            [
              120.49628202200006,
              16.34544155100002
            ],
            [
              120.49325875500006,
              16.34198933500005
            ],
            [
              120.49670380700002,
              16.340136633000043
            ],
            [
              120.49615315100004,
              16.335536181000066
            ],
            [
              120.49271586600003,
              16.33569447600007
            ],
            [
              120.49227370100004,
              16.333032598000045
            ],
            [
              120.49060076100011,
              16.33247536500005
            ],
            [
              120.49912476800012,
              16.323063542000057
            ],
            [
              120.49736965000011,
              16.31297650700003
            ],
            [
              120.50082950600006,
              16.293355268000028
            ],
            [
              120.50267899200003,
              16.29305283700006
            ],
            [
              120.50654804300007,
              16.287193684000044
            ],
            [
              120.51059975200008,
              16.275798020000025
            ],
            [
              120.51256863600008,
              16.259845979000033
            ],
            [
              120.51669938400005,
              16.249475371000074
            ],
            [
              120.51182322200009,
              16.23220132700004
            ],
            [
              120.52020294500005,
              16.233441361000075
            ],
            [
              120.54275362300007,
              16.222234379000042
            ],
            [
              120.55802100200003,
              16.218416174000026
            ],
            [
              120.628418151,
              16.18062420900003
            ],
            [
              120.63027393700008,
              16.18047651300003
            ],
            [
              120.63005201800001,
              16.18246047100007
            ],
            [
              120.63237185700007,
              16.183949238000025
            ],
            [
              120.63063283000008,
              16.185849930000074
            ],
            [
              120.63264559400011,
              16.18986848000003
            ],
            [
              120.62940579400004,
              16.192898212000046
            ],
            [
              120.63016696400007,
              16.196197701000074
            ],
            [
              120.62554748000002,
              16.19798548700004
            ],
            [
              120.63572878800005,
              16.223499487000026
            ],
            [
              120.63577920600005,
              16.241611247000037
            ],
            [
              120.63770600900011,
              16.246433221000075
            ],
            [
              120.63594757200008,
              16.252163221000046
            ],
            [
              120.63710063200006,
              16.257680599000025
            ],
            [
              120.637979846,
              16.25997891800006
            ],
            [
              120.64327147100005,
              16.261823409000044
            ],
            [
              120.64680272400005,
              16.27742945400007
            ],
            [
              120.64576514800001,
              16.282217212000035
            ],
            [
              120.6408488620001,
              16.288064535000046
            ],
            [
              120.63971735400003,
              16.29982179900003
            ],
            [
              120.64666103600007,
              16.305418288000055
            ],
            [
              120.64908459500009,
              16.310997497000074
            ],
            [
              120.64680245000011,
              16.328592455000035
            ],
            [
              120.63999363500011,
              16.33263471400005
            ],
            [
              120.631797731,
              16.344911740000043
            ],
            [
              120.63148274700006,
              16.353546506000043
            ],
            [
              120.6335876060001,
              16.357878585000037
            ],
            [
              120.62851795100005,
              16.363138680000077
            ],
            [
              120.62031855300006,
              16.357483428000023
            ],
            [
              120.61204726800008,
              16.35914210800007
            ],
            [
              120.60517075700011,
              16.36408910700004
            ],
            [
              120.60539657800007,
              16.366380080000056
            ],
            [
              120.60126907300003,
              16.36542908000007
            ],
            [
              120.56953396500012,
              16.370247224000025
            ],
            [
              120.56791952600008,
              16.371853671000054
            ],
            [
              120.56812923300004,
              16.375498565000044
            ],
            [
              120.56399909800007,
              16.38007062300005
            ],
            [
              120.56416824900009,
              16.390698839000038
            ],
            [
              120.56771781300006,
              16.391793966000023
            ],
            [
              120.57294522100005,
              16.390158779000046
            ],
            [
              120.57086440100011,
              16.39222075200007
            ],
            [
              120.57125960600001,
              16.39461133700007
            ],
            [
              120.56919283600007,
              16.399820972000043
            ],
            [
              120.55826137100007,
              16.40318366100007
            ],
            [
              120.55457980500012,
              16.40582777900005
            ],
            [
              120.55692564300011,
              16.408159150000074
            ],
            [
              120.54426187700005,
              16.428393922000055
            ],
            [
              120.54516024500003,
              16.43451933800003
            ],
            [
              120.54356019500005,
              16.436621261000028
            ],
            [
              120.54599286000007,
              16.44553193400003
            ],
            [
              120.53961908000008,
              16.445855125000037
            ],
            [
              120.53890510100007,
              16.444748181000023
            ],
            [
              120.51160494200008,
              16.446681462000072
            ],
            [
              120.50109244400005,
              16.44907997400003
            ],
            [
              120.47233806600002,
              16.451502042000072
            ],
            [
              120.46889437800007,
              16.43262661800003
            ],
            [
              120.46996988700005,
              16.424879316000045
            ],
            [
              120.46668338800009,
              16.42375183100006
            ],
            [
              120.46745535200012,
              16.41874485200003
            ],
            [
              120.45895805300006,
              16.416684901000053
            ],
            [
              120.45330749300001,
              16.407515257000057
            ],
            [
              120.45016034500009,
              16.40860245400006
            ],
            [
              120.45027478700001,
              16.406199177000076
            ],
            [
              120.45525300200006,
              16.404883097000038
            ],
            [
              120.4538224800001,
              16.396986618000028
            ],
            [
              120.44789806000006,
              16.392411068000058
            ],
            [
              120.4490343970001,
              16.38875502600007
            ],
            [
              120.44488429500007,
              16.387569282000072
            ],
            [
              120.44461437400003,
              16.38612987700003
            ]
          ]
        ]
      }
    }
  ]
}
