{"type":"FeatureCollection","source":{"dataset":"geoBoundaries gbOpen Philippines ADM2","commit":"41af8f1","boundary_year":2020,"license":"CC BY 3.0 IGO","url":"https://media.githubusercontent.com/media/wmgeolab/geoBoundaries/41af8f1/releaseData/gbOpen/PHL/ADM2/geoBoundaries-PHL-ADM2_simplified.geojson","api":"https://www.geoboundaries.org/api/current/gbOpen/PHL/ADM2/","sourceOrganizations":["NAMRIA","PSA","OCHA Philippines"],"retrievedAt":"2026-09-03","notice":"Approximate planning/reference province boundary; not legal, cadastral, or survey-grade."},"features":[{"type":"Feature","geometry":{"type":"Polygon","coordinates":[[[121.3121526430001,15.19876970100006],[121.26767993200008,15.198757712000031],[121.2509377880001,15.201790574000029],[121.2507208720001,15.20450820900004],[121.24709297200002,15.205962408000062],[121.245932906,15.209790865000059],[121.24317231400005,15.209739053000021],[121.24088545600011,15.204167465000069],[121.23700998400011,15.202618352000059],[121.23666084000001,15.203935713000021],[121.239267476,15.205724282000062],[121.23803850800005,15.212249233000023],[121.23580040500008,15.207219831000032],[121.21475862200009,15.217910724000035],[121.21186207300002,15.222340261000056],[121.20586911300006,15.220254056000044],[121.20325273700007,15.221544442000038],[121.20170727000004,15.225943958000073],[121.19482332600012,15.233297358000073],[121.19473382300009,15.235851789000037],[121.19700560700005,15.238475153000024],[121.1920442060001,15.24349139800006],[121.18947511600004,15.253460919000077],[121.18841100500003,15.255159559000049],[121.18253909000009,15.256848438000077],[121.18263539400004,15.259444657000074],[121.18630504200007,15.262717556000041],[121.18658750000009,15.265003016000037],[121.18338382600007,15.266394172000048],[121.17692140300005,15.266261518000022],[121.17631774000006,15.267696254000043],[121.17957473800004,15.270615693000025],[121.15136407200009,15.27055548800007],[121.14503048900008,15.27219688300005],[121.1163055830001,15.265820260000055],[121.07470719000003,15.268369465000035],[121.05388625600006,15.262395655000034],[121.05089392600007,15.263225748000025],[121.04389601200012,15.26001793000006],[121.0439731240001,15.257195582000065],[121.04119162000006,15.253948095000055],[121.03872204800007,15.254407316000027],[121.03644290000011,15.252462898000033],[121.030409211,15.253747458000078],[121.02805398600003,15.25163230000004],[121.01977551000004,15.25266745500005],[121.01506446700012,15.24951528400004],[121.01185235000003,15.24945047600005],[121.01181881500008,15.247455799000022],[121.00999361900006,15.246494682000048],[121.00689380600011,15.247439060000033],[121.00451112000007,15.24638135300006],[121.005015264,15.244197368000073],[121.00086241500003,15.241963544000043],[121.00108672700003,15.239423937000026],[120.998110816,15.234714169000029],[120.988287162,15.231185831000062],[120.98649993100003,15.22783299100007],[120.98362720300008,15.226139498000066],[120.98278269000002,15.227862002000052],[120.97960949500009,15.226932142000067],[120.97659659800001,15.229614593000065],[120.96982373800006,15.225237245000073],[120.960106117,15.224896074000071],[120.95466579100002,15.228813455000022],[120.95279033600002,15.228538568000033],[120.95006743700003,15.223498729000028],[120.94254834700007,15.22221028100006],[120.940790805,15.218468647000066],[120.92865891600002,15.216318620000038],[120.92942231000006,15.207952639000041],[120.93177915100011,15.208392079000078],[120.93341741300003,15.200785508000024],[120.92931009000006,15.199636775000045],[120.9308315830001,15.196247916000061],[120.93230875900008,15.196237003000022],[120.9324332760001,15.193066286000033],[120.93034308100005,15.190703018000022],[120.93073179400005,15.186784534000026],[120.9294976540001,15.186629227000026],[120.92876773100011,15.18131754500007],[120.92049020200011,15.18148147100004],[120.92065614600006,15.178870505000077],[120.91771968500007,15.178323680000062],[120.91557604600007,15.175589763000062],[120.92102533200011,15.169070013000066],[120.9214318810001,15.167561829000022],[120.9188935950001,15.167347136000046],[120.91862860200001,15.16558051800007],[120.91997814400008,15.164322097000024],[120.9199404530001,15.160289158000069],[120.9219663450001,15.159949939000057],[120.92278612400003,15.156680244000029],[120.92127848400003,15.155285676000062],[120.92967415700002,15.148501293000038],[120.93350921800004,15.148586098000067],[120.93588375200011,15.143130324000026],[120.93795675800004,15.144016063000038],[120.94017877200008,15.143102256000077],[120.94046981000008,15.141467968000029],[120.94236432800005,15.142196759000058],[120.94350694400009,15.139146056000072],[120.94853832000001,15.135935509000035],[120.94835297100008,15.130526232000022],[120.95159873400007,15.132308961000035],[120.951486971,15.127858595000077],[120.94512232800002,15.123425603000044],[120.94621457100004,15.12018647900004],[120.94536873000004,15.11795204200007],[120.94377008600009,15.117641998000067],[120.94508221600006,15.11460938700003],[120.94225392200008,15.112628537000035],[120.94233648300008,15.109984591000057],[120.9373041980001,15.108325616000059],[120.93854988900011,15.106777400000055],[120.93830075100004,15.102292911000063],[120.93356712400009,15.097203372000024],[120.9332823950001,15.089088583000034],[120.93093337700009,15.089480086000037],[120.92892247500004,15.087451389000023],[120.92406427900005,15.088145417000021],[120.917591162,15.08424896300005],[120.91585361200009,15.086269370000025],[120.91190708500005,15.087427736000052],[120.90273443800004,15.085797942000056],[120.89808489900008,15.072300916000074],[120.90678954500004,15.060389046000068],[120.91037207200009,15.059135535000053],[120.90766918300005,15.054577236000057],[120.91280598700007,15.055573676000051],[120.91414283300003,15.051175895000029],[120.9173272920001,15.050382497000044],[120.9186423760001,15.047806672000036],[120.92674742200006,15.042479143000037],[120.92733762500006,15.040616895000028],[120.93044287900011,15.04122049600005],[120.93179319,15.039632440000048],[120.929088,15.040030491000039],[120.92860424100002,15.035878718000049],[120.926543035,15.035363432000054],[120.92392291600004,15.036806563000027],[120.92344106100006,15.039034956000023],[120.92234472700011,15.037216482000076],[120.9202338230001,15.039390206000064],[120.91970633300002,15.03852323700005],[120.91588945500007,15.03996522600005],[120.91594417700003,15.038132046000044],[120.91249670500008,15.037010250000037],[120.91171771000006,15.034560421000037],[120.91376209600003,15.024651363000032],[120.91190376400004,15.022824139000022],[120.9074343530001,15.022834961000058],[120.90508601800002,15.024295906000077],[120.90334911600007,15.022331746000077],[120.90125509400002,15.022753797000064],[120.90099537100002,15.025432197000043],[120.89514056700011,15.02888708100005],[120.89412917900006,15.031267330000048],[120.89191458900007,15.032226405000074],[120.89044110100008,15.030866263000064],[120.8930820060001,15.015760345000047],[120.88904848700008,15.014122937000025],[120.88102061500001,15.014221489000022],[120.87527743900012,15.009247170000037],[120.88006867800004,15.010285665000026],[120.8781569030001,15.007429804000026],[120.8810363660001,15.003039802000046],[120.87675257400008,14.999794505000068],[120.88192144700008,14.999841710000055],[120.8853083570001,14.997929935000059],[120.88544997000008,14.99625418200003],[120.88304255000003,14.998165956000037],[120.88097736100008,14.996879639000042],[120.8841164480001,14.99523928900004],[120.8852105090001,14.991255274000025],[120.87911808800004,14.990604713000039],[120.88062141300009,14.984907904000067],[120.87958072900005,14.982268872000077],[120.87263100700011,14.981723423000062],[120.87317702200005,14.980583914000022],[120.8719127380001,14.980028737000055],[120.86530618300003,14.979973322000035],[120.86474149300011,14.977814275000071],[120.85629099500011,14.976220701000045],[120.85649547100002,14.975277843000072],[120.85222080200003,14.973840105000022],[120.85375960600004,14.971497959000033],[120.85167469700002,14.970742273000042],[120.85588776100008,14.960068027000034],[120.8510771120001,14.957448636000038],[120.8467495220001,14.957592696000063],[120.84643456100002,14.954945294000026],[120.83555044700006,14.954888668000024],[120.832955319,14.956994027000064],[120.82971367000005,14.956703081000057],[120.82603448800012,14.953494921000072],[120.82315083300011,14.953539040000067],[120.82079303800003,14.951110005000032],[120.80584192800006,14.944397086000038],[120.77207023500011,14.924057166000068],[120.75233278900009,14.930478785000048],[120.74580771700005,14.92968963900006],[120.74333233400012,14.930981861000078],[120.73333087200001,14.928257064000036],[120.73411899100006,14.92265320000007],[120.72853062100012,14.920636063000075],[120.72917658900008,14.915571819000036],[120.7278339180001,14.915451201000053],[120.72575764100009,14.910641975000033],[120.72606955000003,14.908316840000055],[120.72963612300009,14.905821223000032],[120.73126702400009,14.899587247000056],[120.72946583700002,14.894148332000043],[120.72436595600004,14.893194222000034],[120.7216121670001,14.873341453000023],[120.73459066500004,14.873086292000039],[120.7360270150001,14.870179453000048],[120.72841803600011,14.865413968000041],[120.71430458500004,14.861976309000056],[120.71280639800011,14.860421373000065],[120.71310863500003,14.855759677000037],[120.70329721900009,14.836538190000056],[120.69705313800011,14.833358486000066],[120.69808498200007,14.828765640000029],[120.69632039600003,14.82198956700006],[120.69934187000001,14.817579944000045],[120.69892857900004,14.810382227000048],[120.69630391700002,14.804632797000068],[120.69251438700007,14.786715064000077],[120.68662271500011,14.773103611000067],[120.68723721300012,14.770876218000069],[120.6889624150001,14.772051119000025],[120.69245534800007,14.77156836000006],[120.69426880800006,14.774770778000061],[120.69644499000003,14.772680606000051],[120.69694536600002,14.773636588000045],[120.70053198200003,14.771766570000068],[120.69851782800004,14.770306395000034],[120.69841522800004,14.768313900000066],[120.70793616900005,14.766229229000032],[120.7084699080001,14.768673743000022],[120.71227886500003,14.766287618000035],[120.7144223030001,14.767792479000036],[120.71861874400008,14.764808879000043],[120.7212752150001,14.76595586600007],[120.72090492300003,14.764988834000064],[120.72412013300004,14.763456963000067],[120.72762845600005,14.77119725700004],[120.73208523400001,14.772591722000072],[120.73401511700001,14.771287044000076],[120.73820768600001,14.773445609000078],[120.74228793600003,14.76673669400003],[120.74248528900011,14.761720447000073],[120.75011089700001,14.758815152000068],[120.7531546990001,14.76950362100007],[120.75064599300003,14.773175858000059],[120.75155435500005,14.774023689000046],[120.7543068870001,14.771260089000066],[120.75798587100007,14.777877690000025],[120.7590129570001,14.777323890000048],[120.75314824500003,14.764401857000053],[120.75564382100004,14.758912065000061],[120.76688659400008,14.763900136000075],[120.766484106,14.768904749000058],[120.7740102680001,14.759458539000036],[120.78395789500007,14.757487552000043],[120.78800113300008,14.759592525000073],[120.78777664100005,14.763715009000066],[120.789064327,14.76389127400006],[120.7894153420001,14.767378947000054],[120.79063698700008,14.767568706000077],[120.79030828500004,14.760705065000025],[120.80141902000003,14.754859574000022],[120.80438830700007,14.756882463000068],[120.80354043800003,14.757700508000028],[120.80532192600003,14.75767830500007],[120.80328562400007,14.758751967000023],[120.80372276100002,14.761282154000071],[120.80596235300004,14.75909981600006],[120.81007192600009,14.761687898000048],[120.8102821010001,14.75815932100005],[120.8150680980001,14.758417571000052],[120.81580803200006,14.759113608000064],[120.81365876000007,14.760876118000056],[120.81344797300005,14.763558775000035],[120.81443818100001,14.76025960000004],[120.81696072700004,14.76018093600004],[120.8203836570001,14.768439794000074],[120.82032869500006,14.773498442000061],[120.81777384000009,14.777034056000048],[120.8189455690001,14.777901136000025],[120.82291098100006,14.768427947000077],[120.81976702600002,14.762517858000024],[120.82151958500003,14.757586222000043],[120.82563491600001,14.75561908800006],[120.82972699800007,14.757971005000059],[120.82878332300004,14.759317749000047],[120.83095954200007,14.762033983000038],[120.82549485200002,14.770264438000027],[120.82702565500006,14.770929249000062],[120.83273085400003,14.763671165000062],[120.83619909300012,14.76636238900005],[120.84144111800003,14.765504871000076],[120.838927839,14.761698083000056],[120.83991623300005,14.755326163000063],[120.84183850500006,14.753602037000064],[120.84118609100005,14.752704833000053],[120.8376273130001,14.753717657000038],[120.83589743100003,14.750798921000069],[120.83682552300002,14.74588532200005],[120.83813548100011,14.74659930200005],[120.83738986800006,14.745023787000036],[120.84164533100011,14.73940607700007],[120.84294285600004,14.740153141000064],[120.84897145800005,14.734373087000051],[120.85116489500001,14.736390351000068],[120.8506644680001,14.734518918000049],[120.85566796900002,14.730119655000067],[120.855227538,14.729089215000045],[120.86285814400003,14.724956073000044],[120.86050778100002,14.722449031000053],[120.8650464320001,14.719489225000075],[120.86776366400011,14.724454542000046],[120.88063242400005,14.720332862000078],[120.87845568300008,14.714740065000058],[120.88328360500009,14.71255880700005],[120.88269980100006,14.710750225000027],[120.8876598390001,14.70994905200007],[120.89100280000002,14.711633277000033],[120.89068945300005,14.713394858000072],[120.90040209100005,14.71932845200007],[120.90177599900005,14.723792303000039],[120.90508095100006,14.724177159000021],[120.90472839900008,14.716065239000045],[120.90667749500005,14.715227164000055],[120.909660916,14.717172591000065],[120.91048761800005,14.715556297000035],[120.90666804700004,14.71396994500003],[120.90234610900006,14.716192711000076],[120.89983340000003,14.712679992000062],[120.901199732,14.707805871000062],[120.90647361100002,14.700914682000075],[120.91416393100008,14.707311064000066],[120.91458983600012,14.712072139000043],[120.91841488700004,14.712960826000028],[120.9263782050001,14.705351413000074],[120.92733208400011,14.702649063000024],[120.93012120100002,14.702222168000048],[120.94533687500007,14.688489937000043],[120.95312750500011,14.694240067000067],[120.92938202800008,14.724312091000058],[120.93057831200008,14.72495208600003],[120.92664292400002,14.732951036000031],[120.92573807300005,14.732636787000047],[120.92669637300003,14.735891321000054],[120.93407246800007,14.73314937300006],[120.93633694300001,14.736818515000039],[120.94139839400009,14.737112462000027],[120.94371322100005,14.733749728000078],[120.9492786620001,14.734196689000044],[120.9595504240001,14.719873626000037],[120.96275318500011,14.71985064200004],[120.96317694600009,14.721462755000061],[120.96775241700004,14.72388926800005],[120.97015428600002,14.721655536000071],[120.97269512000003,14.724105380000026],[120.97609159500007,14.724584295000056],[120.97559082500004,14.72566323600006],[120.97792106700001,14.72410767200006],[120.98298298400005,14.725317432000054],[120.97852281100006,14.734806719000062],[120.98106158100006,14.735977454000022],[120.98051462800004,14.737421458000028],[120.9858246230001,14.750747666000052],[120.98925800900008,14.753780507000045],[120.98898521500007,14.757223791000058],[120.99481552800012,14.75635161300005],[120.99781994400007,14.758378777000075],[120.99939129200004,14.754748428000028],[121.0025716340001,14.75341491000006],[121.00833460600006,14.754411855000058],[121.00926151600004,14.757005941000045],[121.02402399100004,14.763034879000031],[121.0266373400001,14.771406580000075],[121.02385302800008,14.77264812900006],[121.02354489900006,14.774142135000034],[121.02730961300006,14.774709380000047],[121.02581714200005,14.776249918000076],[121.02809062000006,14.777862723000055],[121.02487615000007,14.779236322000031],[121.0276884220001,14.779842706000068],[121.028329718,14.781832778000023],[121.0304320240001,14.781451529000037],[121.03060207100009,14.784248399000035],[121.03224722300001,14.78289910500007],[121.0342391370001,14.784713135000061],[121.03589170600003,14.783681028000046],[121.03639193000004,14.785159689000068],[121.03841659800003,14.785247081000023],[121.04130584100005,14.783938283000055],[121.0418419670001,14.78166316000005],[121.043943839,14.780403640000031],[121.04992521500003,14.783156044000066],[121.05351181800006,14.782802039000046],[121.05433392900011,14.781191037000042],[121.055420507,14.782563240000059],[121.05734594900002,14.780208452000068],[121.05921910000006,14.780731798000033],[121.05975584200007,14.776918612000031],[121.06161036600008,14.779321996000021],[121.06281189200001,14.778688669000076],[121.06289722200006,14.774850638000032],[121.06549843300002,14.777533222000045],[121.06706325800008,14.776512402000037],[121.0666948920001,14.773695643000053],[121.07150042900003,14.775874928000064],[121.07265401000006,14.774639440000044],[121.07207683400009,14.771780896000053],[121.07718593300001,14.77664971200005],[121.07762784800002,14.773434388000055],[121.08057925900005,14.773136531000034],[121.08093383800008,14.771124569000051],[121.0822836960001,14.77485850200003],[121.08373347800011,14.773054494000064],[121.0864123670001,14.773704547000023],[121.08797392500003,14.770658196000056],[121.08627529500006,14.769073169000023],[121.08710074800001,14.76797293900006],[121.08946408500003,14.769480846000022],[121.09177302800003,14.767281383000068],[121.09449374200005,14.771014739000066],[121.09523367300005,14.768506099000035],[121.09665808700004,14.768419146000042],[121.0987731350001,14.771533784000042],[121.09950653900012,14.76920958900007],[121.10657054500007,14.770127148000029],[121.10651916200004,14.771458256000074],[121.11009679600011,14.774030258000039],[121.10879204500009,14.77503162100004],[121.10978724400002,14.776487298000063],[121.11641747500005,14.78091194500007],[121.11768507900001,14.787190742000064],[121.11953751700003,14.787033618000066],[121.12126503600007,14.784510515000022],[121.12483687300005,14.788446461000035],[121.12567462900006,14.787059251000073],[121.12696550500004,14.787478795000027],[121.1274102540001,14.789241960000027],[121.12486077900007,14.792960556000025],[121.12600723800006,14.793599825000058],[121.12760864000006,14.791336192000074],[121.12740269300002,14.794361651000031],[121.13017973900003,14.793413317000045],[121.12938129300005,14.79676678900006],[121.13057186600008,14.796333056000037],[121.13176909800006,14.799349451000069],[121.13396922400011,14.799766689000023],[121.13474480700006,14.801414775000069],[121.13677212800008,14.801354218000029],[121.13733236200005,14.803775250000058],[121.14318830000002,14.804041920000031],[121.1478186490001,14.801415686000041],[121.15052962900006,14.801784266000027],[121.16288360300007,14.812275578000026],[121.16528463600002,14.823417534000043],[121.1879882930001,14.823554116000025],[121.19251978000011,14.82091428800004],[121.19665268000006,14.821126651000043],[121.19724729500001,14.818441083000039],[121.20335026400005,14.81783013200004],[121.20648669400009,14.819685853000067],[121.2083554830001,14.817918344000077],[121.21232502700002,14.820175920000054],[121.22106455700009,14.81971199000003],[121.22241714300003,14.822577249000062],[121.21925184400004,14.833223191000059],[121.22169554600009,14.834210990000031],[121.23048364800002,14.831287376000034],[121.23395005600003,14.832401462000064],[121.2377431760001,14.831039075000035],[121.243216544,14.831573923000064],[121.25299686000005,14.829226647000041],[121.33035662500004,14.834802543000023],[121.33315947800008,14.840470453000023],[121.3318304610001,14.848530398000037],[121.33555014700005,14.848280439000064],[121.336945807,14.879966409000076],[121.34011224500011,14.886441354000056],[121.34031048800011,14.922042306000037],[121.33820501800005,14.947222596000074],[121.34785653300003,14.996370968000065],[121.33576784200011,15.041492187000074],[121.33205404700004,15.072036283000045],[121.32884713800001,15.08529046800004],[121.32344621100003,15.095825838000053],[121.31965715800004,15.116397642000038],[121.32052488400006,15.14128271800007],[121.31879139300008,15.164067442000032],[121.31006640500004,15.191303677000064],[121.3121526430001,15.19876970100006]]]},"properties":{"shapeName":"Bulacan","shapeISO":"","shapeID":"2640588B70472166839855","shapeGroup":"PHL","shapeType":"ADM2"}}]}
