{"type":"FeatureCollection","source":{"dataset":"geoBoundaries gbOpen PHL ADM3","commit":"9469f09","license":"CC BY 3.0 IGO","boundary_year":2020,"url":"https://media.githubusercontent.com/media/wmgeolab/geoBoundaries/9469f09/releaseData/gbOpen/PHL/ADM3/geoBoundaries-PHL-ADM3_simplified.geojson","upstream_sources":["NAMRIA","PSA","OCHA Philippines"],"reference":"https://ulap-nga.georisk.gov.ph/arcgis/rest/services/PSA/Municipal/MapServer/0","psgc_reference":"https://psa.gov.ph/classification/psgc/provinces/0500000000","area_notes":"Bicol references use OCHA Philippines COD-AB v03 published polygon area_sqkm, converted to hectares for the importer comparison. These are polygon checks, not PSA LMB land-area totals. See docs/BICOL_BOUNDARY_SOURCES.md.","additional_reference":"https://data.humdata.org/dataset/cod-ab-phl","full_source_url":"https://media.githubusercontent.com/media/wmgeolab/geoBoundaries/9469f09/releaseData/gbOpen/PHL/ADM3/geoBoundaries-PHL-ADM3.geojson","notice":"Approximate planning/reference boundaries, not legal, cadastral, or survey-grade."},"features":[{"type":"Feature","properties":{"shapeName":"Basud","shapeISO":"","shapeID":"30758251B50616374221449","shapeGroup":"PHL","shapeType":"ADM3","psgc_code":"0501601000","legacy_psgc_code":"051601000","province":"Camarines Norte"},"geometry":{"type":"Polygon","coordinates":[[[123.03237773700005,14.067508729000053],[123.02825571100004,14.071061754000027],[123.01115210000012,14.074043048000021],[123.0096074710001,14.075468034000039],[123.01105861100007,14.077814892000049],[123.00871037500008,14.079919496000059],[122.99823615100001,14.08003588400004],[122.99624416300003,14.081663390000074],[122.99685319000002,14.088577757000053],[122.96491713400007,14.085735727000042],[122.95709736700007,14.088275070000066],[122.94441605800012,14.076478050000048],[122.938929991,14.073459501000059],[122.93129622200001,14.064588093000054],[122.92610010500005,14.057448630000067],[122.91877043700003,14.05519389400007],[122.91993108100007,14.052411994000067],[122.9137678840001,14.045144723000021],[122.90212601400003,14.038002038000059],[122.87251090100006,14.013678797000068],[122.86911989700002,14.012356904000058],[122.86789136700008,13.995916661000024],[122.87085448800008,13.996764169000073],[122.87127217800003,13.999256795000065],[122.87186815900009,13.99663590800003],[122.87257154300005,13.998256152000067],[122.87387916500006,13.996637833000023],[122.87716033800007,13.997139136000044],[122.87797803400008,13.995797401000061],[122.87686732800012,13.994095498000036],[122.88133014900006,13.994056236000063],[122.88202757200008,13.99279387300004],[122.88350332400012,13.993482854000035],[122.88619969600006,13.992055621000077],[122.886444,13.988787090000073],[122.91782974400007,13.979349146000061],[122.92511376900006,13.978355837000038],[122.93065684500004,13.973022694000065],[122.93151233700007,13.97001980500005],[122.93432387200005,13.971438455000055],[122.939351009,13.965688259000046],[122.93092731900003,13.960665473000063],[122.92890935600008,13.955211236000025],[122.92512487500005,13.957570318000023],[122.92452458600008,13.954265754000062],[122.92693936300009,13.952122903000031],[122.92703768900003,13.949932250000074],[122.92429495200008,13.94523543400004],[122.91333867600008,13.939665857000023],[122.9206084220001,13.938803076000056],[122.92248369000004,13.936572030000036],[122.92448373800005,13.937720640000066],[122.92383142500012,13.934987057000058],[122.9256313200001,13.933176457000059],[122.92399562800006,13.931669793000026],[122.92506970000011,13.929393145000063],[122.92424381500007,13.927750349000064],[122.9257253720001,13.925287842000046],[122.92309044100011,13.922154160000048],[122.9239657380001,13.91974896000005],[122.92667827000002,13.919010267000033],[122.92897968800003,13.922242766000068],[122.93471289000001,13.92049015300006],[122.93592525100007,13.922040757000048],[122.93901622400006,13.921315249000031],[122.94065676800005,13.922917850000033],[122.94525985100006,13.921653622000065],[122.946346962,13.919446552000068],[122.95698706100006,13.918252184000039],[123.0082219090001,13.879259786000034],[123.00853495800004,13.887325256000054],[123.012213986,13.89268188400007],[123.02979896600004,13.893139752000025],[123.04293997500008,13.897405397000057],[123.037747996,13.89975927300003],[123.03609901200002,13.901993136000044],[123.03699902500011,13.904276982000056],[123.03484303100004,13.904743964000033],[123.03645804400003,13.907335785000043],[123.04853304200003,13.909472575000052],[123.05175802200006,13.906853727000055],[123.05771401800007,13.907481651000069],[123.05195205200005,13.911953392000044],[123.05303105900009,13.91321630400006],[123.05113207500006,13.915419171000053],[123.05218208200006,13.91684807100006],[123.0509100910001,13.918109996000055],[123.05381712100007,13.923607619000052],[123.05159813900002,13.926110469000037],[123.05369314000006,13.92663142200007],[123.05369315700011,13.929446238000025],[123.0451812010001,13.934866933000023],[123.05998522700008,13.942247365000071],[123.05813527200007,13.949131925000074],[123.06511129300009,13.954124558000046],[123.06344934100002,13.961660076000044],[123.05530939900007,13.969352620000052],[123.04808041800004,13.970923560000074],[123.04437041100005,13.969040705000054],[123.04363043500007,13.972808463000035],[123.03430089400001,13.980283715000041],[123.0358380130001,13.983610526000064],[123.03457976600009,13.984189560000061],[123.03462102900005,13.986566649000054],[123.03259253600004,13.986863609000068],[123.02868148200002,13.977302257000076],[123.02252152000005,13.982231971000033],[123.01607253600002,13.983439930000031],[123.01846254400004,13.985297794000076],[123.01466572100003,13.985482902000058],[123.0131468290001,13.988267295000071],[123.01513148400011,13.988897941000062],[123.01349805200005,13.990589914000054],[123.01487464800005,13.991724161000036],[123.01280454800008,13.994038652000029],[123.01398301200004,13.995726927000021],[123.01303139200002,13.99678261400004],[123.01598869400004,13.997831263000023],[123.01631695200001,13.999799695000036],[123.0143912630001,14.000833845000045],[123.01611797300006,14.000679938000076],[123.0177722520001,14.006694014000061],[123.01904612700002,14.005987117000075],[123.02029775000005,14.007128417000047],[123.0187652950001,14.007373245000053],[123.01843191300009,14.008983740000076],[123.0204090630001,14.009709817000044],[123.01788759500005,14.014710856000022],[123.02095728800009,14.017815528000028],[123.01793734900002,14.019050225000058],[123.01996605800002,14.01986538400007],[123.02007305000006,14.024551604000067],[123.03473281800007,14.025927438000053],[123.02995300500004,14.035893950000059],[123.0304363250001,14.045861854000066],[123.02861817000007,14.050514880000037],[123.03091118100008,14.05886692200005],[123.02984124900001,14.06032775400007],[123.03255451200005,14.065219672000069],[123.03237773700005,14.067508729000053]]]}},{"type":"Feature","properties":{"shapeName":"Capalonga","shapeISO":"","shapeID":"30758251B37893084976776","shapeGroup":"PHL","shapeType":"ADM3","psgc_code":"0501602000","legacy_psgc_code":"051602000","province":"Camarines Norte"},"geometry":{"type":"Polygon","coordinates":[[[122.57784604300002,14.323115596000036],[122.57442092300005,14.324461032000045],[122.57418643200003,14.322407390000023],[122.57171346500002,14.322500080000054],[122.56908189,14.325971895000066],[122.55895580900005,14.331214463000038],[122.55971165300002,14.326658570000063],[122.55688787600002,14.326934580000056],[122.55103157000008,14.331483218000074],[122.55022217700002,14.334492157000057],[122.54483348400004,14.337200299000074],[122.54234566500008,14.334995566000032],[122.53607731900001,14.341266430000076],[122.53241736500001,14.340940765000028],[122.53229200800001,14.336836396000024],[122.52933061500005,14.334900126000036],[122.52727906500002,14.33647296600003],[122.52536534300009,14.342081935000067],[122.52331798400007,14.342087513000024],[122.52204126000004,14.343856884000047],[122.52325470000005,14.345776983000064],[122.5220284940001,14.346653510000067],[122.52394534300004,14.347802948000037],[122.5223377750001,14.349215177000076],[122.52044911500002,14.348043867000058],[122.52147580600001,14.345905123000023],[122.52019366800005,14.343901580000022],[122.5139006820001,14.344573393000076],[122.51306586100009,14.347313340000028],[122.51314249300003,14.345451641000068],[122.51203477600006,14.346128185000055],[122.509189622,14.344008165000048],[122.51523315700001,14.336188621000076],[122.51549118700007,14.330030137000051],[122.52007447200003,14.328050698000027],[122.52037350500007,14.326406285000076],[122.52685645600002,14.322167554000032],[122.51937864800004,14.316985869000064],[122.51770323200003,14.317174587000068],[122.51862476100007,14.317847885000049],[122.51757640300002,14.319211882000047],[122.51170782200006,14.318858823000028],[122.50626453200005,14.326942993000046],[122.50616416100002,14.328438393000056],[122.508281097,14.328570035000041],[122.5084628090001,14.329873166000027],[122.50366707300009,14.329243794000035],[122.50237783500006,14.334581720000074],[122.50457090400005,14.333260594000024],[122.49881379100009,14.337445191000029],[122.49669177200008,14.338000686000044],[122.49485281000011,14.336900249000053],[122.49584570800005,14.336267683000074],[122.49428531500007,14.336641154000063],[122.493166986,14.334788693000064],[122.49461243200005,14.33310403300004],[122.48906932700004,14.33310859900007],[122.49069667700007,14.332344873000068],[122.48767638700008,14.329963322000026],[122.48758216800002,14.327478953000025],[122.477075409,14.329893541000047],[122.47670205300005,14.334113622000075],[122.477885506,14.334849783000038],[122.47637149800005,14.336377559000027],[122.47770613400007,14.336625319000063],[122.47625275000007,14.337301878000062],[122.47721772400007,14.338934309000024],[122.47483516200009,14.33792302300003],[122.47145964800006,14.340165954000042],[122.4690046400001,14.339649681000026],[122.4687223200001,14.33499284100003],[122.4657548670001,14.329920912000034],[122.46686821300011,14.328480618000071],[122.46285097900011,14.329061138000043],[122.46137710500011,14.327279614000076],[122.4596351780001,14.330591168000069],[122.45517208500007,14.329258611000057],[122.45371749800006,14.324223945000028],[122.45478359000003,14.324658899000042],[122.45614330900003,14.320072621000065],[122.455805456,14.322069632000023],[122.45788267300009,14.321182141000065],[122.4565527960001,14.317109444000039],[122.45405926300009,14.319427347000044],[122.45031062300006,14.31797722300007],[122.44885910700009,14.319740554000077],[122.44731866300003,14.31866787000007],[122.44404711400011,14.321801728000025],[122.44305481100002,14.314944738000065],[122.43524532900005,14.316392602000064],[122.43181389400002,14.315251643000067],[122.43491064200009,14.303942531000075],[122.43009469700007,14.299406754000074],[122.42882886200005,14.30095749700007],[122.42967187200009,14.302482955000073],[122.42562451000003,14.305885407000062],[122.42379213200002,14.305759852000051],[122.42260221600009,14.315310708000027],[122.42044677700005,14.315360995000049],[122.41982123800005,14.316693783000062],[122.41609779900011,14.314556690000074],[122.41447209900002,14.31216457100004],[122.4161961850001,14.311214139000072],[122.4168632200001,14.312299331000077],[122.41925842900002,14.309134490000076],[122.41874693900002,14.307239999000046],[122.4166507760001,14.306644020000022],[122.4168817740001,14.303942821000021],[122.41484236300005,14.30373243300005],[122.415249678,14.30069603000004],[122.41264959700004,14.298245664000035],[122.41576693200011,14.294795074000035],[122.41341957700001,14.292179473000033],[122.41277968200006,14.286979013000064],[122.40837601600003,14.285096536000026],[122.4023372900001,14.285109842000054],[122.39918681900008,14.281043926000052],[122.3937339360001,14.279170495000074],[122.39046679400008,14.281612538000047],[122.38944292400004,14.28564308600005],[122.38744173200007,14.285914590000061],[122.38748339800009,14.28829683300006],[122.38504987200008,14.287665200000049],[122.38248257900011,14.281808880000028],[122.38453924700002,14.275870313000041],[122.38076281400004,14.275422828000046],[122.37831942200012,14.269624966000038],[122.3795360150001,14.257157927000037],[122.37251421000008,14.258798826000032],[122.36854348600002,14.252194736000035],[122.36264671200001,14.253656],[122.36087962400006,14.252868284000044],[122.36020805500004,14.247249528000054],[122.36264617800009,14.244098954000037],[122.39655393600003,14.242922345000068],[122.39628053500007,14.236475502000076],[122.39991802700001,14.237943864000044],[122.40193694000004,14.235056473000043],[122.40542583500007,14.234311510000055],[122.40831486400009,14.235785129000021],[122.40855224800009,14.233851429000026],[122.41075364300002,14.23530015700004],[122.41106193200005,14.232580416000076],[122.41425548300003,14.233064221000063],[122.41553096400003,14.231839541000056],[122.4287058110001,14.23234661500004],[122.44378814700008,14.216051253000046],[122.4595700750001,14.206962575000034],[122.4812175510001,14.208623439000064],[122.54569360800008,14.203958898000053],[122.57621281700006,14.208622866000042],[122.57802311000012,14.21022522900006],[122.58301783900004,14.222815410000067],[122.5853528560001,14.258566656000028],[122.58473818800007,14.27811261100004],[122.57961644800002,14.283341053000072],[122.57784604300002,14.323115596000036]]]}},{"type":"Feature","properties":{"shapeName":"Daet","shapeISO":"","shapeID":"30758251B92813581823724","shapeGroup":"PHL","shapeType":"ADM3","psgc_code":"0501603000","legacy_psgc_code":"051603000","province":"Camarines Norte"},"geometry":{"type":"Polygon","coordinates":[[[122.99685319000002,14.088577757000053],[122.99342949900006,14.094596318000072],[122.99353115100007,14.099817537000035],[122.99204241100006,14.101572143000055],[122.99541604300009,14.104992088000074],[122.97885861200007,14.10761879000006],[122.97959331200002,14.113990141000045],[122.98138946000006,14.11486588200006],[122.9803037160001,14.11723476700007],[122.98261856400006,14.11929348800004],[122.98278181,14.122055727000031],[122.98538191300008,14.122087427000054],[122.98787358400011,14.126212960000032],[122.99005586100009,14.123877883000034],[122.99112768600003,14.127008266000075],[122.98352247100001,14.137183162000042],[122.98006716400005,14.146059912000055],[122.98004580300005,14.15005450800004],[122.9739455350001,14.146206704000065],[122.9689506630001,14.14708222400003],[122.96877201100006,14.145553342000028],[122.95620810800006,14.142731896000043],[122.9553016430001,14.13697092600006],[122.93508344700001,14.121597935000068],[122.92599601900008,14.118762357000037],[122.92101747400011,14.115677549000054],[122.9172540620001,14.118111816000066],[122.91329414000006,14.10948224200007],[122.90079259200002,14.114117286000067],[122.89233435500012,14.091251627000076],[122.89635831700002,14.085902951000037],[122.89907869900003,14.090060030000075],[122.912562352,14.089837694000039],[122.91670233600007,14.087420261000034],[122.92002638200006,14.078704884000047],[122.93024694400003,14.067914114000075],[122.93129622200001,14.064588093000054],[122.938929991,14.073459501000059],[122.94441605800012,14.076478050000048],[122.95709736700007,14.088275070000066],[122.96491713400007,14.085735727000042],[122.99685319000002,14.088577757000053]]]}},{"type":"Feature","properties":{"shapeName":"San Lorenzo Ruiz","shapeISO":"","shapeID":"30758251B16172470654133","shapeGroup":"PHL","shapeType":"ADM3","psgc_code":"0501604000","legacy_psgc_code":"051604000","province":"Camarines Norte"},"geometry":{"type":"Polygon","coordinates":[[[122.93129622200001,14.064588093000054],[122.93024694400003,14.067914114000075],[122.92002638200006,14.078704884000047],[122.91670233600007,14.087420261000034],[122.912562352,14.089837694000039],[122.89907869900003,14.090060030000075],[122.89635831700002,14.085902951000037],[122.89573830000006,14.082640524000055],[122.8968080200001,14.081204435000075],[122.89552409700002,14.079142773000058],[122.89669709200007,14.078358398000034],[122.89378081400002,14.078179157000022],[122.894136204,14.076246555000068],[122.89135466300002,14.075916109000048],[122.89283883500002,14.071377779000045],[122.89112155900011,14.069527007000033],[122.89217156000007,14.068349148000038],[122.89092147500003,14.064579858000059],[122.8896932560001,14.065368455000055],[122.88874170400004,14.063426099000026],[122.88690193500008,14.063881007000077],[122.88538888200003,14.061117336000052],[122.87918914600004,14.062889473000041],[122.87714677600002,14.06186903500003],[122.87540853300004,14.06046617100003],[122.87336257900006,14.053914439000039],[122.87116202700008,14.05506659100007],[122.86704851400009,14.051420734000033],[122.85229814000002,14.048510646000068],[122.83133907900003,14.034623674000045],[122.79251799700012,14.013752262000025],[122.8380215740001,13.989171990000045],[122.83981613900005,13.98820220500005],[122.84601731500004,13.984732321000024],[122.84692929000005,13.981249744000024],[122.85007000300004,13.980005541000025],[122.8524973420001,13.976814888000035],[122.8550517750001,13.977365439000039],[122.89186546600001,13.964380530000028],[122.90408282400006,13.948424829000032],[122.90018664900003,13.943085593000035],[122.90082775600001,13.940135232000046],[122.91333867600008,13.939665857000023],[122.92429495200008,13.94523543400004],[122.92703768900003,13.949932250000074],[122.92693936300009,13.952122903000031],[122.92452458600008,13.954265754000062],[122.92512487500005,13.957570318000023],[122.92890935600008,13.955211236000025],[122.93092731900003,13.960665473000063],[122.939351009,13.965688259000046],[122.93432387200005,13.971438455000055],[122.93151233700007,13.97001980500005],[122.93065684500004,13.973022694000065],[122.92511376900006,13.978355837000038],[122.91782974400007,13.979349146000061],[122.886444,13.988787090000073],[122.88619969600006,13.992055621000077],[122.88350332400012,13.993482854000035],[122.88202757200008,13.99279387300004],[122.88133014900006,13.994056236000063],[122.87686732800012,13.994095498000036],[122.87797803400008,13.995797401000061],[122.87716033800007,13.997139136000044],[122.87387916500006,13.996637833000023],[122.87257154300005,13.998256152000067],[122.87186815900009,13.99663590800003],[122.87127217800003,13.999256795000065],[122.87085448800008,13.996764169000073],[122.86789136700008,13.995916661000024],[122.86911989700002,14.012356904000058],[122.87251090100006,14.013678797000068],[122.90212601400003,14.038002038000059],[122.9137678840001,14.045144723000021],[122.91993108100007,14.052411994000067],[122.91877043700003,14.05519389400007],[122.92610010500005,14.057448630000067],[122.93129622200001,14.064588093000054]]]}},{"type":"Feature","properties":{"shapeName":"Jose Panganiban","shapeISO":"","shapeID":"30758251B31746504022332","shapeGroup":"PHL","shapeType":"ADM3","psgc_code":"0501605000","legacy_psgc_code":"051605000","province":"Camarines Norte"},"geometry":{"type":"MultiPolygon","coordinates":[[[[122.59042969600011,14.330626597000048],[122.58737772900008,14.329536719000032],[122.58409399000004,14.330252421000068],[122.58337641300011,14.327141190000077],[122.58095526900001,14.327116677000049],[122.58212848100004,14.325541532000045],[122.58549302300003,14.325918785000056],[122.586083615,14.327327302000072],[122.59334164100005,14.329740496000056],[122.59042969600011,14.330626597000048]]],[[[122.57802311000012,14.21022522900006],[122.58915474000003,14.210977182000022],[122.61076052600004,14.203297832000032],[122.62501934300008,14.200016143000028],[122.64509071900011,14.200532336000038],[122.65827921300001,14.19744849600005],[122.66192003800006,14.194016261000058],[122.67780906000007,14.188864098000067],[122.69029214400007,14.23303095700004],[122.7159314480001,14.233304443000065],[122.72367948100009,14.239956966000022],[122.72458351300008,14.245308614000066],[122.73120754100012,14.250871214000028],[122.73205188800011,14.255289810000022],[122.73482720900006,14.25841639600003],[122.72351408600002,14.284766423000065],[122.72664085200006,14.29965308100003],[122.7249688610001,14.311826454000027],[122.71780820900005,14.314293537000026],[122.71344948900003,14.321473673000071],[122.71388700500006,14.328764615000068],[122.71620624400009,14.332329346000051],[122.71542790400008,14.33665000700006],[122.71660220500007,14.337131589000023],[122.71335294500011,14.339974724000058],[122.7043448500001,14.338979761000076],[122.7043662530001,14.337254548000033],[122.70316887100012,14.338850065000031],[122.69549728200002,14.33727495900007],[122.69461036100006,14.33564172900003],[122.69584638200001,14.333640799000023],[122.69417008200003,14.332786225000063],[122.69309690900002,14.338533557000062],[122.68825907000007,14.34422680800003],[122.68539592800005,14.342088703000059],[122.68309161500008,14.341593892000049],[122.68283549900002,14.342694250000022],[122.68205655500003,14.340678508000053],[122.67885339500003,14.340006059000075],[122.67825164800001,14.338295862000052],[122.67715925400012,14.339233551000063],[122.67428878900012,14.33806990100004],[122.67382983900006,14.339729950000049],[122.66999879600007,14.341351213000053],[122.66791613500004,14.337476946000038],[122.66875037200009,14.32971587000003],[122.67212965600004,14.323475792000067],[122.66965913100012,14.323055545000045],[122.67248392200008,14.322304028000076],[122.67474366700003,14.316179513000066],[122.67410621500005,14.313801156000068],[122.67561280200005,14.313665800000024],[122.68072102500003,14.30528958900004],[122.68121699200003,14.301715392000062],[122.685526546,14.299258402000078],[122.69424881100008,14.285003532000076],[122.68888051800002,14.280103738000037],[122.6860107550001,14.280862361000061],[122.67950585400001,14.284660789000043],[122.67971187700005,14.286827711000058],[122.67550074500002,14.290015940000046],[122.67493858800003,14.288590940000063],[122.67369510800006,14.289755714000023],[122.6722080080001,14.294273246000046],[122.67084175500008,14.294444501000044],[122.67224694700008,14.295333197000048],[122.67216787500001,14.298181287000034],[122.66942089300005,14.29807607600003],[122.66866675200004,14.299867898000059],[122.66696387600007,14.298992871000053],[122.66465544700009,14.300649865000025],[122.66054981700006,14.299086628000055],[122.66432359100008,14.29154761500007],[122.6666752860001,14.290775517000043],[122.65860793500008,14.289542881000045],[122.65708742900006,14.29657731900005],[122.65361003500004,14.299317504000044],[122.65366103100007,14.30395059400007],[122.65647838900009,14.305688750000058],[122.66153962300007,14.30245715500007],[122.65639366200003,14.306381695000027],[122.65366701500011,14.313986601000067],[122.64933477300008,14.314496204000022],[122.64943910900001,14.310524490000034],[122.65343928800007,14.30572548200007],[122.65320682800007,14.303242589000035],[122.6501516400001,14.301018175000024],[122.64928389200008,14.302849252000044],[122.6464264980001,14.302489351000077],[122.64760112500005,14.304620201000034],[122.64628652300007,14.30345839000006],[122.6458847990001,14.30153142000006],[122.64707474300008,14.300427715000069],[122.6453459710001,14.300452208000024],[122.6379976180001,14.29120885900005],[122.63807177900003,14.289531650000072],[122.64106848800009,14.289447739000025],[122.64340766700002,14.287317894000068],[122.63948842000002,14.286977845000024],[122.63408448900009,14.281579433000047],[122.63423254500003,14.285333928000057],[122.63115559000005,14.284768665000058],[122.63006235500006,14.29207328900003],[122.63166595900009,14.296499582000024],[122.63888640500011,14.297734393000042],[122.63832786600005,14.300235801000042],[122.6396422900001,14.300568416000033],[122.63843009800007,14.305059865000032],[122.63611484300009,14.303481668000074],[122.6331008520001,14.306347730000027],[122.63166713700002,14.312395310000056],[122.63273369300009,14.314745080000023],[122.63512731800006,14.314990880000039],[122.63122962800003,14.321773078000035],[122.63123865000011,14.319447653000054],[122.62702281500003,14.314480596000067],[122.628594313,14.312706571000035],[122.62823407100007,14.30804199000005],[122.62996874800001,14.307111812000073],[122.62823423700002,14.296869524000044],[122.62901011500003,14.293926604000035],[122.62509069200007,14.289921432000028],[122.62056126700008,14.288019830000053],[122.61842928100009,14.292270576000021],[122.6169521270001,14.290096230000074],[122.61456205600007,14.290144231000056],[122.61380222800005,14.292936438000027],[122.61131325400004,14.292809715000033],[122.60936881700002,14.295666262000054],[122.60818843800007,14.295073452000054],[122.6039035550001,14.297480299000028],[122.60216312900002,14.298744463000048],[122.60308950300009,14.300355463000074],[122.59733213200002,14.302423662000024],[122.59574060900002,14.305078944000059],[122.59698576200003,14.305623083000057],[122.59701299300002,14.308398701000044],[122.59888258400008,14.309132458000022],[122.60795309500008,14.311855605000062],[122.61045136400003,14.31071737800005],[122.6088312380001,14.311725401000047],[122.61136917300007,14.313073880000047],[122.610549407,14.314389687000073],[122.60251946800008,14.315576652000061],[122.59763791400007,14.31879146600005],[122.58529975300007,14.320106130000056],[122.57784604300002,14.323115596000036],[122.57961644800002,14.283341053000072],[122.58473818800007,14.27811261100004],[122.5853528560001,14.258566656000028],[122.58301783900004,14.222815410000067],[122.57802311000012,14.21022522900006]]],[[[122.60658110100007,14.349209084000051],[122.60372195200011,14.347147820000032],[122.60517652900012,14.34647185700004],[122.606095105,14.342234306000023],[122.60658110100007,14.349209084000051]]]]}},{"type":"Feature","properties":{"shapeName":"Labo","shapeISO":"","shapeID":"30758251B4129960077068","shapeGroup":"PHL","shapeType":"ADM3","psgc_code":"0501606000","legacy_psgc_code":"051606000","province":"Camarines Norte"},"geometry":{"type":"Polygon","coordinates":[[[122.4595700750001,14.206962575000034],[122.45817530000011,14.188379673000043],[122.45451911500004,14.184827489000043],[122.45199363600011,14.150213563000023],[122.538911374,14.116739880000068],[122.6416175170001,14.070068482000067],[122.67783639000004,14.056025183000031],[122.71850226100003,14.042740808000076],[122.79251799700012,14.013752262000025],[122.81150910600002,14.035228751000034],[122.8169181500001,14.043384188000061],[122.82150914100009,14.042721204000031],[122.82492746300011,14.052930011000058],[122.83518928800004,14.069198399000072],[122.85113620200002,14.110025354000072],[122.85426670600009,14.114270164000061],[122.85820101500008,14.116244153000025],[122.85827991400004,14.118635114000028],[122.85994843300011,14.120054462000041],[122.8589409010001,14.120823673000075],[122.86347621200002,14.125520894000033],[122.86547546000008,14.12344356500006],[122.86726613000008,14.123901701000023],[122.86762414400005,14.128430023000021],[122.8701546850001,14.12939652800003],[122.8723680280001,14.133259721000059],[122.87077797300003,14.134577062000062],[122.870764441,14.137867520000043],[122.86938270500002,14.136484701000029],[122.86725044100001,14.136931557000025],[122.86696040900006,14.140349703000027],[122.8688830750001,14.14284346200003],[122.86747700100011,14.14389292900006],[122.86773001800009,14.146096980000038],[122.86944755200011,14.145628444000067],[122.87213498100004,14.148887453000043],[122.86903234100009,14.150516321000055],[122.86968382700002,14.153666633000057],[122.86851217700007,14.153337538000073],[122.86759455200001,14.156884180000077],[122.86233846500011,14.157591215000025],[122.86252856600004,14.158836637000036],[122.86607806400002,14.160115068000039],[122.8694138520001,14.165524826000023],[122.86655557600011,14.170389912000076],[122.86776484200004,14.171248296000044],[122.86664950200009,14.18902584600005],[122.86240314100007,14.190318911000077],[122.85656529100004,14.186838006000073],[122.85273641700007,14.189029571000049],[122.85397383200007,14.191321260000052],[122.86093826500007,14.194562634000022],[122.86008328300011,14.19605647700007],[122.86185619600008,14.20010787700005],[122.85987203800005,14.20205538600004],[122.86192764100008,14.202378232000058],[122.86133445900009,14.211034643000062],[122.86407966100012,14.211176064000028],[122.86731645200007,14.214485343000035],[122.86633306500005,14.221664167000029],[122.86285370300004,14.216931061000025],[122.85860253600003,14.216895057000045],[122.84630779200006,14.220598205000044],[122.83792551600004,14.221078055000078],[122.80303992100005,14.219222438000031],[122.79834884700006,14.215414960000032],[122.796866496,14.211969497000041],[122.79191522200006,14.208529483000063],[122.79018962700002,14.20511044400007],[122.7805323450001,14.201607505000027],[122.74717182100005,14.20137582600006],[122.71974359500007,14.205796082000063],[122.67780906000007,14.188864098000067],[122.66192003800006,14.194016261000058],[122.65827921300001,14.19744849600005],[122.64509071900011,14.200532336000038],[122.62501934300008,14.200016143000028],[122.61076052600004,14.203297832000032],[122.58915474000003,14.210977182000022],[122.57802311000012,14.21022522900006],[122.57621281700006,14.208622866000042],[122.54569360800008,14.203958898000053],[122.4812175510001,14.208623439000064],[122.4595700750001,14.206962575000034]]]}},{"type":"Feature","properties":{"shapeName":"Mercedes","shapeISO":"","shapeID":"30758251B91233781588772","shapeGroup":"PHL","shapeType":"ADM3","psgc_code":"0501607000","legacy_psgc_code":"051607000","province":"Camarines Norte"},"geometry":{"type":"MultiPolygon","coordinates":[[[[123.0082219090001,13.879259786000034],[123.06069556700004,13.837581502000035],[123.05944713100007,13.845156704000033],[123.0628978850001,13.845555382000043],[123.06022547100008,13.84727855400007],[123.05854909200002,13.852755728000034],[123.0636034050001,13.863807119000057],[123.06597442100008,13.864136749000068],[123.06737176000001,13.87276350600007],[123.06524966200004,13.873629308000034],[123.07620820200009,13.879378323000026],[123.08138467600008,13.878686251000033],[123.08350480600006,13.880421746000025],[123.08266312900003,13.88256603900004],[123.08389395400002,13.88373006200004],[123.08354866600007,13.880752468000026],[123.084700483,13.88164124800005],[123.08256964000009,13.879022426000063],[123.08318043400004,13.87464605100007],[123.08208615600006,13.872645849000037],[123.07723221300012,13.873813679000023],[123.082318643,13.872568509000075],[123.0841042290001,13.875017445000026],[123.08679081100001,13.87582478400003],[123.08706976600001,13.881587234000051],[123.09448733300007,13.887847055000066],[123.09536122200007,13.890891009000029],[123.09366985600002,13.89773268600004],[123.08897937200004,13.904167250000057],[123.09268400600001,13.915656574000025],[123.08797112600007,13.922445026000048],[123.08393637000006,13.940869844000076],[123.08577257200011,13.947666625000068],[123.0817791930001,13.955634191000058],[123.08201959000007,13.959125904000075],[123.08752022800002,13.970505718000027],[123.08606375200009,13.971249772000021],[123.08692181700007,13.972874621000074],[123.0844138110001,13.974658447000024],[123.08335337000005,13.981953912000051],[123.07899169000007,13.986614779000035],[123.07142642100007,13.988208991000022],[123.06656247800004,13.991457513000057],[123.06053952700006,13.990967518000048],[123.05651489700006,13.993921987000022],[123.04974665100008,14.003688819000047],[123.04700098100011,14.011711527000045],[123.04301763,14.016084559000035],[123.04060731800007,14.023283083000024],[123.03473281800007,14.025927438000053],[123.02007305000006,14.024551604000067],[123.01996605800002,14.01986538400007],[123.01793734900002,14.019050225000058],[123.02095728800009,14.017815528000028],[123.01788759500005,14.014710856000022],[123.0204090630001,14.009709817000044],[123.01843191300009,14.008983740000076],[123.0187652950001,14.007373245000053],[123.02029775000005,14.007128417000047],[123.01904612700002,14.005987117000075],[123.0177722520001,14.006694014000061],[123.01611797300006,14.000679938000076],[123.0143912630001,14.000833845000045],[123.01631695200001,13.999799695000036],[123.01598869400004,13.997831263000023],[123.01303139200002,13.99678261400004],[123.01398301200004,13.995726927000021],[123.01280454800008,13.994038652000029],[123.01487464800005,13.991724161000036],[123.01349805200005,13.990589914000054],[123.01513148400011,13.988897941000062],[123.0131468290001,13.988267295000071],[123.01466572100003,13.985482902000058],[123.01846254400004,13.985297794000076],[123.01607253600002,13.983439930000031],[123.02252152000005,13.982231971000033],[123.02868148200002,13.977302257000076],[123.03259253600004,13.986863609000068],[123.03462102900005,13.986566649000054],[123.03457976600009,13.984189560000061],[123.0358380130001,13.983610526000064],[123.03430089400001,13.980283715000041],[123.04363043500007,13.972808463000035],[123.04437041100005,13.969040705000054],[123.04808041800004,13.970923560000074],[123.05530939900007,13.969352620000052],[123.06344934100002,13.961660076000044],[123.06511129300009,13.954124558000046],[123.05813527200007,13.949131925000074],[123.05998522700008,13.942247365000071],[123.0451812010001,13.934866933000023],[123.05369315700011,13.929446238000025],[123.05369314000006,13.92663142200007],[123.05159813900002,13.926110469000037],[123.05381712100007,13.923607619000052],[123.0509100910001,13.918109996000055],[123.05218208200006,13.91684807100006],[123.05113207500006,13.915419171000053],[123.05303105900009,13.91321630400006],[123.05195205200005,13.911953392000044],[123.05771401800007,13.907481651000069],[123.05175802200006,13.906853727000055],[123.04853304200003,13.909472575000052],[123.03645804400003,13.907335785000043],[123.03484303100004,13.904743964000033],[123.03699902500011,13.904276982000056],[123.03609901200002,13.901993136000044],[123.037747996,13.89975927300003],[123.04293997500008,13.897405397000057],[123.02979896600004,13.893139752000025],[123.012213986,13.89268188400007],[123.00853495800004,13.887325256000054],[123.0082219090001,13.879259786000034]]],[[[123.10509961900004,14.046707566000066],[123.09870218900005,14.04530053700006],[123.09421286100007,14.042167415000051],[123.0942275220001,14.039890728000046],[123.10387746000004,14.033014322000042],[123.11044776900007,14.032069766000063],[123.11221162700008,14.030238523000037],[123.11359965200006,14.03470431200003],[123.11129041100003,14.04201002600007],[123.10790012200005,14.046017535000033],[123.10509961900004,14.046707566000066]]],[[[123.08927832600011,14.056751396000038],[123.085296674,14.054050841000048],[123.08729855800004,14.054224783000052],[123.08772539100005,14.052914004000058],[123.089421592,14.053907219000052],[123.08927832600011,14.056751396000038]]],[[[123.0784490640001,14.070565141000031],[123.07790612200006,14.073119520000034],[123.07482157400011,14.073291151000035],[123.069815919,14.071300381000071],[123.0664766540001,14.067610107000064],[123.07576552700004,14.06472455000005],[123.0773985300001,14.065933610000059],[123.0784490640001,14.070565141000031]]],[[[123.10510410600011,14.090019398000038],[123.09921427200004,14.084494869000025],[123.10058526600005,14.08486289900003],[123.09848027900011,14.08026475400004],[123.10310910800001,14.079837526000063],[123.11233521300005,14.074669346000064],[123.11690342300005,14.075229824000075],[123.11754016200007,14.079006750000076],[123.11384062800005,14.077647781000053],[123.11177593800005,14.078737217000025],[123.10897815400006,14.085747366000021],[123.10510410600011,14.090019398000038]]],[[[123.0904077880001,14.091046713000026],[123.087337337,14.089972439000064],[123.08489886300003,14.084473118000062],[123.09055205600009,14.084061698000028],[123.09376915200005,14.079956553000045],[123.09546656400005,14.080278010000029],[123.09490074400003,14.086125312000036],[123.0904077880001,14.091046713000026]]],[[[123.08158253500005,14.092064406000077],[123.08055341200009,14.091557451000028],[123.08085377100008,14.086599303000071],[123.08476699200003,14.08500514700006],[123.08396179700003,14.090112051000062],[123.08158253500005,14.092064406000077]]],[[[123.03237773700005,14.067508729000053],[123.03895210600001,14.069080701000075],[123.04823409000005,14.068418247000068],[123.04329647000009,14.087190038000074],[123.04322596000009,14.09854277100004],[123.04075821200001,14.101350163000063],[123.0321046890001,14.09977353000005],[123.03100101000007,14.10365235200004],[123.029427198,14.103986621000047],[123.02836703000003,14.107885983000074],[123.03039235400001,14.105513601000041],[123.02888364000012,14.108928285000047],[123.02463659500006,14.112178166000035],[123.01973045700004,14.108075761000066],[123.01859278600011,14.108591500000045],[123.01739145800002,14.105701597000063],[123.01456407500007,14.104911239000046],[123.01568192900004,14.096770716000037],[123.01181875000009,14.096905680000077],[123.01336529600007,14.099519104000024],[123.01055099500002,14.098166380000066],[123.00808154900005,14.099989996000033],[123.01110119400005,14.10500386800004],[123.0068521930001,14.103456616000074],[123.0048475430001,14.104316396000058],[123.00792404200001,14.105664390000072],[123.00819310600002,14.107259038000052],[123.01260536200004,14.108446736000076],[123.01440415500008,14.111682032000033],[123.00847383900009,14.111659391000046],[123.00387472700004,14.113647032000074],[122.99848044100008,14.120996479000041],[122.99112768600003,14.127008266000075],[122.99005586100009,14.123877883000034],[122.98787358400011,14.126212960000032],[122.98538191300008,14.122087427000054],[122.98278181,14.122055727000031],[122.98261856400006,14.11929348800004],[122.9803037160001,14.11723476700007],[122.98138946000006,14.11486588200006],[122.97959331200002,14.113990141000045],[122.97885861200007,14.10761879000006],[122.99541604300009,14.104992088000074],[122.99204241100006,14.101572143000055],[122.99353115100007,14.099817537000035],[122.99342949900006,14.094596318000072],[122.99685319000002,14.088577757000053],[122.99624416300003,14.081663390000074],[122.99823615100001,14.08003588400004],[123.00871037500008,14.079919496000059],[123.01105861100007,14.077814892000049],[123.0096074710001,14.075468034000039],[123.01115210000012,14.074043048000021],[123.02825571100004,14.071061754000027],[123.03237773700005,14.067508729000053]]],[[[123.05207999400011,14.129602478000038],[123.05472800300004,14.126042617000053],[123.05488536700011,14.121334035000075],[123.06046130200002,14.112751314000036],[123.06096334000006,14.108080890000053],[123.06406026600007,14.104045146000033],[123.06603678300007,14.097491038000044],[123.06921995700009,14.097674282000071],[123.06730979100007,14.10387587300005],[123.06735034300004,14.113684541000055],[123.06959689900009,14.121689412000023],[123.06873184300002,14.129057472000056],[123.05207999400011,14.129602478000038]]]]}},{"type":"Feature","properties":{"shapeName":"Paracale","shapeISO":"","shapeID":"30758251B75235300602273","shapeGroup":"PHL","shapeType":"ADM3","psgc_code":"0501608000","legacy_psgc_code":"051608000","province":"Camarines Norte"},"geometry":{"type":"MultiPolygon","coordinates":[[[[122.67780906000007,14.188864098000067],[122.71974359500007,14.205796082000063],[122.74717182100005,14.20137582600006],[122.7805323450001,14.201607505000027],[122.79018962700002,14.20511044400007],[122.79191522200006,14.208529483000063],[122.796866496,14.211969497000041],[122.79834884700006,14.215414960000032],[122.80303992100005,14.219222438000031],[122.83792551600004,14.221078055000078],[122.84630779200006,14.220598205000044],[122.85860253600003,14.216895057000045],[122.86285370300004,14.216931061000025],[122.86633306500005,14.221664167000029],[122.86434295700008,14.224441899000055],[122.86352062700007,14.232762240000056],[122.85676369300006,14.24931612000006],[122.85277577200009,14.250987805000022],[122.8546592570001,14.255803091000075],[122.84897562300011,14.26035297900006],[122.84835379100002,14.262489316000028],[122.85500040400007,14.268860634000077],[122.84867281100003,14.281924654000022],[122.8413561960001,14.28404719200006],[122.82661594100011,14.286253987000066],[122.8215249210001,14.282457898000075],[122.82325631100002,14.27875188300004],[122.8220486240001,14.278897531000041],[122.82010108600002,14.275326762000077],[122.81594576100008,14.273985761000063],[122.80984281500002,14.27519392000005],[122.80509179,14.278422232000025],[122.80331242800003,14.27759220400003],[122.80225853700006,14.274505161000036],[122.80012593000004,14.274745809000024],[122.79994969200004,14.277854770000033],[122.80507483600002,14.279887531000043],[122.80751856900008,14.284152652000046],[122.80430207400002,14.285050479000063],[122.80413787300006,14.287798202000033],[122.80226459800008,14.289063605000024],[122.79869278500007,14.288406942000051],[122.79218339300007,14.283657980000044],[122.78984568400006,14.280250696000053],[122.79146449500001,14.282631946000038],[122.78726547800011,14.285129639000047],[122.78524633500001,14.292018546000065],[122.78754440600005,14.296094161000042],[122.79349255000011,14.298766859000068],[122.79522499400002,14.30489476400004],[122.79223348300002,14.309814854000024],[122.79045085400003,14.311593714000026],[122.7874918120001,14.305558124000072],[122.78512638900008,14.305242411000052],[122.7813011510001,14.30839295100003],[122.7808428730001,14.31127566400005],[122.77811814600011,14.313670169000034],[122.77887545900012,14.314372304000074],[122.7765914680001,14.315261174000057],[122.77474443000006,14.320505725000032],[122.76970022300009,14.321518243000071],[122.76201354700004,14.320515856000043],[122.75683048000008,14.327028833000043],[122.754762335,14.326629154000045],[122.75124009400008,14.328495453000073],[122.74733867400005,14.327167786000075],[122.74399545200004,14.322693186000038],[122.74511658000006,14.321831383000074],[122.74450693200004,14.318210411000052],[122.74070991200006,14.31530671400003],[122.74024687800011,14.312736684000072],[122.73641075700004,14.311517526000046],[122.7249688610001,14.311826454000027],[122.72664085200006,14.29965308100003],[122.72351408600002,14.284766423000065],[122.73482720900006,14.25841639600003],[122.73205188800011,14.255289810000022],[122.73120754100012,14.250871214000028],[122.72458351300008,14.245308614000066],[122.72367948100009,14.239956966000022],[122.7159314480001,14.233304443000065],[122.69029214400007,14.23303095700004],[122.67780906000007,14.188864098000067]]],[[[122.8137578520001,14.40757138500004],[122.81131043500011,14.409347196000056],[122.80767680200006,14.417438684000047],[122.80566095100005,14.418826978000027],[122.8032920710001,14.414969547000055],[122.80744501600009,14.399256537000042],[122.81214843200007,14.389720658000044],[122.81928633600012,14.385347423000042],[122.82031735900011,14.386167998000076],[122.8191804710001,14.388601078000022],[122.8198546640001,14.394719423000026],[122.81791477400009,14.403099059000056],[122.81675204700002,14.406753114000026],[122.8137578520001,14.40757138500004]]]]}},{"type":"Feature","properties":{"shapeName":"San Vicente","shapeISO":"","shapeID":"30758251B44254062576901","shapeGroup":"PHL","shapeType":"ADM3","psgc_code":"0501609000","legacy_psgc_code":"051609000","province":"Camarines Norte"},"geometry":{"type":"Polygon","coordinates":[[[122.90079259200002,14.114117286000067],[122.890111681,14.117550270000038],[122.8886460760001,14.135137524000072],[122.89012864000006,14.136722681000037],[122.88361144800001,14.135600991000047],[122.8720410200001,14.12851364200003],[122.86726613000008,14.123901701000023],[122.86547546000008,14.12344356500006],[122.86347621200002,14.125520894000033],[122.8589409010001,14.120823673000075],[122.85994843300011,14.120054462000041],[122.85827991400004,14.118635114000028],[122.85820101500008,14.116244153000025],[122.85426670600009,14.114270164000061],[122.85113620200002,14.110025354000072],[122.83518928800004,14.069198399000072],[122.82492746300011,14.052930011000058],[122.82150914100009,14.042721204000031],[122.8169181500001,14.043384188000061],[122.81150910600002,14.035228751000034],[122.79251799700012,14.013752262000025],[122.83133907900003,14.034623674000045],[122.85229814000002,14.048510646000068],[122.86704851400009,14.051420734000033],[122.87116202700008,14.05506659100007],[122.87336257900006,14.053914439000039],[122.87540853300004,14.06046617100003],[122.87714677600002,14.06186903500003],[122.87918914600004,14.062889473000041],[122.88538888200003,14.061117336000052],[122.88690193500008,14.063881007000077],[122.88874170400004,14.063426099000026],[122.8896932560001,14.065368455000055],[122.89092147500003,14.064579858000059],[122.89217156000007,14.068349148000038],[122.89112155900011,14.069527007000033],[122.89283883500002,14.071377779000045],[122.89135466300002,14.075916109000048],[122.894136204,14.076246555000068],[122.89378081400002,14.078179157000022],[122.89669709200007,14.078358398000034],[122.89552409700002,14.079142773000058],[122.8968080200001,14.081204435000075],[122.89573830000006,14.082640524000055],[122.89635831700002,14.085902951000037],[122.89233435500012,14.091251627000076],[122.90079259200002,14.114117286000067]]]}},{"type":"Feature","properties":{"shapeName":"Santa Elena","shapeISO":"","shapeID":"30758251B78465254525498","shapeGroup":"PHL","shapeType":"ADM3","psgc_code":"0501610000","legacy_psgc_code":"051610000","province":"Camarines Norte"},"geometry":{"type":"Polygon","coordinates":[[[122.38376856000002,14.066641330000039],[122.39616586800003,14.084713977000035],[122.40846578100002,14.090570177000075],[122.40773143700005,14.093538311000032],[122.41099926400011,14.094646055000055],[122.41048716500006,14.096958850000021],[122.41235194,14.09587288800003],[122.41593515500006,14.09792737400005],[122.41831607100005,14.097196182000062],[122.42066412800011,14.103787657000055],[122.42286297500004,14.104418982000027],[122.42165551000005,14.105818252000063],[122.422666821,14.107956369000021],[122.42633569600002,14.107850184000029],[122.42701743000009,14.110995305000074],[122.42921870000009,14.110982998000054],[122.43217796400006,14.113516736000065],[122.43494321800006,14.124279698000066],[122.44662851400005,14.135111727000037],[122.44549226600009,14.14111649800003],[122.45199363600011,14.150213563000023],[122.45451911500004,14.184827489000043],[122.45817530000011,14.188379673000043],[122.4595700750001,14.206962575000034],[122.44378814700008,14.216051253000046],[122.4287058110001,14.23234661500004],[122.41553096400003,14.231839541000056],[122.41425548300003,14.233064221000063],[122.41106193200005,14.232580416000076],[122.41075364300002,14.23530015700004],[122.40855224800009,14.233851429000026],[122.40831486400009,14.235785129000021],[122.40542583500007,14.234311510000055],[122.40193694000004,14.235056473000043],[122.39991802700001,14.237943864000044],[122.39628053500007,14.236475502000076],[122.39655393600003,14.242922345000068],[122.36264617800009,14.244098954000037],[122.36643777300003,14.238662179000073],[122.36843871200006,14.23116265300007],[122.37382010100009,14.22863865100004],[122.37588803200003,14.221980606000045],[122.37988916200004,14.220044481000059],[122.38095787000009,14.216266079000036],[122.3827599440001,14.216994893000049],[122.38223786500009,14.215225343000043],[122.37676135000004,14.212121783000043],[122.3763303290001,14.213161909000064],[122.37085019100005,14.21215210400004],[122.36324602200011,14.217282202000035],[122.362445051,14.213566816000025],[122.3595811890001,14.214180033000048],[122.35606930200004,14.222473609000076],[122.35062069600008,14.224035273000027],[122.34962867100012,14.225751462000062],[122.34851799900002,14.223073173000046],[122.34950169900003,14.220334098000023],[122.34580457800007,14.216661958000032],[122.34774872700007,14.212687119000066],[122.34522880700001,14.210284419000061],[122.3484770020001,14.207450511000047],[122.35458053500008,14.20936217600007],[122.35602362500003,14.207587851000028],[122.35540876300001,14.205951282000058],[122.35707598500005,14.20645472900003],[122.35945577300004,14.20401707700006],[122.35763030100009,14.203086979000034],[122.35321124500001,14.205342048000034],[122.35060254900009,14.203715743000032],[122.35406061000003,14.202006621000066],[122.35476353900003,14.200187323000023],[122.35907838000003,14.199508351000077],[122.35611288300004,14.198943287000077],[122.35479852900005,14.196103736000055],[122.35735658300007,14.19291811000005],[122.35686074000012,14.187234494000052],[122.35358238600008,14.187003749000041],[122.35354429200004,14.18494742300004],[122.35007302600002,14.185673832000077],[122.34929701900012,14.184690344000046],[122.34822455800008,14.187769502000037],[122.34582901300007,14.18600447700004],[122.34450330000004,14.187802522000027],[122.34591846500007,14.19567905200006],[122.34909080900002,14.199892659000056],[122.34818317800011,14.202811896000071],[122.34593625900004,14.203160672000024],[122.34676677200002,14.204687154000055],[122.34383788900004,14.203229799000042],[122.34418364200008,14.202248216000044],[122.34137673300006,14.203263801000048],[122.33725051700003,14.201788441000076],[122.33569111600002,14.202589014000068],[122.33537261800006,14.201208653000037],[122.33398257600004,14.202566426000033],[122.33502805100011,14.199703577000037],[122.33360941700005,14.199573850000036],[122.33384068300006,14.196814717000052],[122.33228815500001,14.196732763000057],[122.33690199900002,14.189145740000072],[122.33567751300006,14.186616043000072],[122.33820167100009,14.184237060000044],[122.33503615200004,14.170702506000055],[122.33550921100004,14.16621480200007],[122.33775495700002,14.163559882000072],[122.33701018300007,14.155219874000068],[122.34760263900012,14.14115587200007],[122.3512223890001,14.141360348000035],[122.35075740000002,14.138539173000026],[122.35292153800003,14.136409834000062],[122.3529714230001,14.133221864000063],[122.35200712700009,14.128074338000033],[122.34996860100011,14.127653777000035],[122.35003099700009,14.124914663000027],[122.34895079400007,14.12460036300007],[122.34924250400002,14.123039515000073],[122.35169710800005,14.122302428000069],[122.34941563300004,14.121754168000052],[122.34656286600011,14.113370291000024],[122.34356899900001,14.113050368000074],[122.34280473900003,14.111355943000035],[122.34169718800001,14.11143151400006],[122.34227917600003,14.116853527000046],[122.34055515300008,14.11678910300003],[122.3311714890001,14.106660615000067],[122.32239006600003,14.10469260900004],[122.31865511700005,14.10676176800007],[122.31109409400005,14.104277247000027],[122.31021425600011,14.102011034000043],[122.30786651100004,14.10203033700003],[122.3075546120001,14.092883793000055],[122.3022753460001,14.088747471000033],[122.30227789000003,14.081819792000033],[122.29864779700006,14.072115583000027],[122.29985962300009,14.070317696000075],[122.30242594700007,14.071055361000049],[122.30379789200003,14.067382637000037],[122.30659007000008,14.069350973000041],[122.30724355200005,14.068046479000031],[122.30906001200003,14.068605125000033],[122.31004304400005,14.066145720000065],[122.31096885900001,14.067683894000027],[122.31394126500004,14.066553534000036],[122.31442906400002,14.063740041000074],[122.31553783700008,14.065465491000054],[122.31599246200005,14.064222993000044],[122.31892860900007,14.065686688000028],[122.31844335700009,14.063105837000023],[122.32124896100004,14.063153919000058],[122.32227217400009,14.061767544000077],[122.32601061900004,14.063707013000055],[122.32748204300003,14.061644110000032],[122.33069755500003,14.06123261700003],[122.3306340470001,14.062419944000055],[122.33480811900006,14.063880917000063],[122.36204661600004,14.062866015000054],[122.38376856000002,14.066641330000039]]]}},{"type":"Feature","properties":{"shapeName":"Talisay","shapeISO":"","shapeID":"30758251B44537978372454","shapeGroup":"PHL","shapeType":"ADM3","psgc_code":"0501611000","legacy_psgc_code":"051611000","province":"Camarines Norte"},"geometry":{"type":"Polygon","coordinates":[[[122.9689506630001,14.14708222400003],[122.96587315500005,14.147720485000036],[122.96292605400004,14.15049263700007],[122.95837684900005,14.150863767000033],[122.96316123600002,14.15097086700007],[122.96779110600005,14.147705199000029],[122.97139896700003,14.148496841000053],[122.97517605900009,14.147432275000028],[122.97853878900003,14.149478170000066],[122.97844479100002,14.149930749000077],[122.97446393100006,14.149178575000064],[122.96564482400004,14.152047121000066],[122.95947477900006,14.160003417000041],[122.95320428100001,14.162881722000066],[122.9437849300001,14.177125820000072],[122.93937771500009,14.175388945000066],[122.92878369900006,14.164125407000029],[122.92360169400001,14.156977657000027],[122.92426462900005,14.155863585000077],[122.9209896320001,14.154933148000055],[122.91794108900001,14.151214152000023],[122.90610226800004,14.150790390000054],[122.90241031300002,14.14562373700005],[122.8991315070001,14.146115259000055],[122.8927569550001,14.136625496000022],[122.89012864000006,14.136722681000037],[122.8886460760001,14.135137524000072],[122.890111681,14.117550270000038],[122.90079259200002,14.114117286000067],[122.91329414000006,14.10948224200007],[122.9172540620001,14.118111816000066],[122.92101747400011,14.115677549000054],[122.92599601900008,14.118762357000037],[122.93508344700001,14.121597935000068],[122.9553016430001,14.13697092600006],[122.95620810800006,14.142731896000043],[122.96877201100006,14.145553342000028],[122.9689506630001,14.14708222400003]]]}},{"type":"Feature","properties":{"shapeName":"Vinzons","shapeISO":"","shapeID":"30758251B3136042153209","shapeGroup":"PHL","shapeType":"ADM3","psgc_code":"0501612000","legacy_psgc_code":"051612000","province":"Camarines Norte"},"geometry":{"type":"MultiPolygon","coordinates":[[[[122.91445711000006,14.196395318000043],[122.90989509400003,14.19308385200003],[122.91101511600004,14.189808652000067],[122.91463690800003,14.190848376000076],[122.91445711000006,14.196395318000043]]],[[[122.91767956900003,14.198207332000038],[122.91633477200003,14.197835973000053],[122.91701598000009,14.195720140000049],[122.91934899800003,14.196473879000052],[122.91767956900003,14.198207332000038]]],[[[122.95144870700005,14.204981309000061],[122.9479697270001,14.20352676500005],[122.94739400700007,14.201564461000032],[122.95248928800004,14.202612327000054],[122.95144870700005,14.204981309000061]]],[[[122.91203183800008,14.217693728000029],[122.91159187000005,14.216849271000058],[122.91316255400011,14.216610433000028],[122.91203183800008,14.217693728000029]]],[[[122.924726286,14.222311371000046],[122.9196733340001,14.221947402000069],[122.91758404000007,14.21811285800004],[122.91587220100007,14.205449403000046],[122.91708951400005,14.199001209000073],[122.91954639100004,14.19651191500003],[122.91750988500007,14.19554918700004],[122.92061149200003,14.192932214000052],[122.92115185000011,14.19453794900005],[122.92580738700008,14.194367348000071],[122.93098543600001,14.196164383000053],[122.93179418800003,14.195474112000056],[122.92787794800006,14.194180716000062],[122.93446021500006,14.194088359000034],[122.9401041640001,14.189405769000075],[122.93783669700008,14.193478435000031],[122.92801868400011,14.19934922400006],[122.92267091800011,14.205799133000028],[122.92110274800007,14.215267965000066],[122.92560369700004,14.221630935000064],[122.924726286,14.222311371000046]]],[[[122.86726613000008,14.123901701000023],[122.8720410200001,14.12851364200003],[122.88361144800001,14.135600991000047],[122.89012864000006,14.136722681000037],[122.8927569550001,14.136625496000022],[122.8991315070001,14.146115259000055],[122.90241031300002,14.14562373700005],[122.90610226800004,14.150790390000054],[122.91794108900001,14.151214152000023],[122.9209896320001,14.154933148000055],[122.92426462900005,14.155863585000077],[122.92360169400001,14.156977657000027],[122.92878369900006,14.164125407000029],[122.93937771500009,14.175388945000066],[122.9437849300001,14.177125820000072],[122.94006974100012,14.188015561000043],[122.93744859000003,14.190606294000077],[122.92285364300005,14.194182555000054],[122.92021738000005,14.191979252000067],[122.91743201600002,14.192783306000024],[122.9188680960001,14.193438933000039],[122.91728697400004,14.194226456000024],[122.91482554700008,14.189932032000058],[122.91215388900002,14.188828663000038],[122.9055672830001,14.194077930000049],[122.90342403700004,14.194320969000046],[122.90820216400004,14.194696470000054],[122.90891760200009,14.192956482000056],[122.90965378100009,14.195185158000072],[122.90834621800002,14.197529079000049],[122.90368293100005,14.198264529000028],[122.89733923900008,14.196918888000027],[122.8921294490001,14.198678574000041],[122.89360994800006,14.198498509000046],[122.89070003000006,14.20171033400004],[122.888166554,14.200771183000029],[122.88939420000008,14.202420241000027],[122.89158207700007,14.202344130000029],[122.8975041220001,14.197851739000043],[122.90613879800003,14.199701502000039],[122.91226713500009,14.196032591000062],[122.91380297,14.198661077000054],[122.91150071100003,14.206729942000038],[122.91236963000006,14.214102183000023],[122.90673134000008,14.216696210000066],[122.90869785000007,14.21694466200006],[122.90710381100007,14.218706337000071],[122.9052233750001,14.21833003100005],[122.9041342700001,14.21460253600003],[122.90218484200011,14.213928408000072],[122.8993758680001,14.216339149000078],[122.89973580000003,14.219344914000033],[122.89329138700009,14.218802851000078],[122.89673077300006,14.220777094000027],[122.89969471600011,14.220483683000054],[122.90249916900007,14.214744110000026],[122.90362814600007,14.218573155000058],[122.90254936100007,14.218385477000027],[122.90278331500008,14.220745475000058],[122.89864098400005,14.222656541000049],[122.9025084860001,14.221945607000066],[122.90424355300001,14.219518177000054],[122.90935529900003,14.220218450000061],[122.91306246300007,14.217557528000043],[122.91468338200002,14.219510768000077],[122.916578909,14.219468379000034],[122.91538345800006,14.221503968000036],[122.90046265800004,14.225443701000074],[122.88833536600009,14.235280342000067],[122.86739724100005,14.263743643000055],[122.864493003,14.270669165000072],[122.85574026100005,14.270186083000056],[122.85500040400007,14.268860634000077],[122.84835379100002,14.262489316000028],[122.84897562300011,14.26035297900006],[122.8546592570001,14.255803091000075],[122.85277577200009,14.250987805000022],[122.85676369300006,14.24931612000006],[122.86352062700007,14.232762240000056],[122.86434295700008,14.224441899000055],[122.86633306500005,14.221664167000029],[122.86731645200007,14.214485343000035],[122.86407966100012,14.211176064000028],[122.86133445900009,14.211034643000062],[122.86192764100008,14.202378232000058],[122.85987203800005,14.20205538600004],[122.86185619600008,14.20010787700005],[122.86008328300011,14.19605647700007],[122.86093826500007,14.194562634000022],[122.85397383200007,14.191321260000052],[122.85273641700007,14.189029571000049],[122.85656529100004,14.186838006000073],[122.86240314100007,14.190318911000077],[122.86664950200009,14.18902584600005],[122.86776484200004,14.171248296000044],[122.86655557600011,14.170389912000076],[122.8694138520001,14.165524826000023],[122.86607806400002,14.160115068000039],[122.86252856600004,14.158836637000036],[122.86233846500011,14.157591215000025],[122.86759455200001,14.156884180000077],[122.86851217700007,14.153337538000073],[122.86968382700002,14.153666633000057],[122.86903234100009,14.150516321000055],[122.87213498100004,14.148887453000043],[122.86944755200011,14.145628444000067],[122.86773001800009,14.146096980000038],[122.86747700100011,14.14389292900006],[122.8688830750001,14.14284346200003],[122.86696040900006,14.140349703000027],[122.86725044100001,14.136931557000025],[122.86938270500002,14.136484701000029],[122.870764441,14.137867520000043],[122.87077797300003,14.134577062000062],[122.8723680280001,14.133259721000059],[122.8701546850001,14.12939652800003],[122.86762414400005,14.128430023000021],[122.86726613000008,14.123901701000023]]],[[[122.9509177970001,14.37563334400005],[122.95018692600001,14.374678240000037],[122.952847098,14.371672443000023],[122.9581532200001,14.369421393000039],[122.96154348100004,14.369563797000069],[122.96321458700004,14.371878504000051],[122.96072337200007,14.373707055000068],[122.96242289300005,14.374825311000052],[122.96122076300003,14.375408567000022],[122.95675988500011,14.374201437000067],[122.9509177970001,14.37563334400005]]],[[[122.92109997000011,14.419547116000047],[122.91987006700003,14.419302258000073],[122.92254368400006,14.419165064000026],[122.92109997000011,14.419547116000047]]],[[[122.92906904400002,14.418558473000076],[122.92861411900003,14.419979494000074],[122.92336435800007,14.418151898000076],[122.92811780800002,14.414651605000074],[122.9303125140001,14.416741566000042],[122.92906904400002,14.418558473000076]]],[[[122.99010152800008,14.435296059000052],[122.98474973500004,14.432960877000028],[122.98505219600008,14.428237075000027],[122.99270337000007,14.431726222000066],[123.00083434200008,14.428208416000075],[123.00338661,14.42830635100006],[123.00395084500008,14.429631871000026],[123.01953851400003,14.430239651000022],[123.01780175700003,14.431366776000061],[123.01488676300005,14.430786947000058],[123.01393139100003,14.432413993000068],[123.01148316400008,14.430081245000054],[123.01014004400008,14.43196806800006],[123.00405741100008,14.43193530600007],[123.00507023800003,14.433340289000057],[123.00294560400005,14.433344309000063],[123.00197328500008,14.435343032000048],[123.00032018200011,14.433835155000054],[122.99906152400001,14.435220873000048],[122.99919918400008,14.43309073100005],[122.9957025860001,14.432157093000058],[122.99010152800008,14.435296059000052]]],[[[122.93975364700009,14.439882897000075],[122.93882804600003,14.440670676000025],[122.93810626900006,14.437664363000067],[122.9253576000001,14.434446880000053],[122.92644582500009,14.43001507100007],[122.92993068800001,14.425524685000028],[122.93570727800011,14.428407741000058],[122.9384988160001,14.427600857000073],[122.94100779900009,14.422733669000024],[122.938010974,14.419471832000056],[122.94430941700011,14.417791330000057],[122.94557568900007,14.415074229000027],[122.94890224200003,14.415014],[122.95498167800008,14.408583715000077],[122.9648072440001,14.409272362000024],[122.96793851500001,14.407683312000074],[122.96730317700008,14.405861166000022],[122.97084500500011,14.404431804000069],[122.97422367500008,14.406633967000062],[122.98007728400012,14.405429465000054],[122.9798083170001,14.40836792600004],[122.97767649800005,14.40875240400004],[122.9766285180001,14.411599294000041],[122.97290726400001,14.41388947200005],[122.96523570200009,14.417294827000035],[122.96190141400007,14.415647311000043],[122.9597761550001,14.419413943000052],[122.9550668500001,14.419285191000029],[122.95376966200001,14.424395150000066],[122.95038682100005,14.426672598000039],[122.9513020390001,14.42789633700005],[122.9498704990001,14.428532806000021],[122.94909663200008,14.426688282000043],[122.944101756,14.427863473000059],[122.94283302000008,14.429776873000037],[122.94517530500002,14.436309508000022],[122.93975364700009,14.439882897000075]]],[[[122.93858249400012,14.444820437000033],[122.93783325000004,14.44395430700007],[122.94010073400011,14.441358281000078],[122.94058703700011,14.442783759000065],[122.93858249400012,14.444820437000033]]],[[[122.98799582000004,14.448918314000025],[122.98671699400006,14.447762114000056],[122.98764902300002,14.446285036000063],[122.99169158900008,14.445127123000077],[122.99505308800008,14.446608963000074],[122.99452920100009,14.448076553000021],[122.99043001500002,14.447530656000026],[122.98799582000004,14.448918314000025]]],[[[122.98094175900007,14.449053804000073],[122.9783598890001,14.448480061000055],[122.97771992000003,14.446851151000033],[122.98099516400009,14.447712902000035],[122.98094175900007,14.449053804000073]]],[[[122.97045861700008,14.45250627300004],[122.96681045200012,14.450143187000037],[122.9675272930001,14.44737600600007],[122.97012527600009,14.446989753000025],[122.97456514600003,14.44937643000003],[122.97482257200011,14.451280004000068],[122.97045861700008,14.45250627300004]]],[[[122.9363813870001,14.49060541800003],[122.93104258900007,14.488811025000075],[122.93780582200009,14.486031999000033],[122.9363813870001,14.49060541800003]]],[[[122.90759019900008,14.493008251000049],[122.90582054900005,14.491918076000047],[122.90776141600008,14.490756729000054],[122.90759019900008,14.493008251000049]]],[[[122.94944700100007,14.494790820000048],[122.94663006000007,14.489850786000034],[122.94020787200009,14.489126437000039],[122.94109958600006,14.487636835000046],[122.9380401410001,14.48248712000003],[122.93888652200008,14.47818138100007],[122.93641267200007,14.471784381000077],[122.9323549180001,14.471510386000034],[122.9314054250001,14.468080301000043],[122.92895085100008,14.467220508000025],[122.9232987040001,14.470332898000038],[122.92357657900004,14.465675344000033],[122.91838446000008,14.46267666600005],[122.9166949910001,14.462502502000063],[122.91640532100007,14.463744888000065],[122.91156364400001,14.462274036000053],[122.90949182400004,14.462972298000068],[122.90986258200007,14.46160659700007],[122.9068157480001,14.459707476000062],[122.90567027300006,14.456153340000071],[122.89928211100005,14.452147951000029],[122.89965136400008,14.447728144000052],[122.90185104600005,14.445166043000029],[122.90566547900005,14.44676796400006],[122.90902318000008,14.443350348000024],[122.90869914100006,14.445083312000065],[122.91256442300005,14.445449889000031],[122.91412347800008,14.44870508200006],[122.91814511200005,14.447795842000062],[122.91751400300006,14.449664602000041],[122.91963819300008,14.453213541000025],[122.9226595990001,14.45477138900003],[122.92846940200002,14.45337218000003],[122.93197793400009,14.453940565000039],[122.93389939600002,14.455809479000038],[122.93754894900007,14.455361286000027],[122.93828468600009,14.452965702000029],[122.935004477,14.452032942000073],[122.93193787500002,14.44712127200006],[122.93335680900009,14.447922207000033],[122.93597744700003,14.44656429400004],[122.94464038600006,14.45011723400006],[122.94207734500003,14.457088193000061],[122.94399967100003,14.45867177200006],[122.94184135500007,14.458696633000045],[122.93970171,14.464753552000047],[122.94423562000009,14.465989979000028],[122.94903314700002,14.465060315000073],[122.95043857100006,14.466322556000023],[122.95156208100002,14.465555021000057],[122.95155131800004,14.466893317000029],[122.9579792190001,14.465672900000072],[122.9569699320001,14.467872599000032],[122.95884706900006,14.469102810000038],[122.958597499,14.471455903000049],[122.95222794100005,14.470523925000066],[122.95083926900008,14.472894390000022],[122.94933414000002,14.472578880000071],[122.94851502100005,14.477904955000042],[122.94997362600009,14.47949660100005],[122.95169603500005,14.478840929000057],[122.9537663960001,14.48195196200004],[122.95554219700011,14.481023551000021],[122.95562954500008,14.487680025000031],[122.95764540400012,14.48769782000005],[122.9587082270001,14.490190906000066],[122.96230773400009,14.49212710200004],[122.95697503000008,14.492786651000074],[122.95633925800007,14.491640717000053],[122.953890354,14.49314060000006],[122.95138439300001,14.492748367000047],[122.94944700100007,14.494790820000048]]],[[[122.930225876,14.495466021000027],[122.92873417600003,14.492588471000033],[122.92693430400004,14.492327659000068],[122.92701449300012,14.490141938000022],[122.93310918100008,14.492411563000076],[122.93300702500005,14.49396667700006],[122.930225876,14.495466021000027]]],[[[122.90468031300009,14.500558159000036],[122.90353509800002,14.499906444000032],[122.90451879200009,14.497700291000058],[122.90203633700003,14.496216951000065],[122.903087647,14.492348210000046],[122.90469039700008,14.49274759900004],[122.90519757400011,14.494851797000024],[122.90739898100003,14.495058681000046],[122.90636342300002,14.499255473000062],[122.90468031300009,14.500558159000036]]],[[[122.92915309900002,14.501112956000043],[122.92797390500004,14.500694373000044],[122.9310856400001,14.50007778500003],[122.92915309900002,14.501112956000043]]]]}}]}
