{"type":"FeatureCollection","source":{"dataset":"geoBoundaries gbOpen PHL ADM3","commit":"9469f09","license":"CC BY 3.0 IGO","boundary_year":2020,"url":"https://media.githubusercontent.com/media/wmgeolab/geoBoundaries/9469f09/releaseData/gbOpen/PHL/ADM3/geoBoundaries-PHL-ADM3_simplified.geojson","upstream_sources":["NAMRIA","PSA","OCHA Philippines"],"reference":"https://data.humdata.org/dataset/cod-ab-phl","psgc_reference":"https://psa.gov.ph/classification/psgc/provinces/0500000000","area_notes":"Bicol references use OCHA Philippines COD-AB v03 published polygon area_sqkm, converted to hectares for the importer comparison. These are polygon checks, not PSA LMB land-area totals. See docs/BICOL_BOUNDARY_SOURCES.md.","notice":"Approximate planning/reference boundaries, not legal, cadastral, or survey-grade."},"features":[{"type":"Feature","properties":{"shapeName":"Bagamanoc","shapeISO":"","shapeID":"30758251B59142853450865","shapeGroup":"PHL","shapeType":"ADM3","psgc_code":"0502001000","legacy_psgc_code":"052001000","province":"Catanduanes"},"geometry":{"type":"MultiPolygon","coordinates":[[[[124.30376164600011,13.966369587000031],[124.29905463600005,13.963529871000048],[124.29880735400002,13.95845127900003],[124.29672612800005,13.955057521000072],[124.29891785600012,13.953062138000064],[124.30617625200011,13.960132677000047],[124.30626967500007,13.963838729000031],[124.30388003000007,13.964694386000076],[124.30376164600011,13.966369587000031]]],[[[124.34591257900001,13.963776327000062],[124.3459991840001,13.965473978000034],[124.34294881000005,13.968571592000046],[124.34072465000008,13.967391895000048],[124.33179441400011,13.972702753000021],[124.33113375300002,13.979374370000073],[124.32809944200005,13.984060665000072],[124.32918216500002,13.984992066000075],[124.32663652100007,13.987321147000046],[124.3254952310001,13.986845942000059],[124.32653123300008,13.985316096000076],[124.3249603160001,13.981455995000033],[124.32892859300011,13.973840517000042],[124.32535679400007,13.970711209000058],[124.32732908900005,13.969755338000027],[124.32818650400009,13.972113825000065],[124.33056871100007,13.968724257000076],[124.325326,13.96188128500006],[124.32130650600004,13.961159381000073],[124.32059284900004,13.963361568000039],[124.32189357700008,13.967948941000031],[124.32342074700011,13.967824662000055],[124.32434925600012,13.970416881000062],[124.32398031900004,13.975244964000069],[124.32161954000003,13.975493468000025],[124.32075361900002,13.977065831000061],[124.31619780100004,13.97649971900006],[124.311725539,13.978945890000034],[124.30845670300005,13.978566112000067],[124.31226382700004,13.974194773000022],[124.31343026900004,13.96836176100004],[124.31279627600009,13.96289732200006],[124.3094417210001,13.960454079000044],[124.30972415600002,13.958430047000036],[124.31656554000006,13.95401561600005],[124.32104097000001,13.953882521000025],[124.32197134600005,13.948949231000029],[124.34591257900001,13.963776327000062]]],[[[124.30754108100007,13.932857224000031],[124.30526304700004,13.933663317000025],[124.30520395300005,13.935492879000037],[124.30236629800004,13.935502667000037],[124.30335683100009,13.938280247000023],[124.3008668120001,13.94318630400005],[124.28879520100008,13.941474655000036],[124.28257228500001,13.94683864500007],[124.28595298500011,13.952439801000025],[124.28164410500005,13.961009185000023],[124.28240076400004,13.965093871000022],[124.28466829100012,13.965792460000046],[124.28134699400005,13.966976329000033],[124.28080866200003,13.970636338000077],[124.27879589600002,13.971673672000065],[124.28072590400006,13.97402809600004],[124.2787246050001,13.978381471000034],[124.27963125100007,13.983079376000035],[124.27832619500009,13.993526618000033],[124.27949713300006,13.997902507000049],[124.27818622600012,14.003065639000056],[124.27413282600003,14.005121184000075],[124.27285552300009,14.008660792000057],[124.27380536200008,14.011032291000049],[124.27190067900005,14.012506207000058],[124.27099133500008,14.016809521000027],[124.26953581900011,14.016991420000068],[124.26936586500005,14.015322367000067],[124.26782848100004,14.015511343000071],[124.26643540400005,14.013304700000049],[124.26326868500007,14.015305430000069],[124.24177242600001,14.014125281000076],[124.22977436400004,14.00386200500003],[124.232597,13.970067048000033],[124.23445831700008,13.904904440000053],[124.30754108100007,13.932857224000031]]],[[[124.26683017900007,14.021214051000072],[124.26644139500002,14.01972842400005],[124.268320205,14.019328790000031],[124.26777609900012,14.021723810000026],[124.26683017900007,14.021214051000072]]]]}},{"type":"Feature","properties":{"shapeName":"Baras","shapeISO":"","shapeID":"30758251B70953932532311","shapeGroup":"PHL","shapeType":"ADM3","psgc_code":"0502002000","legacy_psgc_code":"052002000","province":"Catanduanes"},"geometry":{"type":"MultiPolygon","coordinates":[[[[124.40021001100001,13.720993974000066],[124.39361585300003,13.718366819000039],[124.3949607620001,13.716027100000076],[124.39965793800002,13.717690892000064],[124.40115884700003,13.719767716000035],[124.40021001100001,13.720993974000066]]],[[[124.39639406200001,13.736327866000067],[124.32122952300006,13.747607808000055],[124.3283992480001,13.733744754000043],[124.32944864600006,13.712763344000052],[124.33590375400001,13.699439967000046],[124.3381926730001,13.686633802000074],[124.33416116400008,13.648100982000074],[124.334549433,13.634545909000053],[124.34622517300011,13.626130222000029],[124.34851244200001,13.627079184000024],[124.34888906600008,13.628774144000033],[124.34206825100011,13.640652369000065],[124.34677919800004,13.642958863000047],[124.3461286810001,13.64572909800006],[124.34751785300011,13.64904746600007],[124.35685529900002,13.650313458000028],[124.3629469330001,13.658518660000027],[124.36685397100007,13.659353569000075],[124.36735214600003,13.656235123000044],[124.36831007900003,13.658025466000026],[124.373817658,13.659002291000036],[124.3738494590001,13.660600518000024],[124.3778764430001,13.662963053000055],[124.377506906,13.659129192000023],[124.37952375500004,13.656484626000065],[124.37662117000002,13.654772904000026],[124.37819593900008,13.652034207000042],[124.37825822700006,13.647168801000078],[124.38069581100001,13.64542115300003],[124.38154770400001,13.649274810000065],[124.38430078700003,13.649357872000053],[124.38635366500012,13.652919671000063],[124.38886126300008,13.652833534000024],[124.38979056200003,13.655444690000024],[124.39530897600002,13.655351179000036],[124.39714071300011,13.653094973000066],[124.40171940500011,13.654096022000033],[124.401136199,13.658559108000077],[124.40426611800001,13.65907777700005],[124.40671605000011,13.661322110000071],[124.40919972600011,13.660118307000062],[124.41162710300011,13.664772842000048],[124.4132195840001,13.663612397000065],[124.41652054800011,13.666153853000026],[124.41597419800007,13.668478419000053],[124.40906861400003,13.669234365000023],[124.40554864500007,13.671064972000067],[124.40588571600006,13.674474399000076],[124.40943765700001,13.675338700000054],[124.4103672550001,13.676957547000029],[124.40933615400002,13.679119662000062],[124.4108473020001,13.68448707500005],[124.40803998000001,13.688583792000031],[124.40581369900008,13.686956302000056],[124.40309241700004,13.689333729000055],[124.39891433100001,13.688216830000044],[124.39365300500003,13.691351160000067],[124.39073976300006,13.690715645000068],[124.38880810600006,13.692239216000075],[124.38923506000003,13.694557793000058],[124.39107133300001,13.695399637000037],[124.38928810800007,13.696404140000027],[124.38993533500002,13.699109624000073],[124.39700277200006,13.70409932800004],[124.39607459900003,13.707590192000055],[124.39738622400012,13.70833742800005],[124.39653022800007,13.70935649300003],[124.39061103000006,13.708348039000043],[124.3899345850001,13.709812010000064],[124.38821182900006,13.709219867000058],[124.38567290100002,13.710636172000022],[124.38463372500007,13.716460622000056],[124.38609348400007,13.719778656000074],[124.3914990290001,13.719292305000067],[124.3906453400001,13.724079582000059],[124.39259168000001,13.726096773000052],[124.38813610800003,13.72931746300003],[124.39639406200001,13.736327866000067]]]]}},{"type":"Feature","properties":{"shapeName":"Bato","shapeISO":"","shapeID":"30758251B781054791526","shapeGroup":"PHL","shapeType":"ADM3","psgc_code":"0502003000","legacy_psgc_code":"052003000","province":"Catanduanes"},"geometry":{"type":"MultiPolygon","coordinates":[[[[124.33541101800006,13.562454194000054],[124.33401196300008,13.561507899000048],[124.33643967000012,13.561370543000066],[124.33541101800006,13.562454194000054]]],[[[124.334549433,13.634545909000053],[124.31974919900006,13.631630020000046],[124.31114144500009,13.631392485000049],[124.30095004300006,13.63374002300003],[124.26084580100007,13.633861687000035],[124.2624707980001,13.593959809000069],[124.27303195700006,13.595852660000048],[124.28743365000003,13.592728562000048],[124.29576989400005,13.593449656000075],[124.30645995600003,13.591015060000075],[124.31436439800007,13.58752404300003],[124.31559419100006,13.583391039000048],[124.31304111600002,13.57528035200005],[124.31701485700012,13.572993889000031],[124.31605667100007,13.569075401000077],[124.31830626700003,13.566257090000022],[124.31465550700011,13.560813414000052],[124.31930591500009,13.556551315000036],[124.31722674900004,13.552003935000073],[124.3185337760001,13.552848968000035],[124.3193861960001,13.551552403000073],[124.32200489900004,13.553709089000051],[124.32540144000006,13.552315333000024],[124.32863195200002,13.54712382200006],[124.33450598400009,13.549126620000038],[124.33683697800006,13.546746900000073],[124.33895952500006,13.547947530000044],[124.33998624900005,13.546300730000041],[124.3452111360001,13.549260102000062],[124.33886933700012,13.550613203000069],[124.33743498400008,13.549365958000067],[124.33497208300003,13.55175046200003],[124.33522739400007,13.55356944500005],[124.3319371660001,13.553437331000055],[124.33032755900001,13.555438497000068],[124.32893547900005,13.55447967300006],[124.32638436500008,13.557551820000072],[124.33299702600004,13.563744439000061],[124.33408024500011,13.56639814600004],[124.33723332700004,13.566221188000043],[124.3368482190001,13.56820943200006],[124.33471295100003,13.56891600800003],[124.3339775820001,13.574143449000076],[124.34375517600006,13.572416382000029],[124.34616641100001,13.574240684000074],[124.34443544400006,13.575445509000076],[124.34487804700007,13.581472905000055],[124.34285435600009,13.585239963000049],[124.34435261600004,13.588709034000033],[124.3440523060001,13.592770337000047],[124.34610238800008,13.593864392000057],[124.34596716700003,13.59653380800006],[124.34936338900002,13.594447729000024],[124.35074906400007,13.595853077000072],[124.34683662100008,13.599575291000065],[124.35025876000009,13.605190782000022],[124.3502977390001,13.60803975400006],[124.34724739800004,13.609019980000028],[124.34619152300002,13.611558453000043],[124.34922608600004,13.616019750000078],[124.34654764600009,13.614790870000036],[124.34678092100012,13.617070142000046],[124.34489466500008,13.618250213000067],[124.34641409200003,13.620372916000065],[124.34428934900006,13.623019961000068],[124.34622517300011,13.626130222000029],[124.334549433,13.634545909000053]]]]}},{"type":"Feature","properties":{"shapeName":"Caramoran","shapeISO":"","shapeID":"30758251B83263319405118","shapeGroup":"PHL","shapeType":"ADM3","psgc_code":"0502004000","legacy_psgc_code":"052004000","province":"Catanduanes"},"geometry":{"type":"MultiPolygon","coordinates":[[[[124.232597,13.970067048000033],[124.18139579300009,13.989616709000074],[124.13724087700007,14.01079715800006],[124.13590383100006,14.007351433000053],[124.12584369500007,14.002308276000065],[124.13195615000006,14.00165961700003],[124.12972027100011,13.999004035000041],[124.13073881600008,13.996527066000056],[124.12984339000002,13.992949776000046],[124.12734148100003,13.992351580000047],[124.12782602700008,13.989660197000035],[124.13033963900011,13.989072079000039],[124.13094466900009,13.987410418000024],[124.13006900800008,13.979499532000034],[124.127917582,13.979086948000031],[124.12764528800005,13.977212432000044],[124.1306014700001,13.967403519000072],[124.13482851700007,13.963179944000046],[124.13428157700002,13.961110678000068],[124.13832168600004,13.953994995000073],[124.14213203000008,13.941540060000023],[124.14715812200006,13.93725312500004],[124.14832108200005,13.925724167000055],[124.1433999520001,13.92047572100006],[124.14085032800006,13.920218705000025],[124.14385092200007,13.913496370000075],[124.14701875800006,13.910611742000071],[124.14239461500006,13.908363701000042],[124.1404189650001,13.910446122000053],[124.13824731900002,13.908129737000024],[124.13897263700005,13.905081052000071],[124.14125346900005,13.905110254000022],[124.14428440900008,13.89945401700004],[124.1404887110001,13.897353071000055],[124.13254215300003,13.883982298000035],[124.13053272400009,13.883715822000056],[124.12940980500002,13.886116542000025],[124.1280931550001,13.88579106700007],[124.12940512800003,13.881353768000054],[124.13189930800002,13.879103684000029],[124.1309091390001,13.872876450000035],[124.1365335700001,13.871186244000057],[124.13626554100006,13.867860301000064],[124.13772102900009,13.865365516000054],[124.13662822200001,13.859330748000048],[124.13757460200009,13.854594659000043],[124.1347611010001,13.846435757000052],[124.13307434700005,13.832454780000035],[124.13287696700002,13.820399085000076],[124.13610577600002,13.797533625000028],[124.13372784100011,13.790068980000058],[124.12856528700001,13.781618176000052],[124.14334697200002,13.747822816000053],[124.16301286100008,13.73009169200003],[124.16783076200011,13.728018656000074],[124.20042642700002,13.767090016000054],[124.22812151800008,13.77392831000003],[124.25346517900005,13.786194089000048],[124.2034339700001,13.852552064000065],[124.2618838300001,13.871629437000024],[124.23445831700008,13.904904440000053],[124.232597,13.970067048000033]]],[[[124.01317193700004,14.026096134000056],[124.01438500400002,14.023036766000075],[124.01615455500007,14.024222955000027],[124.02010809300009,14.019421815000044],[124.02023175600004,14.01746375700003],[124.0185337040001,14.017302259000076],[124.01782463100005,14.014508362000072],[124.02518565200012,14.014189028000033],[124.02329348800004,14.018877274000033],[124.01760152300005,14.025432421000062],[124.01385310300009,14.025017257000059],[124.01317193700004,14.026096134000056]]],[[[124.05946556300012,14.031578023000066],[124.05851066800005,14.030361665000044],[124.05938705200003,14.02802622400003],[124.06515911300005,14.020668757000067],[124.06644301300003,14.022186075000036],[124.06307416400011,14.027499087000024],[124.06135440500009,14.027121102000024],[124.05946556300012,14.031578023000066]]],[[[124.03913243000011,14.032197497000027],[124.03604720800001,14.031450977000077],[124.03477820700004,14.02726787000006],[124.03707683000005,14.022663794000039],[124.03739751300009,14.018537914000035],[124.03611804900004,14.017958320000048],[124.04022735800004,14.013693715000045],[124.04156330100011,14.015338753000037],[124.03937296000004,14.018865643000026],[124.04211970500012,14.020048098000075],[124.04540814300003,14.017613658000073],[124.04537556600008,14.014433939000071],[124.04728873700003,14.013651348000053],[124.0475412830001,14.01582243300004],[124.0506579470001,14.017745821000062],[124.04718259000003,14.020396525000024],[124.0465733530001,14.024191691000055],[124.0487157980001,14.028093160000026],[124.05165990800003,14.02727877500007],[124.05135281100002,14.030345426000054],[124.04970118200004,14.032052842000041],[124.04544070400004,14.031860574000063],[124.04415231000007,14.028728133000072],[124.03913243000011,14.032197497000027]]]]}},{"type":"Feature","properties":{"shapeName":"Gigmoto","shapeISO":"","shapeID":"30758251B49692104133170","shapeGroup":"PHL","shapeType":"ADM3","psgc_code":"0502005000","legacy_psgc_code":"052005000","province":"Catanduanes"},"geometry":{"type":"MultiPolygon","coordinates":[[[[124.40557721200003,13.773405061000062],[124.40352184700009,13.771152406000056],[124.40472870200006,13.769591534000028],[124.41108960300005,13.766775128000063],[124.41240814800005,13.770609984000032],[124.41010205200007,13.772118748000025],[124.40775503600003,13.771106829000075],[124.40557721200003,13.773405061000062]]],[[[124.42227820700009,13.778775864000067],[124.42129270100008,13.777844199000072],[124.42225337400009,13.777186535000055],[124.42167485700008,13.776783238000064],[124.42202104100011,13.776348897000048],[124.42312778900009,13.776059046000057],[124.42214040100009,13.776867173000028],[124.42304609200005,13.777046748000032],[124.42267573800007,13.777589428000056],[124.42393348200005,13.77725478700006],[124.42227820700009,13.778775864000067]]],[[[124.42080380800007,13.78437195600003],[124.42000717600001,13.783061556000064],[124.42128982700001,13.783385863000035],[124.42080380800007,13.78437195600003]]],[[[124.42242532900002,13.806516147000025],[124.42227812700003,13.80467892200005],[124.42484701100011,13.804548922000038],[124.42242532900002,13.806516147000025]]],[[[124.39639406200001,13.736327866000067],[124.40113673500002,13.740237206000074],[124.39920535400006,13.740848219000043],[124.39871652900001,13.745025762000068],[124.3955111890001,13.745341670000073],[124.3930594310001,13.747807317000024],[124.394854473,13.75051280100007],[124.40176317900011,13.751604042000054],[124.40792891700005,13.750248627000076],[124.409636868,13.75162626100007],[124.40606821200004,13.753077738000059],[124.4046636810001,13.757676918000072],[124.40309913100009,13.756835716000069],[124.40183734200002,13.758003927000061],[124.40227027600008,13.76019369900007],[124.4051964040001,13.760248316000059],[124.40551253500007,13.761611682000023],[124.40270745100008,13.763822126000036],[124.40122696900005,13.769530521000036],[124.39381025800003,13.774901450000073],[124.3928661220001,13.779031110000062],[124.39797056300006,13.782461186000035],[124.40317983800003,13.780029955000032],[124.40509932400005,13.783562778000032],[124.40814772300007,13.784458026000038],[124.40947033400005,13.783009757000059],[124.41160028800005,13.78370374900004],[124.41417540100008,13.781184447000044],[124.41480896000007,13.783173650000037],[124.41643513400004,13.781764555000052],[124.41869300200005,13.78294020800007],[124.41946039000004,13.784228380000059],[124.41774677100011,13.786054264000029],[124.41870441900005,13.788469580000026],[124.41742610900008,13.789683892000028],[124.41964345500003,13.79102524600006],[124.42023275400004,13.79565649400007],[124.42202749400008,13.795927042000073],[124.42105656900003,13.797433286000057],[124.41704067100011,13.795562887000074],[124.41500122500008,13.796616568000047],[124.41555174700011,13.807451868000044],[124.41361563300006,13.811079849000066],[124.41526784400003,13.813768418000052],[124.41468740800008,13.814712667000038],[124.41203067600009,13.812647451000032],[124.40962495300005,13.813319657000022],[124.40948314600007,13.816318471000045],[124.4116104740001,13.817142121000074],[124.41275953600007,13.81618736300004],[124.4137355580001,13.81797318200006],[124.41172842300011,13.819591459000037],[124.41189413000006,13.821203079000043],[124.408016158,13.821343355000067],[124.40962472900003,13.822706976000063],[124.40763466500005,13.823570553000025],[124.40841986600003,13.825844613000072],[124.41362420400003,13.826232707000031],[124.41438911300008,13.827961994000077],[124.41320239800007,13.830163816000038],[124.41509722100011,13.831618900000024],[124.4138895540001,13.833401010000046],[124.41499800600002,13.835446041000068],[124.41070687500007,13.837795546000052],[124.4083100260001,13.835588092000023],[124.40065900900004,13.833865427000035],[124.3990422820001,13.837895968000055],[124.40409753100005,13.842190899000059],[124.39516287200001,13.841745514000024],[124.30169064400002,13.799086885000065],[124.28404280300003,13.783634604000042],[124.2761764170001,13.777355758000056],[124.30126560400004,13.762214104000066],[124.32122952300006,13.747607808000055],[124.39639406200001,13.736327866000067]]]]}},{"type":"Feature","properties":{"shapeName":"Pandan","shapeISO":"","shapeID":"30758251B58304777640417","shapeGroup":"PHL","shapeType":"ADM3","psgc_code":"0502006000","legacy_psgc_code":"052006000","province":"Catanduanes"},"geometry":{"type":"MultiPolygon","coordinates":[[[[124.26777609900012,14.021723810000026],[124.2679451360001,14.02351989300007],[124.26683017900007,14.021214051000072],[124.26777609900012,14.021723810000026]]],[[[124.26326868500007,14.015305430000069],[124.264111393,14.016536226000028],[124.25895329000002,14.01980764800004],[124.26218565800002,14.023341],[124.26136774400004,14.025248886000043],[124.26510242900008,14.026548169000023],[124.26389053200012,14.027535808000039],[124.26470665400007,14.028929256000026],[124.26211226500004,14.02975862900007],[124.26284988000009,14.03318826800006],[124.261379841,14.034169812000073],[124.25858109100011,14.032659194000075],[124.2545700180001,14.038258112000051],[124.25291680100008,14.036241458000063],[124.25080209700002,14.037140715000078],[124.25171500500005,14.04239375700007],[124.2483980510001,14.050968670000032],[124.246000148,14.049778582000044],[124.24604684700012,14.053420239000047],[124.24121675000004,14.057132634000027],[124.2380015010001,14.057959890000063],[124.23766265100005,14.055727538000042],[124.23613126000009,14.055461611000055],[124.23453501300003,14.062901946000068],[124.22917117000009,14.068159579000053],[124.22494643700009,14.069451213000036],[124.21988057800002,14.076814257000024],[124.21822532300007,14.075967728000023],[124.21660285500002,14.078747199000077],[124.21524932600005,14.078694706000022],[124.21520551000003,14.085644303000038],[124.21272021000004,14.087538943000027],[124.21167610500004,14.094415666000032],[124.20841598200002,14.096510502000058],[124.20772119800006,14.099095890000058],[124.20578545500007,14.098434835000035],[124.206489486,14.100210735000076],[124.20415819900006,14.097105230000068],[124.2029054520001,14.098836282000036],[124.20252288800009,14.096522403000051],[124.20015205400011,14.09639369000007],[124.2005907680001,14.095021703000043],[124.19795858600003,14.093159653000043],[124.19740055900002,14.088626371000032],[124.19516265300001,14.087326963000066],[124.1925353040001,14.088139541000032],[124.19124761700004,14.08620660300005],[124.18818728000008,14.075981977000026],[124.18979825600002,14.068254266000054],[124.18570844500005,14.063545817000033],[124.18005431900008,14.061773738000056],[124.17635943100004,14.066423815000064],[124.1746802880001,14.065906573000063],[124.17724766900005,14.060255445000053],[124.17411061300004,14.05394758500006],[124.17037226800005,14.050681378000036],[124.16023483000004,14.054156638000052],[124.1593021000001,14.05344311600004],[124.16081536400009,14.052546062000033],[124.1582920190001,14.050207576000048],[124.15406187400004,14.05053244000004],[124.15283624800009,14.05193145000004],[124.1539604940001,14.053563569000062],[124.15154520100009,14.05531189900006],[124.15258529200003,14.05696957500004],[124.14668313100003,14.057872656000029],[124.14537058000008,14.060988415000054],[124.14199312700009,14.061686078000037],[124.14039550300004,14.063920550000034],[124.13856018700005,14.063120147000063],[124.13887223800009,14.06048961700003],[124.13552014600009,14.061583987000063],[124.131948856,14.060164591000046],[124.13002722500005,14.062066925000067],[124.12912235300007,14.059492405000071],[124.1265323,14.06037344400005],[124.12643119200004,14.058257094000055],[124.12840979100008,14.058232289000046],[124.13189086700004,14.053506479000077],[124.13420507300009,14.052981700000032],[124.13515644000006,14.050280702000066],[124.135523067,14.04779357800004],[124.13413317600009,14.04672404200005],[124.12565622400007,14.050335545000053],[124.12636562500006,14.047915224000064],[124.12521919300002,14.04722911500005],[124.12697645300011,14.045940857000062],[124.12902354900007,14.039502527000025],[124.12780335000002,14.038502709000056],[124.1301150480001,14.032620378000047],[124.129718378,14.029379523000046],[124.13268553000012,14.025636949000045],[124.13399213600007,14.019806940000024],[124.13935179300006,14.015407291000031],[124.13964869800009,14.013070637000055],[124.13724087700007,14.01079715800006],[124.18139579300009,13.989616709000074],[124.232597,13.970067048000033],[124.22977436400004,14.00386200500003],[124.24177242600001,14.014125281000076],[124.26326868500007,14.015305430000069]]]]}},{"type":"Feature","properties":{"shapeName":"Panganiban","shapeISO":"","shapeID":"30758251B52035813830347","shapeGroup":"PHL","shapeType":"ADM3","psgc_code":"0502007000","legacy_psgc_code":"052007000","province":"Catanduanes"},"geometry":{"type":"MultiPolygon","coordinates":[[[[124.31897225700004,13.900469215000044],[124.31969170200011,13.901289008000049],[124.31413054000006,13.897802957000067],[124.31897225700004,13.900469215000044]]],[[[124.32785336900008,13.936339815000053],[124.32720264900001,13.935449362000043],[124.32870089800008,13.93560950400007],[124.32785336900008,13.936339815000053]]],[[[124.23445831700008,13.904904440000053],[124.2618838300001,13.871629437000024],[124.28453582600002,13.87814080100003],[124.30552399800001,13.89440380600007],[124.32600898300007,13.894827354000029],[124.34429489200011,13.901110914000071],[124.35444313000005,13.91357272600004],[124.35558765100006,13.914906863000056],[124.35443375800003,13.91933238300004],[124.35948313300003,13.924256280000066],[124.35553119100007,13.923889580000036],[124.353793343,13.926459974000068],[124.35266633900005,13.926115679000077],[124.35209128400004,13.929681903000073],[124.35506883700009,13.930367903000047],[124.355966426,13.932187663000036],[124.35219331000008,13.936251576000075],[124.35240453600011,13.93932077900007],[124.3521907390001,13.938259143000039],[124.35147345100006,13.939924631000054],[124.34979122300001,13.938217546000033],[124.34822318300007,13.93871647700007],[124.3488668760001,13.937020566000058],[124.34669998600009,13.935307844000022],[124.34478520100004,13.937801008000065],[124.34303200600004,13.936920261000068],[124.34086222300004,13.93804050700004],[124.33717872000011,13.936147879000032],[124.33498456900008,13.936997854000026],[124.33374935900008,13.932185903000061],[124.33170311600009,13.931797217000053],[124.33044611500009,13.934028899000054],[124.32971491500007,13.932910642000024],[124.329516925,13.926376914000059],[124.32696928100006,13.92520445200006],[124.32437960200002,13.921371231000023],[124.32527576300004,13.917853223000066],[124.3225850770001,13.915977603000044],[124.3231581450001,13.912370387000067],[124.32060585800002,13.90987249400007],[124.32376266900008,13.899192182000036],[124.32126224600006,13.901148486000068],[124.31832101300006,13.898357429000043],[124.31192880100002,13.897476420000032],[124.31672418000005,13.901930221000043],[124.31733756200003,13.908760806000032],[124.31628576600008,13.910960588000023],[124.31202503800012,13.912824514000022],[124.3102911090001,13.918678465000028],[124.30772161100003,13.917351193000059],[124.30428304200007,13.919394822000072],[124.30513830300004,13.921307308000053],[124.30316237700004,13.922689227000035],[124.30682403300011,13.923563306000062],[124.307225259,13.927042641000071],[124.31043037000006,13.927575250000075],[124.31416047200003,13.933703595000054],[124.31062516600002,13.936092765000069],[124.308688103,13.929838331000042],[124.30754108100007,13.932857224000031],[124.23445831700008,13.904904440000053]]],[[[124.32197134600005,13.948949231000029],[124.32254781800009,13.945783439000024],[124.32697040000005,13.94112229500007],[124.32911616600006,13.945898245000024],[124.33064068700003,13.945828695000046],[124.3331716460001,13.941669188000049],[124.3393507940001,13.940897835000044],[124.34037620300012,13.942102006000027],[124.34290076800005,13.94177957100004],[124.34483870400004,13.943959146000054],[124.34405358100003,13.945978953000065],[124.34637674900011,13.947907948000022],[124.35500350600012,13.945984485000054],[124.352637436,13.948772081000072],[124.35371750800005,13.950394397000025],[124.35517049500004,13.949558393000075],[124.35531932000004,13.951345850000052],[124.35149359400009,13.953217488000064],[124.35089208500005,13.955588713000054],[124.35226475000002,13.955839082000068],[124.35053129900007,13.957666458000062],[124.34703363500012,13.956231812000055],[124.34316298200008,13.949745363000034],[124.33996249200004,13.952391147000071],[124.34107033100008,13.953867471000024],[124.34258833600006,13.952995624000039],[124.34629409700005,13.960875531000056],[124.34847336900009,13.960517529000072],[124.34591257900001,13.963776327000062],[124.32197134600005,13.948949231000029]]]]}},{"type":"Feature","properties":{"shapeName":"San Andres","shapeISO":"","shapeID":"30758251B65152519595273","shapeGroup":"PHL","shapeType":"ADM3","psgc_code":"0502008000","legacy_psgc_code":"052008000","province":"Catanduanes"},"geometry":{"type":"Polygon","coordinates":[[[124.12856528700001,13.781618176000052],[124.12732575500002,13.77826308300007],[124.12826535400006,13.768232541000032],[124.1218799940001,13.75231236600007],[124.10094881500004,13.736170953000055],[124.10129732000007,13.734552561000044],[124.10376675000009,13.735895001000074],[124.10520121000002,13.734675845000027],[124.10615841600008,13.727415154000028],[124.10060267200004,13.719795993000048],[124.10041474000002,13.713348279000058],[124.09760397000002,13.711150934000045],[124.09563079100008,13.70468472500005],[124.08702314200002,13.69875697200007],[124.07503501800011,13.694927150000069],[124.07086238700003,13.696684160000075],[124.06859721400008,13.69427920000004],[124.06103756400012,13.691411206000055],[124.06042583500005,13.689157116000047],[124.0568886750001,13.687787229000037],[124.05827116700004,13.685757139000032],[124.05712073000007,13.683396037000023],[124.0472514280001,13.677601467000045],[124.04547282300007,13.67822011100003],[124.04526471200006,13.671186815000056],[124.04338102100007,13.670780363000063],[124.04189680200011,13.672329687000058],[124.03806665600007,13.67004229500003],[124.03987584300012,13.666188035000062],[124.038652049,13.665006945000073],[124.03750562800008,13.66666488900006],[124.03810222200002,13.664935356000058],[124.0368881490001,13.664262952000058],[124.030695594,13.666883745000064],[124.02331355100011,13.66317569000006],[124.02520896200008,13.660939799000062],[124.02503224100008,13.657128560000046],[124.02991033300009,13.656330939000043],[124.03042750000009,13.652511749000041],[124.03228133400012,13.653337156000077],[124.03237539500003,13.649284162000072],[124.03350303700006,13.65025061600005],[124.03489652400003,13.649253120000026],[124.04037493900012,13.641459561000033],[124.04096450100008,13.635058936000064],[124.05017150100002,13.629270973000075],[124.05057682800009,13.626371874000029],[124.05695127600006,13.619183804000045],[124.05875525300007,13.608157430000063],[124.05670953100002,13.607700796000074],[124.05570867100005,13.608978897000043],[124.05056959600006,13.607986500000038],[124.04970557900003,13.606158368000024],[124.04708007900001,13.606741316000068],[124.04780630200003,13.60185137600007],[124.05247970300002,13.600503367000044],[124.05732953100005,13.596064353000031],[124.06900319500005,13.604178615000023],[124.07247424000002,13.602678002000061],[124.07722067000009,13.604466899000045],[124.07966693300011,13.601842323000028],[124.09590628800004,13.598298408000062],[124.09955384800003,13.593768984000064],[124.10582369100007,13.593534844000033],[124.10898778400008,13.591815072000031],[124.1115531580001,13.587359502000027],[124.11760145000005,13.584157384000036],[124.11745347700003,13.582781728000043],[124.12064671300004,13.58377643700004],[124.12036093800009,13.581196993000049],[124.12370271900011,13.57985665800004],[124.1240415420001,13.57817343000005],[124.12727718500003,13.578298947000064],[124.13750468,13.574426699000071],[124.14456818600001,13.566693851000025],[124.14704021600005,13.556622462000064],[124.15086610500009,13.563172829000052],[124.15441447,13.584633920000044],[124.15298540700007,13.594006724000053],[124.15041133200009,13.594653798000024],[124.14938180200011,13.59816771900006],[124.15397460100007,13.601351763000025],[124.15275847700002,13.609432669000057],[124.14645020700004,13.629190401000074],[124.14481897300004,13.670237966000059],[124.1645232840001,13.671798288000048],[124.17322388500008,13.674179216000027],[124.16758017400002,13.704966252000077],[124.16783076200011,13.728018656000074],[124.16301286100008,13.73009169200003],[124.14334697200002,13.747822816000053],[124.12856528700001,13.781618176000052]]]}},{"type":"Feature","properties":{"shapeName":"San Miguel","shapeISO":"","shapeID":"30758251B81030660303746","shapeGroup":"PHL","shapeType":"ADM3","psgc_code":"0502009000","legacy_psgc_code":"052009000","province":"Catanduanes"},"geometry":{"type":"Polygon","coordinates":[[[124.32122952300006,13.747607808000055],[124.30126560400004,13.762214104000066],[124.2761764170001,13.777355758000056],[124.28404280300003,13.783634604000042],[124.26796449100004,13.784050114000024],[124.25346517900005,13.786194089000048],[124.22812151800008,13.77392831000003],[124.20042642700002,13.767090016000054],[124.16783076200011,13.728018656000074],[124.16758017400002,13.704966252000077],[124.17322388500008,13.674179216000027],[124.19898233200001,13.651270594000039],[124.20826932900002,13.647192080000025],[124.26084580100007,13.633861687000035],[124.30095004300006,13.63374002300003],[124.31114144500009,13.631392485000049],[124.31974919900006,13.631630020000046],[124.334549433,13.634545909000053],[124.33416116400008,13.648100982000074],[124.3381926730001,13.686633802000074],[124.33590375400001,13.699439967000046],[124.32944864600006,13.712763344000052],[124.3283992480001,13.733744754000043],[124.32122952300006,13.747607808000055]]]}},{"type":"Feature","properties":{"shapeName":"Viga","shapeISO":"","shapeID":"30758251B12930649127475","shapeGroup":"PHL","shapeType":"ADM3","psgc_code":"0502010000","legacy_psgc_code":"052010000","province":"Catanduanes"},"geometry":{"type":"MultiPolygon","coordinates":[[[[124.41352612900005,13.85897959500005],[124.41231623400006,13.858148371000027],[124.41462214500007,13.859118109000065],[124.41352612900005,13.85897959500005]]],[[[124.39417373700007,13.899150871000074],[124.3930845970001,13.893737196000075],[124.39515104200007,13.894485831000054],[124.39563855900008,13.896604375000038],[124.39417373700007,13.899150871000074]]],[[[124.25346517900005,13.786194089000048],[124.26796449100004,13.784050114000024],[124.28404280300003,13.783634604000042],[124.30169064400002,13.799086885000065],[124.39516287200001,13.841745514000024],[124.40409753100005,13.842190899000059],[124.40663317100007,13.843512029000067],[124.40676723700005,13.84779822400003],[124.40870029300004,13.846802600000046],[124.41050914900006,13.848220569000034],[124.41290010800003,13.845986774000039],[124.41461375500012,13.847868468000058],[124.41818378200003,13.84621818000005],[124.42109771900004,13.84668543500004],[124.4214677110001,13.848724662000052],[124.41970265700002,13.849137462000044],[124.42007502600006,13.850834878000057],[124.41719190300012,13.853634379000027],[124.4159507280001,13.85834045100006],[124.40798577800001,13.856683358000055],[124.40432307100002,13.858985251000036],[124.40303770800006,13.856549947000076],[124.39977596200004,13.858761299000037],[124.40079619000005,13.863030683000034],[124.40688283400004,13.861671735000073],[124.40902743200002,13.865084086000024],[124.41181340000003,13.863993754000035],[124.41420789900008,13.86540184100005],[124.41275098800008,13.869330344000048],[124.40948563100005,13.868226981000078],[124.4097107660001,13.870368778000056],[124.40838252700007,13.870047129000056],[124.40859988000011,13.871936813000048],[124.40701499500005,13.872303497000075],[124.40809288100002,13.874390214000073],[124.40659038600006,13.877087239000048],[124.40781984800003,13.879476630000056],[124.40582557000005,13.879574614000035],[124.40666717700003,13.880551775000072],[124.4029399100001,13.884264537000035],[124.40196447100004,13.881759771000077],[124.40415546500003,13.879795304000027],[124.40405959600002,13.877413226000044],[124.40147572300009,13.874561279000034],[124.39786330100003,13.875871893000067],[124.39710284900002,13.877445647000059],[124.39940875400009,13.879767403000074],[124.39547091100007,13.884835319000047],[124.3987375050001,13.88997305600003],[124.39693494200003,13.891423917000054],[124.39832674400009,13.891817777000028],[124.39286412400008,13.89320516600003],[124.3938497050001,13.886155379000058],[124.39103400200008,13.880649422000033],[124.39112972400005,13.873335206000036],[124.38943448400005,13.871385471000053],[124.38720417400009,13.871730803000048],[124.38599581200003,13.873494579000067],[124.38652811300005,13.88594278200003],[124.38551679200009,13.887321074000056],[124.38667650000002,13.890718260000028],[124.38467838500003,13.893636988000026],[124.379912794,13.891237335000028],[124.38199917400004,13.890114149000055],[124.38025248800011,13.888720587000023],[124.37603077000006,13.88848739100007],[124.37328160400011,13.890800970000043],[124.37391102900006,13.895611987000052],[124.36531718000003,13.895713687000068],[124.36327603500001,13.898671809000064],[124.36581919500009,13.902107855000054],[124.36169007300009,13.902826362000042],[124.3607815900001,13.904509752000024],[124.3596838420001,13.902919691000022],[124.35784320000005,13.903670022000028],[124.35718991100009,13.907112160000054],[124.35422380400007,13.909274554000035],[124.35707980900008,13.912269650000042],[124.35444313000005,13.91357272600004],[124.34429489200011,13.901110914000071],[124.32600898300007,13.894827354000029],[124.30552399800001,13.89440380600007],[124.28453582600002,13.87814080100003],[124.2618838300001,13.871629437000024],[124.2034339700001,13.852552064000065],[124.25346517900005,13.786194089000048]]]]}},{"type":"Feature","properties":{"shapeName":"Virac","shapeISO":"","shapeID":"30758251B19106004120834","shapeGroup":"PHL","shapeType":"ADM3","psgc_code":"0502011000","legacy_psgc_code":"052011000","province":"Catanduanes"},"geometry":{"type":"Polygon","coordinates":[[[124.26084580100007,13.633861687000035],[124.20826932900002,13.647192080000025],[124.19898233200001,13.651270594000039],[124.17322388500008,13.674179216000027],[124.1645232840001,13.671798288000048],[124.14481897300004,13.670237966000059],[124.14645020700004,13.629190401000074],[124.15275847700002,13.609432669000057],[124.15397460100007,13.601351763000025],[124.14938180200011,13.59816771900006],[124.15041133200009,13.594653798000024],[124.15298540700007,13.594006724000053],[124.15441447,13.584633920000044],[124.15086610500009,13.563172829000052],[124.14704021600005,13.556622462000064],[124.15917011800002,13.546886571000073],[124.15765202800003,13.544322156000021],[124.15997759400011,13.54390498500004],[124.16480605900006,13.538843093000025],[124.16476205600009,13.536977678000028],[124.16688257100009,13.537598],[124.17177081300008,13.534085700000048],[124.17147098500004,13.530806898000037],[124.17573133400003,13.532821042000023],[124.1779269320001,13.532334770000034],[124.17972612200003,13.531184710000048],[124.17740447800008,13.528041872000074],[124.1797415640001,13.528678897000077],[124.1847190950001,13.525918141000034],[124.18497363100005,13.52288823200007],[124.19100588000003,13.52026763200007],[124.19140237900001,13.518931733000045],[124.1971003860001,13.520173251000074],[124.1980549110001,13.518754686000023],[124.20594290000008,13.518587798000055],[124.2085350210001,13.516647988000045],[124.20750600100007,13.520051933000047],[124.20980095900006,13.517690715000072],[124.21146913600012,13.51799810600005],[124.21079257000008,13.519984112000031],[124.21481271000005,13.522610456000052],[124.21089899600008,13.53057423100006],[124.2096382100001,13.53677562200005],[124.20590536300006,13.542956269000058],[124.21095406100005,13.55987766800007],[124.21441269500008,13.562892723000061],[124.22132004200012,13.563743144000057],[124.22072517600009,13.565623729000038],[124.22563696600002,13.567176053000026],[124.22484731600002,13.57317665100004],[124.23002510600008,13.576167757000064],[124.23261226300008,13.580622853000023],[124.23516316900009,13.581069625000055],[124.23462664400006,13.582410158000073],[124.23908402600011,13.582045919000052],[124.24001382800009,13.585885078000047],[124.24259871800007,13.587940751000076],[124.25634461600009,13.593261685000073],[124.2624707980001,13.593959809000069],[124.26084580100007,13.633861687000035]]]}}]}
