{"type":"FeatureCollection","source":{"dataset":"geoBoundaries gbOpen PHL ADM3","commit":"9469f09","license":"CC BY 3.0 IGO","boundary_year":2020,"url":"https://media.githubusercontent.com/media/wmgeolab/geoBoundaries/9469f09/releaseData/gbOpen/PHL/ADM3/geoBoundaries-PHL-ADM3_simplified.geojson","upstream_sources":["NAMRIA","PSA","OCHA Philippines"],"reference":"https://ulap-nga.georisk.gov.ph/arcgis/rest/services/PSA/Municipal/MapServer/0","psgc_reference":"https://psa.gov.ph/classification/psgc/provinces/1400000000","notice":"Approximate planning/reference boundaries, not legal, cadastral, or survey-grade."},"features":[{"type":"Feature","properties":{"shapeName":"Banaue","shapeISO":"","shapeID":"30758251B61409714569525","shapeGroup":"PHL","shapeType":"ADM3","psgc_code":"1402701000","legacy_psgc_code":"142701000","province":"Ifugao"},"geometry":{"type":"Polygon","coordinates":[[[121.12908609800002,17.009840820000022],[121.10765113600007,17.008846962000064],[121.09105511000007,17.00615656100007],[121.07499735600004,17.002940487000046],[121.048369621,16.994817884000042],[121.04684582400012,16.990307060000077],[121.04864804400006,16.988300905000074],[121.04776784800003,16.981134635000046],[121.04484579400003,16.973868092000032],[121.04561674500007,16.967555465000032],[121.04266561500003,16.964914254000064],[121.04161070200007,16.961707845000035],[121.04151420000005,16.94226689900006],[121.03984135300004,16.938643158000048],[121.04110340200009,16.938097407000043],[121.03899543900002,16.935525554000037],[121.03934335500003,16.93364271300004],[121.03323776400009,16.92924941600006],[121.03471129200011,16.927073233000044],[121.03339466700004,16.92573614300005],[121.03428833500004,16.92408524600006],[121.03188703,16.919923893000032],[121.02977224400001,16.919685127000037],[121.03151864800009,16.917386150000027],[121.02779389600005,16.913572714000054],[121.02745280200008,16.909008870000036],[121.02885128900004,16.90742619200006],[121.02624163900009,16.90113572300004],[121.02689036700008,16.896744574000024],[121.02463319200001,16.89321996900003],[121.02599979500008,16.891256346000034],[121.02462922500001,16.888868262000074],[121.02657253000007,16.88788951300006],[121.02511539000011,16.878105310000024],[121.02847691500006,16.873985041000026],[121.028484466,16.867853981000053],[121.03122654300012,16.86631231700005],[121.03160222300005,16.861833657000034],[121.03636643700008,16.855598142000076],[121.04064453900003,16.853125737000028],[121.04021310700011,16.849869365000075],[121.06108680900002,16.861889977000033],[121.06101054100009,16.880051881000043],[121.08560534900005,16.894367126000077],[121.09152896900002,16.89363097300003],[121.09231732700005,16.891648877000023],[121.09389264200001,16.89281651400006],[121.10164578500007,16.891818256000022],[121.11188705100005,16.89750433000006],[121.1177177510001,16.89850658900002],[121.12497176400007,16.89670972400006],[121.14102095300007,16.877806838000026],[121.15279962600005,16.86934519600004],[121.15935780400002,16.864547126000048],[121.170391816,16.86385390600003],[121.17795918500008,16.860044624000068],[121.18214829100009,16.86418571400003],[121.19010643000001,16.858350416000064],[121.20156603100008,16.85604882100006],[121.20635722600002,16.860844461000056],[121.22187379700006,16.85372316200005],[121.21961776400008,16.89060811300004],[121.21826731700003,16.89312054800007],[121.21341085300003,16.89285404800006],[121.21307137600002,16.887283851000063],[121.21093567900004,16.892955163000067],[121.2086033810001,16.89355146400004],[121.20895956900006,16.889726413000062],[121.2064920900001,16.890018084000076],[121.20609180000008,16.88738855400004],[121.202393174,16.88864392100004],[121.2030487510001,16.886238426000034],[121.20112805400004,16.884145190000027],[121.20075155500001,16.887170904000072],[121.19213851400002,16.88724729200004],[121.19041763200005,16.891460453000036],[121.18863566000005,16.890799168000058],[121.18849412300005,16.887691001000064],[121.18715165000003,16.890259565000065],[121.18430557500005,16.88845516500004],[121.18337566700006,16.891359744000056],[121.18070429300008,16.889174877000073],[121.17622474900008,16.888858506000076],[121.17678645400008,16.891809588000058],[121.17264152500002,16.893213548000062],[121.17375579700001,16.89714476300003],[121.1703283270001,16.897594237000078],[121.17112767900005,16.900147143000027],[121.16891747600005,16.899085546000038],[121.1669660120001,16.899865977000047],[121.16997597900001,16.902102553000077],[121.16731344800007,16.90514872400007],[121.16962510300004,16.91844073900006],[121.16759715100011,16.919134236000048],[121.16838521500006,16.921403860000055],[121.16562173700004,16.920962544000076],[121.16658419900011,16.923255393000034],[121.16546523400007,16.926431170000058],[121.16686469800004,16.92922805200004],[121.16520046500011,16.935450727000045],[121.14847543100007,16.94866391100004],[121.12908609800002,17.009840820000022]]]}},{"type":"Feature","properties":{"shapeName":"Hungduan","shapeISO":"","shapeID":"30758251B52637175911657","shapeGroup":"PHL","shapeType":"ADM3","psgc_code":"1402702000","legacy_psgc_code":"142702000","province":"Ifugao"},"geometry":{"type":"Polygon","coordinates":[[[121.048369621,16.994817884000042],[121.03270594700007,16.989761326000064],[121.0229981980001,16.985088674000053],[121.00898631400003,16.984268722000024],[120.99386996900012,16.989062895000075],[120.98411000800002,16.984235071000057],[120.9719873570001,16.968866439000067],[120.96572756600006,16.955652496000027],[120.96322057900011,16.940686287000062],[120.94644349500004,16.897973181000054],[120.92279801100005,16.875224339000056],[120.92138135900007,16.861439122000036],[120.91012830800003,16.83411354900005],[120.89301445400008,16.821064410000076],[120.89232181200009,16.814869805000058],[120.89861210400011,16.77632258400007],[120.92036460500003,16.797906823000062],[120.94398318300011,16.803254843000047],[120.953268008,16.79566294800003],[120.98722404800003,16.777792548000036],[121.00019546800002,16.782513978000054],[121.00997306200009,16.776316432000044],[121.03015097100001,16.789251582000077],[121.04767831700008,16.810695142000043],[121.05106405700008,16.83644561500006],[121.04915126000003,16.840391172000068],[121.04388667500007,16.842593372000067],[121.04344495300006,16.847874271000023],[121.04021310700011,16.849869365000075],[121.04064453900003,16.853125737000028],[121.03636643700008,16.855598142000076],[121.03160222300005,16.861833657000034],[121.03122654300012,16.86631231700005],[121.028484466,16.867853981000053],[121.02847691500006,16.873985041000026],[121.02511539000011,16.878105310000024],[121.02657253000007,16.88788951300006],[121.02462922500001,16.888868262000074],[121.02599979500008,16.891256346000034],[121.02463319200001,16.89321996900003],[121.02689036700008,16.896744574000024],[121.02624163900009,16.90113572300004],[121.02885128900004,16.90742619200006],[121.02745280200008,16.909008870000036],[121.02779389600005,16.913572714000054],[121.03151864800009,16.917386150000027],[121.02977224400001,16.919685127000037],[121.03188703,16.919923893000032],[121.03428833500004,16.92408524600006],[121.03339466700004,16.92573614300005],[121.03471129200011,16.927073233000044],[121.03323776400009,16.92924941600006],[121.03934335500003,16.93364271300004],[121.03899543900002,16.935525554000037],[121.04110340200009,16.938097407000043],[121.03984135300004,16.938643158000048],[121.04151420000005,16.94226689900006],[121.04161070200007,16.961707845000035],[121.04266561500003,16.964914254000064],[121.04561674500007,16.967555465000032],[121.04484579400003,16.973868092000032],[121.04776784800003,16.981134635000046],[121.04864804400006,16.988300905000074],[121.04684582400012,16.990307060000077],[121.048369621,16.994817884000042]]]}},{"type":"Feature","properties":{"shapeName":"Kiangan","shapeISO":"","shapeID":"30758251B41727580901072","shapeGroup":"PHL","shapeType":"ADM3","psgc_code":"1402703000","legacy_psgc_code":"142703000","province":"Ifugao"},"geometry":{"type":"Polygon","coordinates":[[[121.13190370900008,16.70137236000005],[121.1428558130001,16.719689643000038],[121.15647533900005,16.73008291000002],[121.16478631400003,16.741741713000067],[121.16260732800004,16.74185441900005],[121.16178081600003,16.743770425000037],[121.16087820400003,16.74873563600005],[121.16225576800002,16.750477085000057],[121.1599944840001,16.75453180100004],[121.16190893100008,16.757404560000055],[121.16149468000003,16.76380242700003],[121.14621344300008,16.78161519500003],[121.14253216100008,16.781841048000047],[121.13898601000005,16.778012336000074],[121.13742212900002,16.778715442000077],[121.137053906,16.781937390000053],[121.13180487700004,16.784526690000064],[121.12606234100008,16.782102418000022],[121.12342145900004,16.78248311300007],[121.11776597900007,16.78690294200004],[121.11357427000007,16.79331882300005],[121.10944909600005,16.803964434000022],[121.10501976100011,16.804943450000053],[121.09654635900006,16.81163987900004],[121.08401808000008,16.811889748000056],[121.08559487000002,16.81678112800006],[121.07853689600006,16.823254088000056],[121.0771415690001,16.84111951600005],[121.06108680900002,16.861889977000033],[121.04021310700011,16.849869365000075],[121.04344495300006,16.847874271000023],[121.04388667500007,16.842593372000067],[121.04915126000003,16.840391172000068],[121.05106405700008,16.83644561500006],[121.04767831700008,16.810695142000043],[121.03015097100001,16.789251582000077],[121.00997306200009,16.776316432000044],[121.01083087800009,16.746612423000045],[121.01716144300008,16.755966133000072],[121.02464186600002,16.755105497000045],[121.03485430800004,16.760757945000023],[121.0448408090001,16.756510185000025],[121.05092746100001,16.749252863000038],[121.06241832800004,16.752815877000046],[121.08719519200008,16.73778904200003],[121.09027758000002,16.740426196000044],[121.09441311700004,16.73924461400003],[121.0952008380001,16.740220703000034],[121.10175947400012,16.732566107000025],[121.10703538300004,16.72940058300003],[121.109853928,16.730088240000043],[121.11715689300001,16.716607546000034],[121.11981233900008,16.71710635900007],[121.12072193900008,16.713262564000047],[121.12258515300005,16.71522847400007],[121.12565994200008,16.711594670000068],[121.12970226200002,16.710958172000062],[121.12931047400002,16.70635502400006],[121.13190370900008,16.70137236000005]]]}},{"type":"Feature","properties":{"shapeName":"Lagawe","shapeISO":"","shapeID":"30758251B93228488685386","shapeGroup":"PHL","shapeType":"ADM3","psgc_code":"1402704000","legacy_psgc_code":"142704000","province":"Ifugao"},"geometry":{"type":"Polygon","coordinates":[[[121.15279962600005,16.86934519600004],[121.14455841900008,16.854094545000066],[121.14318561100004,16.83334213300003],[121.1313988060001,16.835736500000053],[121.12131881500011,16.835465690000035],[121.11413726800004,16.832836705000034],[121.11347210000008,16.82313428300006],[121.10989798500009,16.820607263000056],[121.10214085000007,16.830837090000045],[121.09460150000007,16.82452140500004],[121.08506549700007,16.821646259000033],[121.08559487000002,16.81678112800006],[121.08401808000008,16.811889748000056],[121.09654635900006,16.81163987900004],[121.10501976100011,16.804943450000053],[121.10944909600005,16.803964434000022],[121.11357427000007,16.79331882300005],[121.11776597900007,16.78690294200004],[121.12342145900004,16.78248311300007],[121.12606234100008,16.782102418000022],[121.13180487700004,16.784526690000064],[121.137053906,16.781937390000053],[121.13742212900002,16.778715442000077],[121.13898601000005,16.778012336000074],[121.14253216100008,16.781841048000047],[121.14621344300008,16.78161519500003],[121.16149468000003,16.76380242700003],[121.16190893100008,16.757404560000055],[121.1599944840001,16.75453180100004],[121.16225576800002,16.750477085000057],[121.16087820400003,16.74873563600005],[121.16178081600003,16.743770425000037],[121.16260732800004,16.74185441900005],[121.16478631400003,16.741741713000067],[121.16726533400004,16.741568001000076],[121.1767461930001,16.74903402900003],[121.18037239000012,16.749529609000035],[121.19625512900006,16.76005162200005],[121.20165211800008,16.759779657000024],[121.20652935200008,16.757712725000033],[121.21375152600001,16.758722017000025],[121.2175771630001,16.755603488000077],[121.2204962510001,16.757730856000023],[121.22450924100008,16.757797337000056],[121.22798434600008,16.754225533000067],[121.230178195,16.745963850000066],[121.23781738100001,16.745734191000054],[121.24345007300008,16.741902510000045],[121.24281548800002,16.739666356000043],[121.24560653300011,16.731624916000044],[121.24372203700011,16.729247085000054],[121.24519642700011,16.72513671400003],[121.24431383600006,16.721875496000052],[121.24164055900007,16.718100583000023],[121.24265097800003,16.714552267000045],[121.25085641500004,16.710164029000055],[121.25499536000007,16.699905917000024],[121.26140827200004,16.69662029600005],[121.26665278100006,16.691884257000027],[121.27176778800003,16.682971816000077],[121.28727959800005,16.671059357000047],[121.29024550300005,16.670615568000073],[121.29137240400007,16.673553481000056],[121.29404244500006,16.679246117000048],[121.29188348000002,16.683741860000055],[121.28823650000004,16.686236734000033],[121.28837351600009,16.688370604000056],[121.29365355700008,16.694119219000072],[121.30436554300002,16.693060208000077],[121.31214757400005,16.697778868000057],[121.31376456600003,16.696882911000046],[121.31541259900007,16.701307632000066],[121.31434472400008,16.71791163300003],[121.32638383100004,16.733089630000052],[121.32385486800001,16.73849314000006],[121.31617159600012,16.74185794500005],[121.31323863800003,16.74477291000005],[121.30769660600004,16.744736923000062],[121.30778657400003,16.749613191000037],[121.30355807500007,16.749865102000058],[121.30129088100011,16.751574495000057],[121.3009130150001,16.75511923600004],[121.30375600500008,16.758753945000024],[121.30388196000001,16.761111108000023],[121.29992336600003,16.763720182000043],[121.2991496410001,16.766941038000027],[121.30217256700007,16.76852447600004],[121.30033721900008,16.77318482100003],[121.30204661200003,16.77676554900006],[121.29796206300011,16.776009817000045],[121.29252799200003,16.770341830000064],[121.28930713600005,16.777287364000074],[121.28612226700011,16.775667939000073],[121.28270827800009,16.776383225000075],[121.27959058700003,16.772015236000072],[121.27667562200008,16.770935619000056],[121.2714219610001,16.774999182000045],[121.26742920700008,16.773981553000056],[121.26394818800009,16.77757990500004],[121.2637417300001,16.780841939000027],[121.26554791,16.78423476100005],[121.26366536500007,16.787278616000037],[121.26555402200006,16.79043860200005],[121.26102491300003,16.791581576000056],[121.25722315000007,16.794747674000064],[121.25408150100009,16.801134880000063],[121.2635981310001,16.80099430000007],[121.26560903200004,16.794717113000047],[121.26711262300012,16.79347023300005],[121.26845729700005,16.794203692000053],[121.26889737300007,16.796037339000065],[121.26581073300008,16.800273065000056],[121.26878124200005,16.80156884300004],[121.26823726000009,16.807729899000037],[121.26609189200008,16.809594107000066],[121.26041980900004,16.80969801400005],[121.26182560500001,16.81415989000004],[121.26796221300003,16.815474004000066],[121.2694658040001,16.81846284900007],[121.26719208100008,16.820553207000046],[121.26413600100011,16.818701223000062],[121.26090267000006,16.819520253000064],[121.26199521100011,16.824544305000074],[121.26682848300004,16.824045],[121.2691452580001,16.826881052000033],[121.26790698200011,16.829477438000026],[121.25955860300007,16.83241335100007],[121.25614335700004,16.827630010000064],[121.25330730500002,16.829717104000053],[121.25257832000011,16.830895464000037],[121.25567401100011,16.836657443000036],[121.25546430300005,16.84087157700003],[121.25770118900004,16.84433675300005],[121.25594368000009,16.84830869900003],[121.25314752800011,16.85007876000003],[121.25330480600007,16.85224457000004],[121.2513165360001,16.852759888000037],[121.25174661400001,16.850277379000033],[121.245743994,16.853468428000042],[121.24180265200005,16.849903708000056],[121.2396390770001,16.856166556000062],[121.2371630780001,16.85504955300007],[121.23437970100008,16.856676022000045],[121.22663719400009,16.85261210400006],[121.22187379700006,16.85372316200005],[121.20635722600002,16.860844461000056],[121.20156603100008,16.85604882100006],[121.19010643000001,16.858350416000064],[121.18214829100009,16.86418571400003],[121.17795918500008,16.860044624000068],[121.170391816,16.86385390600003],[121.15935780400002,16.864547126000048],[121.15279962600005,16.86934519600004]]]}},{"type":"Feature","properties":{"shapeName":"Lamut","shapeISO":"","shapeID":"30758251B56792461965852","shapeGroup":"PHL","shapeType":"ADM3","psgc_code":"1402705000","legacy_psgc_code":"142705000","province":"Ifugao"},"geometry":{"type":"Polygon","coordinates":[[[121.12262751800006,16.63830673600006],[121.12661635900008,16.64165154500006],[121.13232954300008,16.642482554000026],[121.1354977630001,16.64474705200007],[121.152656578,16.64209366800003],[121.16058286600003,16.63868909200005],[121.16220551600009,16.63904075000005],[121.1631951820001,16.64301448300006],[121.1643813180001,16.64223175500007],[121.16530926000007,16.64441092900006],[121.16990730400005,16.645897642000023],[121.17142293100005,16.64422356400007],[121.1736839570001,16.64460975800006],[121.17669574000001,16.64026983900004],[121.18570790600006,16.640736224000023],[121.19774842600009,16.638961271000028],[121.20192679400009,16.639796981000075],[121.20447204100003,16.642877503000022],[121.21188340900005,16.64166614100003],[121.2131224530001,16.64572067000006],[121.22241256600012,16.644663473000037],[121.2247125880001,16.64795734200004],[121.22856622600011,16.649567784000055],[121.23259590200007,16.649162278000063],[121.23604050400002,16.654163596000046],[121.24113495000006,16.65394168000006],[121.24382273600008,16.651306830000067],[121.24685897900008,16.65213897700005],[121.24973305500009,16.65093738400003],[121.25215918900005,16.652687425000067],[121.25375953500009,16.651054369000065],[121.25888818800001,16.651144153000075],[121.26038281600006,16.658331729000054],[121.26409251200005,16.66059170400007],[121.26945907100003,16.65898873200007],[121.27114555700007,16.66374496000003],[121.27643328400006,16.668528836000064],[121.2791743460001,16.66752044800006],[121.28061660100002,16.662655637000057],[121.28616128200008,16.656926525000074],[121.29182229600008,16.65921234700005],[121.29482832500003,16.663304078000067],[121.29137240400007,16.673553481000056],[121.29024550300005,16.670615568000073],[121.28727959800005,16.671059357000047],[121.27176778800003,16.682971816000077],[121.26665278100006,16.691884257000027],[121.26140827200004,16.69662029600005],[121.25499536000007,16.699905917000024],[121.25085641500004,16.710164029000055],[121.24265097800003,16.714552267000045],[121.24164055900007,16.718100583000023],[121.24431383600006,16.721875496000052],[121.24519642700011,16.72513671400003],[121.24372203700011,16.729247085000054],[121.24560653300011,16.731624916000044],[121.24281548800002,16.739666356000043],[121.24345007300008,16.741902510000045],[121.23781738100001,16.745734191000054],[121.230178195,16.745963850000066],[121.22798434600008,16.754225533000067],[121.22450924100008,16.757797337000056],[121.2204962510001,16.757730856000023],[121.2175771630001,16.755603488000077],[121.21375152600001,16.758722017000025],[121.20652935200008,16.757712725000033],[121.20165211800008,16.759779657000024],[121.19625512900006,16.76005162200005],[121.18037239000012,16.749529609000035],[121.1767461930001,16.74903402900003],[121.16726533400004,16.741568001000076],[121.16478631400003,16.741741713000067],[121.15647533900005,16.73008291000002],[121.1428558130001,16.719689643000038],[121.13190370900008,16.70137236000005],[121.1304208570001,16.69780929700005],[121.13316870100005,16.694348137000077],[121.1333590050001,16.664276818000076],[121.12262751800006,16.63830673600006]]]}},{"type":"Feature","properties":{"shapeName":"Mayoyao","shapeISO":"","shapeID":"30758251B71362999273154","shapeGroup":"PHL","shapeType":"ADM3","psgc_code":"1402706000","legacy_psgc_code":"142706000","province":"Ifugao"},"geometry":{"type":"Polygon","coordinates":[[[121.245929,17.006259648000025],[121.2284571890001,17.00609120200005],[121.21438503800005,17.003306597000062],[121.18956655500006,17.00299447200007],[121.16356277400007,17.00428677900004],[121.14937963200009,17.009478976000025],[121.14536511100005,17.01234623700003],[121.12908609800002,17.009840820000022],[121.14847543100007,16.94866391100004],[121.16520046500011,16.935450727000045],[121.16686469800004,16.92922805200004],[121.16546523400007,16.926431170000058],[121.16658419900011,16.923255393000034],[121.16562173700004,16.920962544000076],[121.16838521500006,16.921403860000055],[121.16759715100011,16.919134236000048],[121.16962510300004,16.91844073900006],[121.16731344800007,16.90514872400007],[121.16997597900001,16.902102553000077],[121.1669660120001,16.899865977000047],[121.16891747600005,16.899085546000038],[121.17112767900005,16.900147143000027],[121.1703283270001,16.897594237000078],[121.17375579700001,16.89714476300003],[121.17264152500002,16.893213548000062],[121.17678645400008,16.891809588000058],[121.17622474900008,16.888858506000076],[121.18070429300008,16.889174877000073],[121.18337566700006,16.891359744000056],[121.18430557500005,16.88845516500004],[121.18715165000003,16.890259565000065],[121.18849412300005,16.887691001000064],[121.18863566000005,16.890799168000058],[121.19041763200005,16.891460453000036],[121.19213851400002,16.88724729200004],[121.20075155500001,16.887170904000072],[121.20112805400004,16.884145190000027],[121.2030487510001,16.886238426000034],[121.202393174,16.88864392100004],[121.20609180000008,16.88738855400004],[121.2064920900001,16.890018084000076],[121.20895956900006,16.889726413000062],[121.2086033810001,16.89355146400004],[121.21093567900004,16.892955163000067],[121.21307137600002,16.887283851000063],[121.21341085300003,16.89285404800006],[121.21826731700003,16.89312054800007],[121.21961776400008,16.89060811300004],[121.22187379700006,16.85372316200005],[121.22663719400009,16.85261210400006],[121.23437970100008,16.856676022000045],[121.2371630780001,16.85504955300007],[121.2396390770001,16.856166556000062],[121.24180265200005,16.849903708000056],[121.245743994,16.853468428000042],[121.25174661400001,16.850277379000033],[121.2513165360001,16.852759888000037],[121.25330480600007,16.85224457000004],[121.25314752800011,16.85007876000003],[121.25594368000009,16.84830869900003],[121.25770118900004,16.84433675300005],[121.25546430300005,16.84087157700003],[121.25567401100011,16.836657443000036],[121.25257832000011,16.830895464000037],[121.25330730500002,16.829717104000053],[121.25614335700004,16.827630010000064],[121.25955860300007,16.83241335100007],[121.26790698200011,16.829477438000026],[121.2691452580001,16.826881052000033],[121.26682848300004,16.824045],[121.26199521100011,16.824544305000074],[121.26090267000006,16.819520253000064],[121.26413600100011,16.818701223000062],[121.26719208100008,16.820553207000046],[121.2694658040001,16.81846284900007],[121.26796221300003,16.815474004000066],[121.26182560500001,16.81415989000004],[121.26041980900004,16.80969801400005],[121.26609189200008,16.809594107000066],[121.26823726000009,16.807729899000037],[121.26878124200005,16.80156884300004],[121.26581073300008,16.800273065000056],[121.26889737300007,16.796037339000065],[121.26845729700005,16.794203692000053],[121.26711262300012,16.79347023300005],[121.26560903200004,16.794717113000047],[121.2635981310001,16.80099430000007],[121.25408150100009,16.801134880000063],[121.25722315000007,16.794747674000064],[121.26102491300003,16.791581576000056],[121.26555402200006,16.79043860200005],[121.26366536500007,16.787278616000037],[121.26554791,16.78423476100005],[121.2637417300001,16.780841939000027],[121.26394818800009,16.77757990500004],[121.26742920700008,16.773981553000056],[121.2714219610001,16.774999182000045],[121.27667562200008,16.770935619000056],[121.27959058700003,16.772015236000072],[121.28270827800009,16.776383225000075],[121.28612226700011,16.775667939000073],[121.28930713600005,16.777287364000074],[121.29252799200003,16.770341830000064],[121.29796206300011,16.776009817000045],[121.30204661200003,16.77676554900006],[121.30033721900008,16.77318482100003],[121.30217256700007,16.76852447600004],[121.2991496410001,16.766941038000027],[121.29992336600003,16.763720182000043],[121.30388196000001,16.761111108000023],[121.30375600500008,16.758753945000024],[121.3009130150001,16.75511923600004],[121.30129088100011,16.751574495000057],[121.30355807500007,16.749865102000058],[121.30778657400003,16.749613191000037],[121.30769660600004,16.744736923000062],[121.31323863800003,16.74477291000005],[121.31617159600012,16.74185794500005],[121.32385486800001,16.73849314000006],[121.32638383100004,16.733089630000052],[121.32927583800006,16.73422054200006],[121.33142686100007,16.737500328000067],[121.33381496900006,16.75193643800003],[121.33865075400001,16.75348573900004],[121.33930603500005,16.755221565000056],[121.33727988800001,16.756214705000048],[121.3297295960001,16.753671746000066],[121.32616836500006,16.757541116000027],[121.3317466100001,16.764860861000045],[121.34481509700004,16.767646065000065],[121.34577175000004,16.769469052000034],[121.34534007800005,16.77518529200006],[121.34354099500001,16.77754096800004],[121.33631990800006,16.780500499000027],[121.33585133000008,16.78478889400003],[121.33917264000002,16.78847038300006],[121.34216163100007,16.78877217200005],[121.28870337500007,16.878983220000066],[121.2899563740001,16.88229844400007],[121.28332791900004,16.883370498000033],[121.28376146500011,16.886095116000035],[121.28793756200002,16.887754981000057],[121.28494831800003,16.894262611000045],[121.28598709200003,16.90257262600005],[121.28320204600004,16.917535316000055],[121.27429194900003,16.92944476100007],[121.27024821500004,16.93018637800003],[121.27266707500007,16.93156029200003],[121.27155198800006,16.934140098000057],[121.27462162000006,16.936149743000044],[121.27417891200002,16.937256734000073],[121.27033314000005,16.936584665000055],[121.27108157900011,16.942107704000023],[121.27318381000009,16.941908932000047],[121.27479281500007,16.939699975000053],[121.2759439990001,16.941019569000048],[121.27389571000003,16.943475954000064],[121.27628311100011,16.94792080900004],[121.27213451400007,16.948643864000076],[121.27146675200004,16.951158649000035],[121.27333051300002,16.952156608000053],[121.2742086510001,16.949922722000053],[121.27589631500007,16.950372336000044],[121.2789278360001,16.948543001000075],[121.27829166000004,16.95257094400006],[121.28223948300001,16.953904581000074],[121.28211129500005,16.957482232000075],[121.27826290200005,16.958784180000066],[121.27692643300009,16.95517125600003],[121.2746475130001,16.956187328000055],[121.27585478200001,16.95896546000006],[121.278354497,16.960077374000036],[121.27800494000007,16.963177877000078],[121.28223409200007,16.967840676000037],[121.28439498700004,16.966054815000064],[121.28673136800012,16.96819005800006],[121.2840729620001,16.96997964600007],[121.27932969000005,16.984775940000077],[121.245929,17.006259648000025]]]}},{"type":"Feature","properties":{"shapeName":"Alfonso Lista","shapeISO":"","shapeID":"30758251B66647693295025","shapeGroup":"PHL","shapeType":"ADM3","psgc_code":"1402707000","legacy_psgc_code":"142707000","province":"Ifugao"},"geometry":{"type":"Polygon","coordinates":[[[121.42626060100008,16.817211290000046],[121.43658470700007,16.819591777000028],[121.44856250400005,16.82532377700005],[121.45826265700009,16.826283526000054],[121.47341714400011,16.831616218000022],[121.47614010600012,16.835019921000026],[121.47913536400006,16.83597295800007],[121.48873380600003,16.834475329000043],[121.50234861600006,16.834543403000055],[121.5213223400001,16.83893476700007],[121.52749863400004,16.84790849600006],[121.53182811500005,16.851337643000022],[121.5319746030001,16.86339329900005],[121.53797873300005,16.87782090500002],[121.54196371500007,16.87764094700003],[121.54887157900009,16.873689200000058],[121.556826752,16.891442592000033],[121.55842433100008,16.899086606000026],[121.56371756900012,16.902181512000027],[121.56406577900009,16.90760597600007],[121.56822243500005,16.909511535000036],[121.56820633300003,16.947958104000065],[121.56966164300002,16.94863102000005],[121.5649000840001,16.95091275300007],[121.56436846400004,16.953141625000058],[121.56244337800001,16.951428382000074],[121.56202705200008,16.953168713000025],[121.56464249200008,16.961138404000053],[121.57146579200003,16.966180688000065],[121.57222196700002,16.969886461000044],[121.56253966100007,16.967386641000076],[121.56071687200006,17.00945781000007],[121.55875504700009,17.01219056700006],[121.56211416100007,17.01527019400004],[121.56412176700007,17.015030522000075],[121.56743606500004,17.017275815000062],[121.56974889600008,17.02265323900002],[121.57149082100011,17.04094346000005],[121.570315305,17.056518095000058],[121.568600048,17.06096217100003],[121.56891191300008,17.072423208000032],[121.56750018100001,17.07905657500004],[121.48754978400007,17.079485199000032],[121.41712661000008,17.06801943800002],[121.45854769700009,17.01579640400007],[121.42689566500007,17.01167245700003],[121.41503181900009,16.991516104000027],[121.44502917900002,16.96339463700002],[121.45385748100011,16.940155160000074],[121.45926063700006,16.917628283000056],[121.45635355000002,16.910152030000063],[121.42610483400006,16.887278912000056],[121.41794357100002,16.84426046300007],[121.42626060100008,16.817211290000046]]]}},{"type":"Feature","properties":{"shapeName":"Aguinaldo","shapeISO":"","shapeID":"30758251B46587647623990","shapeGroup":"PHL","shapeType":"ADM3","psgc_code":"1402708000","legacy_psgc_code":"142708000","province":"Ifugao"},"geometry":{"type":"Polygon","coordinates":[[[121.42626060100008,16.817211290000046],[121.41794357100002,16.84426046300007],[121.42610483400006,16.887278912000056],[121.45635355000002,16.910152030000063],[121.45926063700006,16.917628283000056],[121.45385748100011,16.940155160000074],[121.44502917900002,16.96339463700002],[121.41503181900009,16.991516104000027],[121.42689566500007,17.01167245700003],[121.45854769700009,17.01579640400007],[121.41712661000008,17.06801943800002],[121.40270192500009,17.071855791000075],[121.37322090000009,17.073493161000044],[121.348729348,17.064332198000045],[121.2857243630001,17.027127474000054],[121.26067193600011,17.016283886000053],[121.245929,17.006259648000025],[121.27932969000005,16.984775940000077],[121.2840729620001,16.96997964600007],[121.28673136800012,16.96819005800006],[121.28439498700004,16.966054815000064],[121.28223409200007,16.967840676000037],[121.27800494000007,16.963177877000078],[121.278354497,16.960077374000036],[121.27585478200001,16.95896546000006],[121.2746475130001,16.956187328000055],[121.27692643300009,16.95517125600003],[121.27826290200005,16.958784180000066],[121.28211129500005,16.957482232000075],[121.28223948300001,16.953904581000074],[121.27829166000004,16.95257094400006],[121.2789278360001,16.948543001000075],[121.27589631500007,16.950372336000044],[121.2742086510001,16.949922722000053],[121.27333051300002,16.952156608000053],[121.27146675200004,16.951158649000035],[121.27213451400007,16.948643864000076],[121.27628311100011,16.94792080900004],[121.27389571000003,16.943475954000064],[121.2759439990001,16.941019569000048],[121.27479281500007,16.939699975000053],[121.27318381000009,16.941908932000047],[121.27108157900011,16.942107704000023],[121.27033314000005,16.936584665000055],[121.27417891200002,16.937256734000073],[121.27462162000006,16.936149743000044],[121.27155198800006,16.934140098000057],[121.27266707500007,16.93156029200003],[121.27024821500004,16.93018637800003],[121.27429194900003,16.92944476100007],[121.28320204600004,16.917535316000055],[121.28598709200003,16.90257262600005],[121.28494831800003,16.894262611000045],[121.28793756200002,16.887754981000057],[121.28376146500011,16.886095116000035],[121.28332791900004,16.883370498000033],[121.2899563740001,16.88229844400007],[121.28870337500007,16.878983220000066],[121.34216163100007,16.78877217200005],[121.34978934700007,16.787188600000036],[121.35409018100006,16.783638653000025],[121.35475491600005,16.774420589000044],[121.35824240600004,16.77601810400006],[121.35953801300002,16.778848228000072],[121.35842237500003,16.787017632000072],[121.36211575100003,16.789348131000054],[121.3759180180001,16.788450158000046],[121.37796438600003,16.790435853000076],[121.37198409500002,16.795425584000043],[121.37200766,16.798355138000034],[121.38601317000007,16.79667802700004],[121.39459622000004,16.805247457000064],[121.40174811200006,16.804870022000046],[121.41951945100004,16.817469334000066],[121.42626060100008,16.817211290000046]]]}},{"type":"Feature","properties":{"shapeName":"Hingyon","shapeISO":"","shapeID":"30758251B97249489621856","shapeGroup":"PHL","shapeType":"ADM3","psgc_code":"1402709000","legacy_psgc_code":"142709000","province":"Ifugao"},"geometry":{"type":"Polygon","coordinates":[[[121.06108680900002,16.861889977000033],[121.0771415690001,16.84111951600005],[121.07853689600006,16.823254088000056],[121.08559487000002,16.81678112800006],[121.08506549700007,16.821646259000033],[121.09460150000007,16.82452140500004],[121.10214085000007,16.830837090000045],[121.10989798500009,16.820607263000056],[121.11347210000008,16.82313428300006],[121.11413726800004,16.832836705000034],[121.12131881500011,16.835465690000035],[121.1313988060001,16.835736500000053],[121.14318561100004,16.83334213300003],[121.14455841900008,16.854094545000066],[121.15279962600005,16.86934519600004],[121.14102095300007,16.877806838000026],[121.12497176400007,16.89670972400006],[121.1177177510001,16.89850658900002],[121.11188705100005,16.89750433000006],[121.10164578500007,16.891818256000022],[121.09389264200001,16.89281651400006],[121.09231732700005,16.891648877000023],[121.09152896900002,16.89363097300003],[121.08560534900005,16.894367126000077],[121.06101054100009,16.880051881000043],[121.06108680900002,16.861889977000033]]]}},{"type":"Feature","properties":{"shapeName":"Tinoc","shapeISO":"","shapeID":"30758251B8715829050570","shapeGroup":"PHL","shapeType":"ADM3","psgc_code":"1402710000","legacy_psgc_code":"142710000","province":"Ifugao"},"geometry":{"type":"Polygon","coordinates":[[[121.01083087800009,16.746612423000045],[121.00997306200009,16.776316432000044],[121.00019546800002,16.782513978000054],[120.98722404800003,16.777792548000036],[120.953268008,16.79566294800003],[120.94398318300011,16.803254843000047],[120.92036460500003,16.797906823000062],[120.89861210400011,16.77632258400007],[120.89380443700009,16.743587141000035],[120.89432851800007,16.692844897000043],[120.91516794800009,16.62996236300006],[120.92950614800009,16.600053544000048],[120.9399374620001,16.585082947000046],[120.94753998600004,16.57919712100005],[120.96566817200005,16.573327359000075],[120.97311089400011,16.56944960800007],[120.98396101600008,16.569654786000058],[120.99082025300004,16.59540062600007],[120.98814244500011,16.640697746000058],[120.98828210400006,16.68212895700003],[121.01287654900011,16.73860458200005],[121.01083087800009,16.746612423000045]]]}},{"type":"Feature","properties":{"shapeName":"Asipulo","shapeISO":"","shapeID":"30758251B45532258933091","shapeGroup":"PHL","shapeType":"ADM3","psgc_code":"1402711000","legacy_psgc_code":"142711000","province":"Ifugao"},"geometry":{"type":"Polygon","coordinates":[[[121.10563417500009,16.63056137700005],[121.12262751800006,16.63830673600006],[121.1333590050001,16.664276818000076],[121.13316870100005,16.694348137000077],[121.1304208570001,16.69780929700005],[121.13190370900008,16.70137236000005],[121.12931047400002,16.70635502400006],[121.12970226200002,16.710958172000062],[121.12565994200008,16.711594670000068],[121.12258515300005,16.71522847400007],[121.12072193900008,16.713262564000047],[121.11981233900008,16.71710635900007],[121.11715689300001,16.716607546000034],[121.109853928,16.730088240000043],[121.10703538300004,16.72940058300003],[121.10175947400012,16.732566107000025],[121.0952008380001,16.740220703000034],[121.09441311700004,16.73924461400003],[121.09027758000002,16.740426196000044],[121.08719519200008,16.73778904200003],[121.06241832800004,16.752815877000046],[121.05092746100001,16.749252863000038],[121.0448408090001,16.756510185000025],[121.03485430800004,16.760757945000023],[121.02464186600002,16.755105497000045],[121.01716144300008,16.755966133000072],[121.01083087800009,16.746612423000045],[121.01287654900011,16.73860458200005],[120.98828210400006,16.68212895700003],[120.98814244500011,16.640697746000058],[120.99082025300004,16.59540062600007],[120.98396101600008,16.569654786000058],[121.02794433300005,16.602274068000042],[121.03570305200003,16.61000610700006],[121.0721316260001,16.62783025400006],[121.10563417500009,16.63056137700005]]]}}]}
