{"type":"FeatureCollection","source":{"dataset":"geoBoundaries gbOpen PHL ADM3","commit":"9469f09","license":"CC BY 3.0 IGO","boundary_year":2020,"url":"https://media.githubusercontent.com/media/wmgeolab/geoBoundaries/9469f09/releaseData/gbOpen/PHL/ADM3/geoBoundaries-PHL-ADM3_simplified.geojson","upstream_sources":["NAMRIA","PSA","OCHA Philippines"],"reference":"https://ulap-nga.georisk.gov.ph/arcgis/rest/services/PSA/Municipal/MapServer/0","notice":"Approximate planning/reference boundaries, not legal, cadastral, or survey-grade."},"features":[{"type":"Feature","properties":{"shapeName":"Alilem","shapeISO":"","shapeID":"30758251B64135628542106","shapeGroup":"PHL","shapeType":"ADM3","psgc_code":"0102901000","legacy_psgc_code":"012901000","province":"Ilocos Sur"},"geometry":{"type":"Polygon","coordinates":[[[120.63568860500004,16.94035373400004],[120.61946168600002,16.928320288000066],[120.60378174100003,16.92029799000005],[120.57574563800006,16.92818715100003],[120.54329267300011,16.934326901000077],[120.53276738700004,16.940466651000065],[120.5171256430001,16.939589544000057],[120.51293562300009,16.922307399000033],[120.51550120000002,16.92140190200007],[120.5164729170001,16.91618965200007],[120.51717695800005,16.91057744400007],[120.51936954100006,16.907358973000044],[120.51277167600006,16.897502407000047],[120.51142394200008,16.887283762000038],[120.51613095500011,16.88374344500005],[120.5181223840001,16.87925770100003],[120.51202740500003,16.873243184000046],[120.51009632300008,16.86702751300004],[120.52752612800009,16.865020274000074],[120.55813348200002,16.856529935000026],[120.56660507800007,16.858896999000024],[120.56915901500008,16.858087214000022],[120.57183547900001,16.83723651300005],[120.58601613200005,16.836661373000027],[120.61018355700003,16.840016965000075],[120.61305110600006,16.85698522900003],[120.6245359400001,16.877777002000073],[120.64433170600012,16.897367019000058],[120.65715485500004,16.901457238000035],[120.6600777640001,16.908990164000045],[120.63568860500004,16.94035373400004]]]}},{"type":"Feature","properties":{"shapeName":"Banayoyo","shapeISO":"","shapeID":"30758251B72662209315304","shapeGroup":"PHL","shapeType":"ADM3","psgc_code":"0102902000","legacy_psgc_code":"012902000","province":"Ilocos Sur"},"geometry":{"type":"Polygon","coordinates":[[[120.52621869500001,17.221908873000075],[120.5049053680001,17.251429270000074],[120.50743704600006,17.283280266000077],[120.48995329000002,17.281186883000032],[120.48017466600004,17.256942915000025],[120.46711712700005,17.255468964000045],[120.46373181800004,17.23994823000004],[120.46394063200012,17.234888424000076],[120.46527458500009,17.233948530000077],[120.46727787700001,17.235359483000025],[120.46856060300001,17.233726083000022],[120.47032935100003,17.234891919000063],[120.47499591300004,17.233375287000058],[120.47378157500009,17.230515740000044],[120.47673602100008,17.229755372000056],[120.47579693300008,17.227585756000053],[120.48308373900011,17.226242220000074],[120.48356231500009,17.222650131000023],[120.4869048170001,17.219040041000028],[120.49812473100008,17.221119716000032],[120.49839979800004,17.218915388000028],[120.51371724900002,17.21945340600007],[120.52621869500001,17.221908873000075]]]}},{"type":"Feature","properties":{"shapeName":"Bantay","shapeISO":"","shapeID":"30758251B89028394199039","shapeGroup":"PHL","shapeType":"ADM3","psgc_code":"0102903000","legacy_psgc_code":"012903000","province":"Ilocos Sur"},"geometry":{"type":"Polygon","coordinates":[[[120.4891025390001,17.560803193000027],[120.48758458800012,17.56698584000003],[120.48809572800008,17.58461679900006],[120.49781832400004,17.625130266000042],[120.5163850560001,17.649240339000073],[120.49401216900003,17.65545512600005],[120.478333184,17.642340914000044],[120.45355204200007,17.614552695000043],[120.45011061200012,17.61646733500004],[120.4491898760001,17.613206329000036],[120.43886041600001,17.613022787000034],[120.42656725200004,17.617496869000036],[120.40921598500006,17.615226578000033],[120.40243296900007,17.61308275400006],[120.39615169300009,17.608787128000074],[120.38100621600006,17.603936975000067],[120.38354984300008,17.59692884100002],[120.38252434700007,17.587046933000067],[120.38346681500002,17.581575933000067],[120.38530567300006,17.58028882900004],[120.38422377900008,17.57855108900003],[120.39065024900003,17.575296991000073],[120.40137477200005,17.577372831000048],[120.42006573600008,17.573742413000048],[120.42522285500002,17.570759260000045],[120.43304962200011,17.570106056000043],[120.43553528400003,17.558213650000027],[120.44663181100009,17.562246075000076],[120.45543660400006,17.56158292500004],[120.47870985200007,17.55309950800006],[120.485314689,17.54793746300004],[120.48964597200006,17.55323366400006],[120.4891025390001,17.560803193000027]]]}},{"type":"Feature","properties":{"shapeName":"Burgos","shapeISO":"","shapeID":"30758251B35633474040270","shapeGroup":"PHL","shapeType":"ADM3","psgc_code":"0102904000","legacy_psgc_code":"012904000","province":"Ilocos Sur"},"geometry":{"type":"Polygon","coordinates":[[[120.50743704600006,17.283280266000077],[120.52123224900004,17.290718895000055],[120.52768477500001,17.288455344000056],[120.52987256900008,17.288769514000023],[120.53235629700009,17.291752987000052],[120.53817331800008,17.28820980100005],[120.54253608400006,17.29004386200006],[120.54445035200001,17.286066825000034],[120.55350150000004,17.289122347000045],[120.55743544800009,17.298749634000046],[120.55901109000001,17.311668952000048],[120.55752591600003,17.316734222000036],[120.53861061300006,17.343604767000045],[120.51200698700006,17.344090762000064],[120.50673026700008,17.34644314800005],[120.50590702300008,17.345088459000067],[120.49618884400002,17.346219811000026],[120.49546141700012,17.350418852000075],[120.48412158600001,17.35430814800003],[120.48525888100005,17.326649067000062],[120.48210606400005,17.31769911600003],[120.47798779100003,17.302788648000046],[120.47166511400007,17.282058267000025],[120.48995329000002,17.281186883000032],[120.50743704600006,17.283280266000077]]]}},{"type":"Feature","properties":{"shapeName":"Cabugao","shapeISO":"","shapeID":"30758251B86667520668841","shapeGroup":"PHL","shapeType":"ADM3","psgc_code":"0102905000","legacy_psgc_code":"012905000","province":"Ilocos Sur"},"geometry":{"type":"Polygon","coordinates":[[[120.54274383600011,17.735323652000034],[120.55265226400002,17.75370227600007],[120.57041428800005,17.78142848300007],[120.57182232500008,17.786033365000037],[120.54059008000002,17.824333185000057],[120.48770216100002,17.825925034000022],[120.47076784300009,17.824230157000045],[120.46346446900009,17.825177610000026],[120.4626455230001,17.82757173600004],[120.46085187200003,17.825678959000072],[120.45759086100009,17.826063877000024],[120.45321938400002,17.819126362000077],[120.4431626280001,17.823208315000045],[120.43556733600008,17.823597366000058],[120.434367801,17.82177166100007],[120.43795431400008,17.815833651000048],[120.43562820500006,17.81336331700004],[120.43139385100005,17.812999794000064],[120.42621888700012,17.80631540400003],[120.41967810500012,17.801843534000056],[120.41445616400006,17.799973548000025],[120.40999358500005,17.80271069500003],[120.4067822070001,17.802944156000024],[120.40243591300009,17.79756310700003],[120.40522716300006,17.787160843000038],[120.40405971300004,17.78558577000007],[120.4060862020001,17.78091556000004],[120.41463355400003,17.781509957000026],[120.41393834000007,17.77907786800006],[120.41583181400006,17.780871914000045],[120.42115625200006,17.778240579000055],[120.42133088000003,17.776733729000057],[120.42601828800002,17.77459292800006],[120.42562490600005,17.772944943000027],[120.42592192000006,17.772688497000047],[120.42618139700005,17.772625197000025],[120.42767083600006,17.770298138000044],[120.44507265700008,17.768583083000067],[120.45250934400008,17.765558429000066],[120.46145824300004,17.766298823000056],[120.46190951400001,17.769288609000057],[120.46364415800008,17.769395864000046],[120.47666126100012,17.76602054700004],[120.495087667,17.756470602000036],[120.51257999800009,17.743905269000038],[120.54183945800003,17.73156672700003],[120.54274383600011,17.735323652000034]]]}},{"type":"Feature","properties":{"shapeName":"Caoayan","shapeISO":"","shapeID":"30758251B94372236669127","shapeGroup":"PHL","shapeType":"ADM3","psgc_code":"0102907000","legacy_psgc_code":"012907000","province":"Ilocos Sur"},"geometry":{"type":"MultiPolygon","coordinates":[[[[120.39855797000007,17.500693686000034],[120.38776461400005,17.50149167400002],[120.39066745000002,17.495351931000073],[120.39855797000007,17.500693686000034]]],[[[120.40383125200003,17.506277836000038],[120.40366401000006,17.510805564000066],[120.3929636690001,17.506376455000066],[120.40383125200003,17.506277836000038]]],[[[120.41196250400003,17.545904431000054],[120.41099312600011,17.547913360000052],[120.404730158,17.551503445000037],[120.38536473700003,17.558528281000065],[120.3818872710001,17.55079405500004],[120.3738881480001,17.545963547000042],[120.35319703200003,17.546894132000034],[120.36581010100008,17.535015513000076],[120.38288864000003,17.523904663000053],[120.39269960700005,17.511444710000035],[120.39000367100004,17.517199796000057],[120.398588947,17.51440116300006],[120.40422154300006,17.514179220000074],[120.40579209600003,17.51589229900003],[120.40575189100002,17.514612466000074],[120.41130541900009,17.52259643000002],[120.41196250400003,17.545904431000054]]]]}},{"type":"Feature","properties":{"shapeName":"Cervantes","shapeISO":"","shapeID":"30758251B37414079527614","shapeGroup":"PHL","shapeType":"ADM3","psgc_code":"0102908000","legacy_psgc_code":"012908000","province":"Ilocos Sur"},"geometry":{"type":"Polygon","coordinates":[[[120.6600777640001,16.908990164000045],[120.669563,16.911981],[120.717689,16.914968],[120.734095722,16.914688058000024],[120.73626407400002,16.917234412000028],[120.73856888600005,16.915983209000046],[120.74068769300004,16.917780107000056],[120.74668887200005,16.923633293000023],[120.74751261300003,16.926550587000065],[120.75882434800008,16.926498180000067],[120.77062128400007,16.921185493000053],[120.78527385300004,16.92133500700004],[120.7814782700001,16.962984348000077],[120.7800911270001,17.01648827300005],[120.77707950700005,17.01755226000006],[120.77479589600011,17.036158508000028],[120.7697235920001,17.058553509000035],[120.74105872500002,17.059686922000026],[120.64155236800002,17.074835320000034],[120.64119850400004,17.048682472000053],[120.6431652330001,17.012962747000074],[120.6386923450001,17.00359763700004],[120.63879001600003,16.98893371300005],[120.6344601620001,16.96445534000003],[120.63568860500004,16.94035373400004],[120.6600777640001,16.908990164000045]]]}},{"type":"Feature","properties":{"shapeName":"City of Candon","shapeISO":"","shapeID":"30758251B9776220250356","shapeGroup":"PHL","shapeType":"ADM3","psgc_code":"0102906000","legacy_psgc_code":"012906000","province":"Ilocos Sur"},"geometry":{"type":"Polygon","coordinates":[[[120.46394063200012,17.234888424000076],[120.46035875300004,17.23350307000004],[120.45769764900001,17.236375156000065],[120.45151651900005,17.233834067000032],[120.44280159200002,17.238088429000072],[120.4271389700001,17.23271125900004],[120.42066190000003,17.232398875000058],[120.4176646200001,17.225150858000063],[120.41277522400003,17.21939274300007],[120.40691635300004,17.217461322000077],[120.40438583200012,17.210776171000077],[120.41427879900004,17.204509846000064],[120.41869972600011,17.19540709000006],[120.42630269900008,17.16897719900004],[120.42877263300011,17.153146242000048],[120.43724790600004,17.15436618700005],[120.50874152600011,17.144850035000047],[120.51520707700001,17.16404447000002],[120.51973988600002,17.168096708000064],[120.51752690100011,17.17058478900003],[120.50343878300009,17.175895340000068],[120.49931561500011,17.179782810000063],[120.4972886700001,17.177760185000068],[120.48553170500008,17.17784215300003],[120.47788018300002,17.17991414100004],[120.47705535800003,17.176328759000057],[120.46983860800003,17.17349077800003],[120.46303848800005,17.175492336000048],[120.46311702700007,17.181975729000044],[120.46957104100011,17.197401514000035],[120.46845279000001,17.202226388000042],[120.47083253500011,17.20705272300006],[120.47619523700007,17.209139597000046],[120.4774002470001,17.206899186000044],[120.48024130300007,17.20739254700004],[120.48214300500001,17.205328077000047],[120.482473808,17.20702745400007],[120.49016807700002,17.207815247000042],[120.493582263,17.21134592900006],[120.49887258900003,17.210834931000022],[120.50260296200008,17.20662556600007],[120.503381998,17.20071654700007],[120.50805636000007,17.199696583000048],[120.50798718600004,17.197916278000037],[120.5134153680001,17.19829446400007],[120.51658224000005,17.201620070000047],[120.5193301590001,17.202104079000037],[120.519782942,17.203712236000058],[120.521672136,17.20402449900007],[120.52237472900003,17.20230705000006],[120.52668868100011,17.204170027000032],[120.5276427010001,17.206495449000045],[120.52975943100012,17.206406009000034],[120.53074326300009,17.204497971000023],[120.53777308100007,17.208105124000042],[120.5427747120001,17.207887662000076],[120.54118351500006,17.22620407100004],[120.52621869500001,17.221908873000075],[120.51371724900002,17.21945340600007],[120.49839979800004,17.218915388000028],[120.49812473100008,17.221119716000032],[120.4869048170001,17.219040041000028],[120.48356231500009,17.222650131000023],[120.48308373900011,17.226242220000074],[120.47579693300008,17.227585756000053],[120.47673602100008,17.229755372000056],[120.47378157500009,17.230515740000044],[120.47499591300004,17.233375287000058],[120.47032935100003,17.234891919000063],[120.46856060300001,17.233726083000022],[120.46727787700001,17.235359483000025],[120.46527458500009,17.233948530000077],[120.46394063200012,17.234888424000076]]]}},{"type":"Feature","properties":{"shapeName":"City of Vigan","shapeISO":"","shapeID":"30758251B76648161873125","shapeGroup":"PHL","shapeType":"ADM3","psgc_code":"0102934000","legacy_psgc_code":"012934000","province":"Ilocos Sur"},"geometry":{"type":"Polygon","coordinates":[[[120.38422377900008,17.57855108900003],[120.37703036800008,17.581209468000054],[120.36770900800002,17.580319601000042],[120.35651892800001,17.569229630000052],[120.34933325000009,17.565625668000052],[120.344220199,17.566318916000057],[120.34672142800002,17.557627655000033],[120.35319703200003,17.546894132000034],[120.3738881480001,17.545963547000042],[120.3818872710001,17.55079405500004],[120.38536473700003,17.558528281000065],[120.404730158,17.551503445000037],[120.41099312600011,17.547913360000052],[120.41196250400003,17.545904431000054],[120.4137959090001,17.546615273000043],[120.41930850900007,17.55557501100003],[120.42679022900006,17.554300518000048],[120.43140078400006,17.55507245800004],[120.43553528400003,17.558213650000027],[120.43304962200011,17.570106056000043],[120.42522285500002,17.570759260000045],[120.42006573600008,17.573742413000048],[120.40137477200005,17.577372831000048],[120.39065024900003,17.575296991000073],[120.38422377900008,17.57855108900003]]]}},{"type":"Feature","properties":{"shapeName":"Galimuyod","shapeISO":"","shapeID":"30758251B74693062950388","shapeGroup":"PHL","shapeType":"ADM3","psgc_code":"0102909000","legacy_psgc_code":"012909000","province":"Ilocos Sur"},"geometry":{"type":"Polygon","coordinates":[[[120.51973988600002,17.168096708000064],[120.52055621500006,17.170461140000043],[120.52414488500006,17.168699036000078],[120.52843621400007,17.168746686000077],[120.53436557200007,17.170259005000048],[120.5457056250001,17.16932645600002],[120.55064662500001,17.171291626000027],[120.56253552100009,17.169011155000078],[120.56900133300007,17.182271550000053],[120.56521168400002,17.18447571200005],[120.54365233700003,17.19811796700003],[120.5427747120001,17.207887662000076],[120.53777308100007,17.208105124000042],[120.53074326300009,17.204497971000023],[120.52975943100012,17.206406009000034],[120.5276427010001,17.206495449000045],[120.52668868100011,17.204170027000032],[120.52237472900003,17.20230705000006],[120.521672136,17.20402449900007],[120.519782942,17.203712236000058],[120.5193301590001,17.202104079000037],[120.51658224000005,17.201620070000047],[120.5134153680001,17.19829446400007],[120.50798718600004,17.197916278000037],[120.50805636000007,17.199696583000048],[120.503381998,17.20071654700007],[120.50260296200008,17.20662556600007],[120.49887258900003,17.210834931000022],[120.493582263,17.21134592900006],[120.49016807700002,17.207815247000042],[120.482473808,17.20702745400007],[120.48214300500001,17.205328077000047],[120.48024130300007,17.20739254700004],[120.4774002470001,17.206899186000044],[120.47619523700007,17.209139597000046],[120.47083253500011,17.20705272300006],[120.46845279000001,17.202226388000042],[120.46957104100011,17.197401514000035],[120.46311702700007,17.181975729000044],[120.46303848800005,17.175492336000048],[120.46983860800003,17.17349077800003],[120.47705535800003,17.176328759000057],[120.47788018300002,17.17991414100004],[120.48553170500008,17.17784215300003],[120.4972886700001,17.177760185000068],[120.49931561500011,17.179782810000063],[120.50343878300009,17.175895340000068],[120.51752690100011,17.17058478900003],[120.51973988600002,17.168096708000064]]]}},{"type":"Feature","properties":{"shapeName":"Gregorio del Pilar","shapeISO":"","shapeID":"30758251B56010971079591","shapeGroup":"PHL","shapeType":"ADM3","psgc_code":"0102910000","legacy_psgc_code":"012910000","province":"Ilocos Sur"},"geometry":{"type":"Polygon","coordinates":[[[120.56900133300007,17.182271550000053],[120.58024511200006,17.166660739000065],[120.58413068800007,17.155302901000027],[120.58254667100005,17.14358556700006],[120.58207517700009,17.117469265000068],[120.64120381100008,17.109680609000065],[120.63953997300007,17.124019671000042],[120.64324719000001,17.136076695000042],[120.64010373000008,17.15538445900006],[120.64748783000005,17.192121437000026],[120.63676191200011,17.19179309200007],[120.6266926830001,17.186101789000077],[120.59120158600001,17.18670852200006],[120.56521168400002,17.18447571200005],[120.56900133300007,17.182271550000053]]]}},{"type":"Feature","properties":{"shapeName":"Lidlidda","shapeISO":"","shapeID":"30758251B93741779273567","shapeGroup":"PHL","shapeType":"ADM3","psgc_code":"0102911000","legacy_psgc_code":"012911000","province":"Ilocos Sur"},"geometry":{"type":"Polygon","coordinates":[[[120.52621869500001,17.221908873000075],[120.54118351500006,17.22620407100004],[120.55338251400008,17.22954975600004],[120.55723389100001,17.253668214000072],[120.55628947700006,17.273022205000075],[120.55350150000004,17.289122347000045],[120.54445035200001,17.286066825000034],[120.54253608400006,17.29004386200006],[120.53817331800008,17.28820980100005],[120.53235629700009,17.291752987000052],[120.52987256900008,17.288769514000023],[120.52768477500001,17.288455344000056],[120.52123224900004,17.290718895000055],[120.50743704600006,17.283280266000077],[120.5049053680001,17.251429270000074],[120.52621869500001,17.221908873000075]]]}},{"type":"Feature","properties":{"shapeName":"Magsingal","shapeISO":"","shapeID":"30758251B48026148837928","shapeGroup":"PHL","shapeType":"ADM3","psgc_code":"0102912000","legacy_psgc_code":"012912000","province":"Ilocos Sur"},"geometry":{"type":"Polygon","coordinates":[[[120.5163850560001,17.649240339000073],[120.52968731700003,17.692937735000044],[120.50029564300007,17.699437966000062],[120.46807247400011,17.71269164100005],[120.41841944500004,17.714936668000064],[120.41576523100002,17.708871097000042],[120.41189744700011,17.705103431000055],[120.4093371890001,17.705132116000073],[120.40502105200005,17.70243972000003],[120.401445254,17.703480729000034],[120.39738498100007,17.697383158000036],[120.39192471900003,17.693838291000077],[120.3855638770001,17.69220280600007],[120.38040587400008,17.695423219000077],[120.38233953400004,17.69044970300007],[120.37539411300008,17.683298954000065],[120.36925042500002,17.68230829500004],[120.36417583000002,17.683134290000055],[120.36132042700001,17.68564323100003],[120.36083723600007,17.69277998700005],[120.3564538500001,17.692936167000028],[120.35323531000006,17.68849728600003],[120.35214145900011,17.678724685000077],[120.3569616530001,17.677447517000076],[120.3612919090001,17.680647600000043],[120.36356302400009,17.680631692000077],[120.36813427200002,17.677592004000076],[120.37113740500001,17.672318270000062],[120.37699048200011,17.671628076000047],[120.37934385900007,17.669046750000064],[120.39044139200007,17.666288979000058],[120.40393364900001,17.66000075100004],[120.411726928,17.662349750000033],[120.41975801800004,17.661982271000056],[120.42713640500006,17.65976203500003],[120.43780335100007,17.661552648000054],[120.44901832700009,17.658855724000034],[120.49401216900003,17.65545512600005],[120.5163850560001,17.649240339000073]]]}},{"type":"Feature","properties":{"shapeName":"Nagbukel","shapeISO":"","shapeID":"30758251B8709094769418","shapeGroup":"PHL","shapeType":"ADM3","psgc_code":"0102913000","legacy_psgc_code":"012913000","province":"Ilocos Sur"},"geometry":{"type":"Polygon","coordinates":[[[120.58889100400006,17.492162257000075],[120.57589346400005,17.49101272300004],[120.572647447,17.481059353000035],[120.5639537830001,17.483430545000033],[120.56016880100003,17.48104505200007],[120.55946110500008,17.475950700000055],[120.56211261600004,17.471257716000025],[120.56018427300012,17.469593607000036],[120.55911941400007,17.464056352000057],[120.55592215900003,17.463280319000035],[120.54972424200002,17.45767218800006],[120.5455750530001,17.45817919600006],[120.54328488200008,17.456058274000043],[120.5357411550001,17.45440657100005],[120.53692895800009,17.452645722000057],[120.53423685200005,17.45346255000004],[120.52917056900003,17.449523515000067],[120.52495045600006,17.450404201000026],[120.51458897700002,17.443068364000055],[120.51351615200008,17.439920146000077],[120.5092951580001,17.440234458000077],[120.5081690080001,17.43664839400003],[120.51178836100007,17.428425632000028],[120.50818879400003,17.41982146500004],[120.52161818900004,17.409841378000067],[120.56580030600003,17.407705388000068],[120.57696393700007,17.427636637000035],[120.57820133500002,17.438371862000054],[120.58165948100009,17.471827468000072],[120.58889100400006,17.492162257000075]]]}},{"type":"Feature","properties":{"shapeName":"Narvacan","shapeISO":"","shapeID":"30758251B65708530039691","shapeGroup":"PHL","shapeType":"ADM3","psgc_code":"0102914000","legacy_psgc_code":"012914000","province":"Ilocos Sur"},"geometry":{"type":"Polygon","coordinates":[[[120.57589346400005,17.49101272300004],[120.56549074100008,17.50175551600006],[120.54333671200004,17.492196233000072],[120.53374303500004,17.498412544000075],[120.51757323200002,17.499613546000035],[120.51159320200009,17.498232664000057],[120.49603249300003,17.48730653700005],[120.48788986700004,17.485038779000035],[120.48201273000006,17.48591910500005],[120.47441593400004,17.484247811000046],[120.44906170100012,17.470020989000034],[120.43330083500007,17.45888006000007],[120.4320437450001,17.45021171600007],[120.43520141500005,17.44977447800005],[120.43551712500005,17.44573871600005],[120.43987795700002,17.445154977000072],[120.44456859400009,17.446918976000063],[120.44790313800002,17.44528129200006],[120.4479386800001,17.44041727900003],[120.4460660520001,17.44101893000004],[120.44797051400008,17.440161766000074],[120.44725548600002,17.43371514300003],[120.45103821400005,17.42958075400003],[120.458607572,17.413536462000025],[120.45991602000004,17.407767705000026],[120.46127535700009,17.40782160400005],[120.45880098700002,17.39282445300006],[120.48183248700002,17.392617071000075],[120.48723945000006,17.394020887000067],[120.487170536,17.395450467000046],[120.493867109,17.393366981000042],[120.502689228,17.395313859000055],[120.52493076500002,17.39024494800003],[120.529505846,17.39133945900005],[120.53239822400008,17.395561629000042],[120.55754793900007,17.394985785000074],[120.56580030600003,17.407705388000068],[120.52161818900004,17.409841378000067],[120.50818879400003,17.41982146500004],[120.51178836100007,17.428425632000028],[120.5081690080001,17.43664839400003],[120.5092951580001,17.440234458000077],[120.51351615200008,17.439920146000077],[120.51458897700002,17.443068364000055],[120.52495045600006,17.450404201000026],[120.52917056900003,17.449523515000067],[120.53423685200005,17.45346255000004],[120.53692895800009,17.452645722000057],[120.5357411550001,17.45440657100005],[120.54328488200008,17.456058274000043],[120.5455750530001,17.45817919600006],[120.54972424200002,17.45767218800006],[120.55592215900003,17.463280319000035],[120.55911941400007,17.464056352000057],[120.56018427300012,17.469593607000036],[120.56211261600004,17.471257716000025],[120.55946110500008,17.475950700000055],[120.56016880100003,17.48104505200007],[120.5639537830001,17.483430545000033],[120.572647447,17.481059353000035],[120.57589346400005,17.49101272300004]]]}},{"type":"Feature","properties":{"shapeName":"Quirino","shapeISO":"","shapeID":"30758251B76256934940324","shapeGroup":"PHL","shapeType":"ADM3","psgc_code":"0102915000","legacy_psgc_code":"012915000","province":"Ilocos Sur"},"geometry":{"type":"Polygon","coordinates":[[[120.80474638400005,17.17126978500005],[120.79619547000004,17.161847805000036],[120.78622417600002,17.15884883600006],[120.75133329500011,17.15525632500004],[120.74896177300002,17.156051904000037],[120.74409083300009,17.162442465000026],[120.73937195300005,17.159150177000072],[120.73500186100011,17.164210999000034],[120.73402481800008,17.168067981000036],[120.70276014,17.174974877000068],[120.6916257580001,17.172729916000037],[120.69105215500008,17.17550856500003],[120.68879307100008,17.176004087000024],[120.68891621000012,17.17941369400006],[120.68674574200008,17.18074764000005],[120.68814547300008,17.181747447000077],[120.68784553000012,17.18409699500006],[120.68054693500005,17.18724638900005],[120.6792721810001,17.19139559000007],[120.67255080100006,17.192528494000044],[120.67244849400004,17.19476994000007],[120.64748783000005,17.192121437000026],[120.64010373000008,17.15538445900006],[120.64324719000001,17.136076695000042],[120.63953997300007,17.124019671000042],[120.64120381100008,17.109680609000065],[120.64155236800002,17.074835320000034],[120.74105872500002,17.059686922000026],[120.7697235920001,17.058553509000035],[120.767612847,17.066790583000056],[120.77482395200002,17.108020993000025],[120.81235520500002,17.155871674000025],[120.80474638400005,17.17126978500005]]]}},{"type":"Feature","properties":{"shapeName":"Salcedo","shapeISO":"","shapeID":"30758251B7667419388736","shapeGroup":"PHL","shapeType":"ADM3","psgc_code":"0102916000","legacy_psgc_code":"012916000","province":"Ilocos Sur"},"geometry":{"type":"Polygon","coordinates":[[[120.50874152600011,17.144850035000047],[120.50880985300012,17.13601310300004],[120.5022648900001,17.124130227000023],[120.50239054400004,17.119624273000056],[120.512029804,17.115206741000065],[120.52851065800007,17.112793862000046],[120.52843794000012,17.110244584000043],[120.51604002400006,17.09851481900006],[120.52446615200006,17.094951346000073],[120.527866549,17.081843141000036],[120.54291780500012,17.049440728000036],[120.56006043200011,17.049967399000025],[120.56262197300009,17.052907293000032],[120.57169612000007,17.07680470300005],[120.58188947800011,17.092709671000023],[120.58434542900011,17.11184880600007],[120.58207517700009,17.117469265000068],[120.58254667100005,17.14358556700006],[120.58413068800007,17.155302901000027],[120.58024511200006,17.166660739000065],[120.56900133300007,17.182271550000053],[120.56253552100009,17.169011155000078],[120.55064662500001,17.171291626000027],[120.5457056250001,17.16932645600002],[120.53436557200007,17.170259005000048],[120.52843621400007,17.168746686000077],[120.52414488500006,17.168699036000078],[120.52055621500006,17.170461140000043],[120.51973988600002,17.168096708000064],[120.51520707700001,17.16404447000002],[120.50874152600011,17.144850035000047]]]}},{"type":"Feature","properties":{"shapeName":"San Emilio","shapeISO":"","shapeID":"30758251B68036145563068","shapeGroup":"PHL","shapeType":"ADM3","psgc_code":"0102917000","legacy_psgc_code":"012917000","province":"Ilocos Sur"},"geometry":{"type":"Polygon","coordinates":[[[120.55350150000004,17.289122347000045],[120.55628947700006,17.273022205000075],[120.55723389100001,17.253668214000072],[120.55338251400008,17.22954975600004],[120.54118351500006,17.22620407100004],[120.5427747120001,17.207887662000076],[120.54365233700003,17.19811796700003],[120.56521168400002,17.18447571200005],[120.59120158600001,17.18670852200006],[120.6266926830001,17.186101789000077],[120.63676191200011,17.19179309200007],[120.64748783000005,17.192121437000026],[120.67244849400004,17.19476994000007],[120.68001311700004,17.19879421400003],[120.67990959300005,17.20209129600005],[120.67619933500009,17.20727135900006],[120.67599686500012,17.211330383000075],[120.68203495800003,17.21805789900003],[120.6834696840001,17.22615385000006],[120.6798764990001,17.235214805000055],[120.68270842800007,17.243606917000022],[120.67308314500008,17.24240648500006],[120.66949373300008,17.244610845000068],[120.67006023300007,17.24628413100004],[120.67670691800004,17.249287191000064],[120.67840099500006,17.256838869000035],[120.66649115900009,17.263418495000053],[120.636169988,17.27562854300004],[120.61928233200001,17.294434202000048],[120.61194929200008,17.302219217000072],[120.59361117000003,17.310185620000027],[120.59021434400006,17.308653242000048],[120.5667598550001,17.307159984000066],[120.5646140120001,17.311435278000033],[120.55901109000001,17.311668952000048],[120.55743544800009,17.298749634000046],[120.55350150000004,17.289122347000045]]]}},{"type":"Feature","properties":{"shapeName":"San Esteban","shapeISO":"","shapeID":"30758251B46730936238037","shapeGroup":"PHL","shapeType":"ADM3","psgc_code":"0102918000","legacy_psgc_code":"012918000","province":"Ilocos Sur"},"geometry":{"type":"Polygon","coordinates":[[[120.48210606400005,17.31769911600003],[120.47652167100011,17.318293478000044],[120.47623170300005,17.32832651500007],[120.47163941500003,17.33271473700006],[120.46252887000003,17.334318822000057],[120.46095510900011,17.336608470000044],[120.46263062000003,17.343701942000052],[120.45085272900008,17.34786659300005],[120.44547751000005,17.348017149000043],[120.446151987,17.342031019000046],[120.44411514300009,17.337288655000066],[120.44157669800006,17.338013747000048],[120.44199537000009,17.339441479000072],[120.43603053400011,17.340316793000056],[120.42742444200007,17.33657088900003],[120.4294396680001,17.332812889000024],[120.42694059200005,17.33003135200005],[120.426166609,17.326356684000075],[120.42900566600008,17.322975436000036],[120.42688096800009,17.317664429000047],[120.42838419300006,17.31622936800005],[120.4253521500001,17.31180110400004],[120.43444594800008,17.310645313000066],[120.4517859450001,17.31331586400006],[120.46117432200003,17.311591468000074],[120.47798779100003,17.302788648000046],[120.48210606400005,17.31769911600003]]]}},{"type":"Feature","properties":{"shapeName":"San Ildefonso","shapeISO":"","shapeID":"30758251B66443331789119","shapeGroup":"PHL","shapeType":"ADM3","psgc_code":"0102919000","legacy_psgc_code":"012919000","province":"Ilocos Sur"},"geometry":{"type":"Polygon","coordinates":[[[120.45011061200012,17.61646733500004],[120.44593038500011,17.618865093000068],[120.44391703400004,17.62257179200003],[120.43689239100001,17.625583558000073],[120.422655931,17.627088171000025],[120.40794098800006,17.625317368000026],[120.39390254900002,17.629526302000045],[120.38345910900011,17.630485949000047],[120.3835335660001,17.62891798000004],[120.38207509200004,17.62840992300005],[120.38119475300005,17.629614369000024],[120.3793902750001,17.629176389000065],[120.37662657900012,17.615226371000062],[120.3771207420001,17.609681755000054],[120.3756666700001,17.608287276000055],[120.38100621600006,17.603936975000067],[120.39615169300009,17.608787128000074],[120.40243296900007,17.61308275400006],[120.40921598500006,17.615226578000033],[120.42656725200004,17.617496869000036],[120.43886041600001,17.613022787000034],[120.4491898760001,17.613206329000036],[120.45011061200012,17.61646733500004]]]}},{"type":"Feature","properties":{"shapeName":"San Juan","shapeISO":"","shapeID":"30758251B22872212000715","shapeGroup":"PHL","shapeType":"ADM3","psgc_code":"0102920000","legacy_psgc_code":"012920000","province":"Ilocos Sur"},"geometry":{"type":"Polygon","coordinates":[[[120.54183945800003,17.73156672700003],[120.51257999800009,17.743905269000038],[120.495087667,17.756470602000036],[120.47666126100012,17.76602054700004],[120.46364415800008,17.769395864000046],[120.46190951400001,17.769288609000057],[120.46145824300004,17.766298823000056],[120.45250934400008,17.765558429000066],[120.44507265700008,17.768583083000067],[120.42767083600006,17.770298138000044],[120.42618139700005,17.772625197000025],[120.42244505600002,17.768903201000057],[120.42016296800011,17.763411752000025],[120.41342989400005,17.76131907200005],[120.40770158500004,17.762893974000065],[120.40643386200009,17.76136997800006],[120.40805932500007,17.757561403000068],[120.40858887400009,17.75846179800004],[120.41534414500006,17.755321649000052],[120.42270960600001,17.756985445000055],[120.429341582,17.75486260100007],[120.43330002900007,17.749135023000065],[120.43574523300003,17.74128687700005],[120.43513237700006,17.731702533000032],[120.42877267000006,17.728632833000063],[120.41960796400008,17.72805618700005],[120.41841944500004,17.714936668000064],[120.46807247400011,17.71269164100005],[120.50029564300007,17.699437966000062],[120.52968731700003,17.692937735000044],[120.53877010400004,17.713123117000066],[120.5387641850001,17.722382364000055],[120.54183945800003,17.73156672700003]]]}},{"type":"Feature","properties":{"shapeName":"San Vicente","shapeISO":"","shapeID":"30758251B3589086876715","shapeGroup":"PHL","shapeType":"ADM3","psgc_code":"0102921000","legacy_psgc_code":"012921000","province":"Ilocos Sur"},"geometry":{"type":"Polygon","coordinates":[[[120.38100621600006,17.603936975000067],[120.3756666700001,17.608287276000055],[120.3771207420001,17.609681755000054],[120.37662657900012,17.615226371000062],[120.3793902750001,17.629176389000065],[120.37593740500006,17.627907866000044],[120.37551892800002,17.630270404000044],[120.37494683400007,17.628681253000025],[120.37142421600004,17.630016139000077],[120.37099514600004,17.627770140000052],[120.36973971700002,17.629020272000048],[120.36821413200005,17.628241588000037],[120.36657174600009,17.636834571000065],[120.36401450500011,17.63808109300004],[120.36251653900001,17.641531764000035],[120.35992184800011,17.640756031000024],[120.35837774000004,17.63599865300006],[120.35544561800009,17.636292010000034],[120.3530514140001,17.635862384000063],[120.3519930110001,17.633986612000058],[120.35271123200005,17.625415331000056],[120.35025340600009,17.613204118000056],[120.35212556600004,17.611328875000027],[120.35134637100009,17.607848671000056],[120.35255938800003,17.604098907000036],[120.35440779500004,17.603372059000037],[120.35838861000002,17.607660942000052],[120.35850413600008,17.602418974000045],[120.36422264600003,17.60271741500003],[120.36085796700002,17.594197412000028],[120.36650612300002,17.59145047000004],[120.37023432300009,17.593090993000033],[120.3723188240001,17.59203618500004],[120.37404215600009,17.589257515000043],[120.37281724500008,17.586205921000044],[120.37703036800008,17.581209468000054],[120.38422377900008,17.57855108900003],[120.38530567300006,17.58028882900004],[120.38346681500002,17.581575933000067],[120.38252434700007,17.587046933000067],[120.38354984300008,17.59692884100002],[120.38100621600006,17.603936975000067]]]}},{"type":"Feature","properties":{"shapeName":"Santa","shapeISO":"","shapeID":"30758251B7974842779568","shapeGroup":"PHL","shapeType":"ADM3","psgc_code":"0102922000","legacy_psgc_code":"012922000","province":"Ilocos Sur"},"geometry":{"type":"MultiPolygon","coordinates":[[[[120.39066745000002,17.495351931000073],[120.39861704900011,17.490570054000045],[120.40854788200011,17.489186103000065],[120.41395270900011,17.494123393000052],[120.42136830100003,17.49575552500005],[120.42295124500004,17.50722084100005],[120.41577808500006,17.50677203500004],[120.40282397200008,17.500430823000045],[120.39855797000007,17.500693686000034],[120.39066745000002,17.495351931000073]]],[[[120.40383125200003,17.506277836000038],[120.41096074200004,17.50823967900004],[120.41438332300004,17.511789272000044],[120.40726720600003,17.512306066000065],[120.40366401000006,17.510805564000066],[120.40383125200003,17.506277836000038]]],[[[120.43553528400003,17.558213650000027],[120.43140078400006,17.55507245800004],[120.42679022900006,17.554300518000048],[120.41930850900007,17.55557501100003],[120.4137959090001,17.546615273000043],[120.41196250400003,17.545904431000054],[120.41130541900009,17.52259643000002],[120.40575189100002,17.514612466000074],[120.41573095000001,17.517518343000063],[120.41433539600007,17.515815821000047],[120.4164671420001,17.515419506000057],[120.41091368000002,17.51412090200006],[120.41333650500007,17.513721219000047],[120.41795285500007,17.516171589000066],[120.41518444300004,17.512690474000067],[120.41952101100003,17.513375737000047],[120.42030086900002,17.510785657000042],[120.41593470500004,17.508121582000058],[120.4210617980001,17.508898359000057],[120.42399672200008,17.507024451000063],[120.42270533500005,17.495562090000078],[120.429965035,17.488390234000065],[120.43576503300005,17.479490718000022],[120.43528951400003,17.47558593900004],[120.43363333100001,17.475164824000046],[120.4318229480001,17.47037589000007],[120.43061746300009,17.47029573800006],[120.43209422300004,17.466922682000074],[120.4324904340001,17.46780602000007],[120.43447857400008,17.46622059500004],[120.4338557530001,17.461904611000023],[120.43188242300005,17.45984424900007],[120.43330083500007,17.45888006000007],[120.44906170100012,17.470020989000034],[120.47441593400004,17.484247811000046],[120.47027997000009,17.488713578000045],[120.46778602600011,17.495665186000053],[120.46816717700005,17.51472706000004],[120.47573633200011,17.534417844000075],[120.48753841300004,17.544978136000054],[120.485314689,17.54793746300004],[120.47870985200007,17.55309950800006],[120.45543660400006,17.56158292500004],[120.44663181100009,17.562246075000076],[120.43553528400003,17.558213650000027]]]]}},{"type":"Feature","properties":{"shapeName":"Santa Catalina","shapeISO":"","shapeID":"30758251B16983791159508","shapeGroup":"PHL","shapeType":"ADM3","psgc_code":"0102923000","legacy_psgc_code":"012923000","province":"Ilocos Sur"},"geometry":{"type":"Polygon","coordinates":[[[120.37703036800008,17.581209468000054],[120.37281724500008,17.586205921000044],[120.37404215600009,17.589257515000043],[120.3723188240001,17.59203618500004],[120.37023432300009,17.593090993000033],[120.36650612300002,17.59145047000004],[120.36085796700002,17.594197412000028],[120.36422264600003,17.60271741500003],[120.35850413600008,17.602418974000045],[120.35838861000002,17.607660942000052],[120.35440779500004,17.603372059000037],[120.35255938800003,17.604098907000036],[120.35134637100009,17.607848671000056],[120.35212556600004,17.611328875000027],[120.35025340600009,17.613204118000056],[120.34437655300007,17.577796981000063],[120.344220199,17.566318916000057],[120.34933325000009,17.565625668000052],[120.35651892800001,17.569229630000052],[120.36770900800002,17.580319601000042],[120.37703036800008,17.581209468000054]]]}},{"type":"Feature","properties":{"shapeName":"Santa Cruz","shapeISO":"","shapeID":"30758251B48306075925177","shapeGroup":"PHL","shapeType":"ADM3","psgc_code":"0102924000","legacy_psgc_code":"012924000","province":"Ilocos Sur"},"geometry":{"type":"Polygon","coordinates":[[[120.51604002400006,17.09851481900006],[120.49071162900009,17.106283373000053],[120.47809212800007,17.105062329000077],[120.45848788100011,17.099269380000067],[120.43581735900011,17.099755945000027],[120.4370937010001,17.077357843000073],[120.43856021800002,17.076277506000054],[120.43880643600005,17.07181130500004],[120.44336189500007,17.062029861000042],[120.4481846330001,17.04352363600003],[120.45007513400003,17.023881662000065],[120.44924945600008,16.992144136000036],[120.47468696600004,16.990654962000065],[120.4828801220001,16.994334844000036],[120.48449016200004,16.999631516000022],[120.49680431200011,17.019455244000028],[120.50573040300003,17.03153745900005],[120.51398546000007,17.03920394200003],[120.54291780500012,17.049440728000036],[120.527866549,17.081843141000036],[120.52446615200006,17.094951346000073],[120.51604002400006,17.09851481900006]]]}},{"type":"Feature","properties":{"shapeName":"Santa Lucia","shapeISO":"","shapeID":"30758251B50348981469821","shapeGroup":"PHL","shapeType":"ADM3","psgc_code":"0102925000","legacy_psgc_code":"012925000","province":"Ilocos Sur"},"geometry":{"type":"Polygon","coordinates":[[[120.42877263300011,17.153146242000048],[120.43368908600007,17.12645238300007],[120.43581735900011,17.099755945000027],[120.45848788100011,17.099269380000067],[120.47809212800007,17.105062329000077],[120.49071162900009,17.106283373000053],[120.51604002400006,17.09851481900006],[120.52843794000012,17.110244584000043],[120.52851065800007,17.112793862000046],[120.512029804,17.115206741000065],[120.50239054400004,17.119624273000056],[120.5022648900001,17.124130227000023],[120.50880985300012,17.13601310300004],[120.50874152600011,17.144850035000047],[120.43724790600004,17.15436618700005],[120.42877263300011,17.153146242000048]]]}},{"type":"Feature","properties":{"shapeName":"Santa Maria","shapeISO":"","shapeID":"30758251B81485398953116","shapeGroup":"PHL","shapeType":"ADM3","psgc_code":"0102926000","legacy_psgc_code":"012926000","province":"Ilocos Sur"},"geometry":{"type":"Polygon","coordinates":[[[120.53861061300006,17.343604767000045],[120.5378136380001,17.356986044000053],[120.54280925400008,17.371764064000047],[120.55754793900007,17.394985785000074],[120.53239822400008,17.395561629000042],[120.529505846,17.39133945900005],[120.52493076500002,17.39024494800003],[120.502689228,17.395313859000055],[120.493867109,17.393366981000042],[120.487170536,17.395450467000046],[120.48723945000006,17.394020887000067],[120.48183248700002,17.392617071000075],[120.45880098700002,17.39282445300006],[120.45800803000009,17.389443448000065],[120.45646499300005,17.389699605000033],[120.45677159600007,17.388187139000024],[120.45369656200012,17.38488579600005],[120.4536756660001,17.379124880000063],[120.44843963100004,17.373528651000072],[120.45068079600003,17.36598807400003],[120.4542792090001,17.362724883000055],[120.45411359900004,17.35746726900004],[120.45287826200001,17.355206545000044],[120.44555942300008,17.35323371100003],[120.44547751000005,17.348017149000043],[120.45085272900008,17.34786659300005],[120.46263062000003,17.343701942000052],[120.46095510900011,17.336608470000044],[120.46252887000003,17.334318822000057],[120.47163941500003,17.33271473700006],[120.47623170300005,17.32832651500007],[120.47652167100011,17.318293478000044],[120.48210606400005,17.31769911600003],[120.48525888100005,17.326649067000062],[120.48412158600001,17.35430814800003],[120.49546141700012,17.350418852000075],[120.49618884400002,17.346219811000026],[120.50590702300008,17.345088459000067],[120.50673026700008,17.34644314800005],[120.51200698700006,17.344090762000064],[120.53861061300006,17.343604767000045]]]}},{"type":"Feature","properties":{"shapeName":"Santiago","shapeISO":"","shapeID":"30758251B25270762862446","shapeGroup":"PHL","shapeType":"ADM3","psgc_code":"0102927000","legacy_psgc_code":"012927000","province":"Ilocos Sur"},"geometry":{"type":"Polygon","coordinates":[[[120.48995329000002,17.281186883000032],[120.47166511400007,17.282058267000025],[120.47798779100003,17.302788648000046],[120.46117432200003,17.311591468000074],[120.4517859450001,17.31331586400006],[120.43444594800008,17.310645313000066],[120.4253521500001,17.31180110400004],[120.42263028200011,17.306380430000047],[120.42365965200008,17.298098605000064],[120.42258380600003,17.288134034000052],[120.4270162790001,17.287188753000066],[120.43258574400011,17.289289043000053],[120.43514765300006,17.286900133000074],[120.43494404800003,17.284474803000023],[120.42947337500004,17.283803899000077],[120.42246514200008,17.277181320000068],[120.418929595,17.266214630000036],[120.41676689700012,17.255584154000076],[120.42012767000006,17.244949924000025],[120.42066190000003,17.232398875000058],[120.4271389700001,17.23271125900004],[120.44280159200002,17.238088429000072],[120.45151651900005,17.233834067000032],[120.45769764900001,17.236375156000065],[120.46035875300004,17.23350307000004],[120.46394063200012,17.234888424000076],[120.46373181800004,17.23994823000004],[120.46711712700005,17.255468964000045],[120.48017466600004,17.256942915000025],[120.48995329000002,17.281186883000032]]]}},{"type":"Feature","properties":{"shapeName":"Santo Domingo","shapeISO":"","shapeID":"30758251B23074202147270","shapeGroup":"PHL","shapeType":"ADM3","psgc_code":"0102928000","legacy_psgc_code":"012928000","province":"Ilocos Sur"},"geometry":{"type":"Polygon","coordinates":[[[120.49401216900003,17.65545512600005],[120.44901832700009,17.658855724000034],[120.43780335100007,17.661552648000054],[120.42713640500006,17.65976203500003],[120.41975801800004,17.661982271000056],[120.411726928,17.662349750000033],[120.40393364900001,17.66000075100004],[120.39044139200007,17.666288979000058],[120.37934385900007,17.669046750000064],[120.37699048200011,17.671628076000047],[120.37113740500001,17.672318270000062],[120.36845710900002,17.668305022000027],[120.3691131710001,17.66248811500003],[120.36752073800005,17.656634491000034],[120.36391386100001,17.650152717000026],[120.3577663210001,17.646028174000037],[120.35765752000009,17.640973896000048],[120.35544561800009,17.636292010000034],[120.35837774000004,17.63599865300006],[120.35992184800011,17.640756031000024],[120.36251653900001,17.641531764000035],[120.36401450500011,17.63808109300004],[120.36657174600009,17.636834571000065],[120.36821413200005,17.628241588000037],[120.36973971700002,17.629020272000048],[120.37099514600004,17.627770140000052],[120.37142421600004,17.630016139000077],[120.37494683400007,17.628681253000025],[120.37551892800002,17.630270404000044],[120.37593740500006,17.627907866000044],[120.3793902750001,17.629176389000065],[120.38119475300005,17.629614369000024],[120.38207509200004,17.62840992300005],[120.3835335660001,17.62891798000004],[120.38345910900011,17.630485949000047],[120.39390254900002,17.629526302000045],[120.40794098800006,17.625317368000026],[120.422655931,17.627088171000025],[120.43689239100001,17.625583558000073],[120.44391703400004,17.62257179200003],[120.44593038500011,17.618865093000068],[120.45011061200012,17.61646733500004],[120.45355204200007,17.614552695000043],[120.478333184,17.642340914000044],[120.49401216900003,17.65545512600005]]]}},{"type":"Feature","properties":{"shapeName":"Sigay","shapeISO":"","shapeID":"30758251B41796700485463","shapeGroup":"PHL","shapeType":"ADM3","psgc_code":"0102929000","legacy_psgc_code":"012929000","province":"Ilocos Sur"},"geometry":{"type":"Polygon","coordinates":[[[120.64155236800002,17.074835320000034],[120.64120381100008,17.109680609000065],[120.58207517700009,17.117469265000068],[120.58434542900011,17.11184880600007],[120.58188947800011,17.092709671000023],[120.57169612000007,17.07680470300005],[120.56262197300009,17.052907293000032],[120.56006043200011,17.049967399000025],[120.55690035500004,17.014077951000047],[120.55338372000006,17.010124371000074],[120.57356169700006,17.01047427800006],[120.6386923450001,17.00359763700004],[120.6431652330001,17.012962747000074],[120.64119850400004,17.048682472000053],[120.64155236800002,17.074835320000034]]]}},{"type":"Feature","properties":{"shapeName":"Sinait","shapeISO":"","shapeID":"30758251B31766600360488","shapeGroup":"PHL","shapeType":"ADM3","psgc_code":"0102930000","legacy_psgc_code":"012930000","province":"Ilocos Sur"},"geometry":{"type":"Polygon","coordinates":[[[120.44338379200008,17.90272064800007],[120.44480316400006,17.901713921000066],[120.44336038200004,17.89619080800003],[120.4456063230001,17.889722806000066],[120.44414513400011,17.88348465100006],[120.44913097500012,17.875244932000044],[120.4463269900001,17.871035137000035],[120.4426220580001,17.868453172000045],[120.4400110580001,17.868536118000065],[120.44008386700011,17.86544329800006],[120.44347433700011,17.86109791800004],[120.4429019480001,17.859375640000053],[120.44584548600005,17.85465479800007],[120.44695565800009,17.85479751400004],[120.44518181,17.845959510000057],[120.45163896600002,17.84212535000006],[120.45195496100007,17.839807010000072],[120.44859813800008,17.83732671200005],[120.44856854700004,17.835693783000067],[120.45759086100009,17.826063877000024],[120.46085187200003,17.825678959000072],[120.4626455230001,17.82757173600004],[120.46346446900009,17.825177610000026],[120.47076784300009,17.824230157000045],[120.48770216100002,17.825925034000022],[120.54059008000002,17.824333185000057],[120.539245004,17.834870462000026],[120.53476460400009,17.844217870000023],[120.53522465200001,17.850098523000042],[120.53041248900001,17.863794037000048],[120.53008514600003,17.87377798700004],[120.52812109100012,17.878524456000036],[120.51584574200001,17.886053336000032],[120.48512665600003,17.897017058000074],[120.48002829200004,17.898077388000047],[120.47499173000006,17.89485052300006],[120.46886968900003,17.896481551000022],[120.46008641700007,17.896083257000043],[120.4579589440001,17.89818372700006],[120.45410733000006,17.898605746000044],[120.45276699600004,17.90114690100006],[120.45026570300001,17.901176797000062],[120.44977098000004,17.903062532000035],[120.44758861500009,17.903890430000047],[120.44656287300006,17.902882951000038],[120.44579347000001,17.90509591600005],[120.44338379200008,17.90272064800007]]]}},{"type":"Feature","properties":{"shapeName":"Sugpon","shapeISO":"","shapeID":"30758251B59811260952399","shapeGroup":"PHL","shapeType":"ADM3","psgc_code":"0102931000","legacy_psgc_code":"012931000","province":"Ilocos Sur"},"geometry":{"type":"Polygon","coordinates":[[[120.51009632300008,16.86702751300004],[120.50740085300004,16.85916237600003],[120.51029747700011,16.856044482000073],[120.50979459100006,16.84856153800007],[120.50717958400003,16.846851725000022],[120.5068979670001,16.844880412000066],[120.50931182000011,16.837095736000038],[120.51279179200003,16.831825491000075],[120.52193302600006,16.831514436000077],[120.52468001700004,16.829572561000077],[120.52743583300003,16.82245169500004],[120.53548200900002,16.814928520000024],[120.5353009700001,16.81054335400006],[120.52246731900004,16.803764450000074],[120.52168281700006,16.799701131000063],[120.523935746,16.796945315000073],[120.52914564500009,16.79762924000005],[120.53423485200005,16.80314087100004],[120.53859990300009,16.794953887000077],[120.53996775300004,16.79382742200005],[120.542421837,16.795195272000058],[120.54433280400008,16.79358603700007],[120.54389026400008,16.791373338000028],[120.53634697300004,16.788516946000072],[120.53471281000009,16.785542150000026],[120.53726601800008,16.778452539000057],[120.54093041800002,16.77699889300004],[120.54674500300007,16.77939135200006],[120.54947059000006,16.773485914000048],[120.54890816500006,16.767490429000077],[120.54293403000008,16.763281412000026],[120.54332785800011,16.760720994000053],[120.54711986500001,16.75811055400004],[120.55091187200003,16.752477501000044],[120.5513240470001,16.749482365000063],[120.5483838670001,16.743052440000042],[120.54555360100005,16.740744262000078],[120.54544368800009,16.72892858800003],[120.54409725100004,16.72620823500006],[120.53972819900002,16.721454487000074],[120.53420505800011,16.720465268000055],[120.53343938800003,16.716842851000024],[120.53784825700006,16.714607148000027],[120.54274178800006,16.709041342000035],[120.5437756660001,16.706471003000047],[120.54264798300005,16.70158378800005],[120.54661127400004,16.696729342000026],[120.558219731,16.691702919000022],[120.56438745700007,16.685027079000065],[120.56536460000007,16.681298302000073],[120.56299301400009,16.678416480000067],[120.56298155800005,16.672982391000062],[120.5650648840001,16.669766382000034],[120.57151000700003,16.672513195000022],[120.57452221100004,16.671264867000048],[120.58222139700001,16.692408458000045],[120.59903624900005,16.738317935000055],[120.58961744100009,16.74718269500005],[120.58826171400005,16.767441333000022],[120.58623612600002,16.770829762000062],[120.58796283600009,16.772888213000044],[120.58800386400003,16.776149760000067],[120.58502253200004,16.82009566200003],[120.58601613200005,16.836661373000027],[120.57183547900001,16.83723651300005],[120.56915901500008,16.858087214000022],[120.56660507800007,16.858896999000024],[120.55813348200002,16.856529935000026],[120.52752612800009,16.865020274000074],[120.51009632300008,16.86702751300004]]]}},{"type":"Feature","properties":{"shapeName":"Suyo","shapeISO":"","shapeID":"30758251B93318593456282","shapeGroup":"PHL","shapeType":"ADM3","psgc_code":"0102932000","legacy_psgc_code":"012932000","province":"Ilocos Sur"},"geometry":{"type":"Polygon","coordinates":[[[120.63568860500004,16.94035373400004],[120.6344601620001,16.96445534000003],[120.63879001600003,16.98893371300005],[120.6386923450001,17.00359763700004],[120.57356169700006,17.01047427800006],[120.55338372000006,17.010124371000074],[120.55690035500004,17.014077951000047],[120.56006043200011,17.049967399000025],[120.54291780500012,17.049440728000036],[120.51398546000007,17.03920394200003],[120.50573040300003,17.03153745900005],[120.49680431200011,17.019455244000028],[120.48449016200004,16.999631516000022],[120.4828801220001,16.994334844000036],[120.47468696600004,16.990654962000065],[120.46652342100003,16.970764519000056],[120.46568886500006,16.962544510000043],[120.4867557880001,16.950695427000028],[120.5171256430001,16.939589544000057],[120.53276738700004,16.940466651000065],[120.54329267300011,16.934326901000077],[120.57574563800006,16.92818715100003],[120.60378174100003,16.92029799000005],[120.61946168600002,16.928320288000066],[120.63568860500004,16.94035373400004]]]}},{"type":"Feature","properties":{"shapeName":"Tagudin","shapeISO":"","shapeID":"30758251B59352820583653","shapeGroup":"PHL","shapeType":"ADM3","psgc_code":"0102933000","legacy_psgc_code":"012933000","province":"Ilocos Sur"},"geometry":{"type":"Polygon","coordinates":[[[120.5171256430001,16.939589544000057],[120.4867557880001,16.950695427000028],[120.46568886500006,16.962544510000043],[120.46652342100003,16.970764519000056],[120.47468696600004,16.990654962000065],[120.44924945600008,16.992144136000036],[120.44350826400012,16.971439116000056],[120.42773107800008,16.945646332000024],[120.4233144750001,16.93419786000004],[120.41079750900008,16.920904919000066],[120.41643490900003,16.916157652000038],[120.41732624000008,16.91218979100006],[120.42117909100011,16.90695681400007],[120.42560699500007,16.902960199000063],[120.43142940000007,16.900243077000027],[120.43577346200004,16.900497252000036],[120.4453053630001,16.907241984000052],[120.45411660000002,16.908505391000062],[120.46426010700009,16.91450466300006],[120.47002256600001,16.914780946000064],[120.47886359900008,16.912491749000026],[120.48474446500006,16.907755482000027],[120.49208853000005,16.90563992500006],[120.50090112400005,16.910328225000058],[120.50981946900004,16.917918806000046],[120.51429626700008,16.91810680800006],[120.5164729170001,16.91618965200007],[120.51550120000002,16.92140190200007],[120.51293562300009,16.922307399000033],[120.5171256430001,16.939589544000057]]]}}]}
