{"type":"FeatureCollection","source":{"dataset":"geoBoundaries gbOpen PHL ADM3","commit":"9469f09","license":"CC BY 3.0 IGO","boundary_year":2020,"url":"https://media.githubusercontent.com/media/wmgeolab/geoBoundaries/9469f09/releaseData/gbOpen/PHL/ADM3/geoBoundaries-PHL-ADM3_simplified.geojson","upstream_sources":["NAMRIA","PSA","OCHA Philippines"],"reference":"https://ulap-nga.georisk.gov.ph/arcgis/rest/services/PSA/Municipal/MapServer/0","notice":"Approximate planning/reference boundaries, not legal, cadastral, or survey-grade."},"features":[{"type":"Feature","properties":{"shapeName":"Adams","shapeISO":"","shapeID":"30758251B18474549888444","shapeGroup":"PHL","shapeType":"ADM3","psgc_code":"0102801000","legacy_psgc_code":"012801000","province":"Ilocos Norte"},"geometry":{"type":"Polygon","coordinates":[[[120.96914518200003,18.510116371000038],[120.92067803000009,18.51462255000007],[120.92154564000009,18.518382190000068],[120.87267031800002,18.509416895000072],[120.88929347100009,18.476307956000028],[120.87035669400007,18.429886047000025],[120.91484017700009,18.37693302100007],[120.94836326600011,18.38169343000004],[120.94704360700007,18.420625793000056],[120.95867309800008,18.463202412000044],[120.96914518200003,18.510116371000038]]]}},{"type":"Feature","properties":{"shapeName":"Bacarra","shapeISO":"","shapeID":"30758251B49214356355193","shapeGroup":"PHL","shapeType":"ADM3","psgc_code":"0102802000","legacy_psgc_code":"012802000","province":"Ilocos Norte"},"geometry":{"type":"Polygon","coordinates":[[[120.66821351200008,18.287053077000053],[120.66377014200009,18.292607289000046],[120.65955747400005,18.294457158000057],[120.64074321400005,18.295372678000035],[120.63481539800011,18.293321236000054],[120.63081385700002,18.29487566000006],[120.62237783400008,18.293141174000027],[120.58134274300005,18.296504215000027],[120.56740474300011,18.27977127400004],[120.56214031400009,18.263762883000027],[120.56545540400009,18.260547621000057],[120.56997717800004,18.261317115000054],[120.574504165,18.254962084000056],[120.58377554200001,18.251850940000054],[120.5842097530001,18.244598121000024],[120.5870312620001,18.242692687000044],[120.58904662500004,18.237379456000042],[120.59392797800001,18.23291621000004],[120.62080834900007,18.223549262000063],[120.62699401900011,18.24030151000005],[120.62975556900005,18.241469858000073],[120.63262333300008,18.239345589000038],[120.6344980340001,18.240835445000073],[120.63887192700008,18.250409492000074],[120.64424555000005,18.25630694800003],[120.64409156400006,18.25895627600005],[120.65157904000012,18.260885925000025],[120.65186397800005,18.264551050000023],[120.6528012230001,18.263833653000063],[120.65641785900004,18.265781184000048],[120.65628768700003,18.26794205400006],[120.66157270600002,18.269243782000046],[120.65810433200011,18.277596378000055],[120.66821351200008,18.287053077000053]]]}},{"type":"Feature","properties":{"shapeName":"Badoc","shapeISO":"","shapeID":"30758251B31971506880534","shapeGroup":"PHL","shapeType":"ADM3","psgc_code":"0102803000","legacy_psgc_code":"012803000","province":"Ilocos Norte"},"geometry":{"type":"Polygon","coordinates":[[[120.47813562800002,17.977168909000056],[120.47870160700006,17.979007791000072],[120.47619287400005,17.980032090000066],[120.47766820600009,17.977432389000057],[120.47576306300004,17.978029836000076],[120.47521437900002,17.97637872000007],[120.47382263200006,17.976659152000025],[120.47520293800005,17.976347609000072],[120.47439746600003,17.969211390000055],[120.47079247400006,17.96795525600004],[120.47336716000007,17.964011576000075],[120.47333915200011,17.959746422000023],[120.46540479400005,17.94352088900007],[120.45107904400004,17.931902946000037],[120.44803212200009,17.93050267900003],[120.44468303100007,17.931822172000068],[120.44285263400002,17.931093961000045],[120.43887270200003,17.925635100000022],[120.43835150200005,17.923302327000044],[120.43983968100008,17.920578891000048],[120.43725342900007,17.917487032000054],[120.43548813300004,17.919076420000067],[120.42950019000011,17.916540930000053],[120.4326725740001,17.906529447000025],[120.43735604800008,17.902419422000037],[120.44338379200008,17.90272064800007],[120.44579347000001,17.90509591600005],[120.44656287300006,17.902882951000038],[120.44758861500009,17.903890430000047],[120.44977098000004,17.903062532000035],[120.45026570300001,17.901176797000062],[120.45276699600004,17.90114690100006],[120.45410733000006,17.898605746000044],[120.4579589440001,17.89818372700006],[120.46008641700007,17.896083257000043],[120.46886968900003,17.896481551000022],[120.47499173000006,17.89485052300006],[120.48002829200004,17.898077388000047],[120.48512665600003,17.897017058000074],[120.51584574200001,17.886053336000032],[120.52812109100012,17.878524456000036],[120.53008514600003,17.87377798700004],[120.53041248900001,17.863794037000048],[120.53522465200001,17.850098523000042],[120.53476460400009,17.844217870000023],[120.539245004,17.834870462000026],[120.54792555000006,17.84336889900004],[120.55769875200008,17.85034975800005],[120.55961296600003,17.86488984500005],[120.56377402400005,17.872169390000067],[120.56520114200009,17.886829523000074],[120.56870862400001,17.89559778200004],[120.56451352800002,17.89701671200004],[120.5647479590001,17.898670073000062],[120.56345252000006,17.89896890500006],[120.56432825400009,17.90304197200004],[120.57281148300001,17.903091992000043],[120.57840391900004,17.913269667000066],[120.57963880400007,17.919169671000077],[120.58233430500002,17.919864570000072],[120.58579257400004,17.92212153400004],[120.58787353200012,17.928483509000046],[120.58075369200003,17.927421867000078],[120.55665262700006,17.916488445000027],[120.55159193000009,17.911728082000025],[120.54822442000011,17.910866312000053],[120.5457850040001,17.90681880900007],[120.54192992300011,17.908173391000048],[120.53915560700011,17.913406425000062],[120.53036293600007,17.918184413000063],[120.51988952900001,17.921589922000067],[120.513107869,17.919711020000022],[120.50990786500006,17.920298177000063],[120.50824914700002,17.922889006000048],[120.5093896940001,17.937736357000063],[120.50188311200009,17.948081713000022],[120.49623704700002,17.947779808000064],[120.49190591500007,17.94957689000006],[120.48671708100005,17.948754001000054],[120.48558329600007,17.950367990000075],[120.48655634900001,17.953177508000067],[120.48312192300011,17.953060722000032],[120.48331279100012,17.956125567000072],[120.47657176700011,17.97021144400003],[120.47681786800001,17.97476431000007],[120.47851106100006,17.97638812300005],[120.47813562800002,17.977168909000056]]]}},{"type":"Feature","properties":{"shapeName":"Bangui","shapeISO":"","shapeID":"30758251B93501675208475","shapeGroup":"PHL","shapeType":"ADM3","psgc_code":"0102804000","legacy_psgc_code":"012804000","province":"Ilocos Norte"},"geometry":{"type":"Polygon","coordinates":[[[120.81317776900005,18.534574365000026],[120.78971986800002,18.535548119000055],[120.77080118200001,18.547183535000045],[120.76369952000005,18.54088106000006],[120.75539582800002,18.53653606200004],[120.73435367900004,18.529956557000048],[120.71406730800004,18.528730454000026],[120.67069640500006,18.531614801000046],[120.67397902500011,18.520569048000027],[120.70442647100003,18.506250109000064],[120.70843413300008,18.493792314000075],[120.70249957500005,18.45100486900003],[120.70380226700001,18.426517468000043],[120.80484130900004,18.45590622800006],[120.80507503500007,18.478111041000034],[120.80236441800002,18.506501189000062],[120.79989581600012,18.514926567000032],[120.80384346300002,18.526991381000073],[120.80726304000007,18.527484487000038],[120.808382488,18.529084171000022],[120.81272448700008,18.527915044000054],[120.81599671900005,18.529991652000035],[120.81317776900005,18.534574365000026]]]}},{"type":"Feature","properties":{"shapeName":"Banna","shapeISO":"","shapeID":"30758251B16212654341581","shapeGroup":"PHL","shapeType":"ADM3","psgc_code":"0102811000","legacy_psgc_code":"012811000","province":"Ilocos Norte"},"geometry":{"type":"Polygon","coordinates":[[[120.7249617010001,17.96164325600006],[120.70226260200002,17.98323782700004],[120.69453599000008,17.995098177000045],[120.68079242800002,18.008983054000055],[120.67019131500001,18.010218373000043],[120.67002524500003,18.01145006400003],[120.66761722000001,18.00847463200006],[120.6640328630001,18.010218373000043],[120.66184626600011,18.00864762200007],[120.65877396000008,18.010806540000033],[120.6584764160001,18.012605638000025],[120.64838762600004,18.01565026700007],[120.64746629100011,18.01749189800006],[120.63027445400007,18.025691162000044],[120.62177294000003,18.004244331000052],[120.61926613700007,17.99212811500007],[120.61709357400002,17.989370632000032],[120.6089046840001,17.964051919000042],[120.5963051440001,17.94819422200004],[120.60668618900002,17.936985578000076],[120.60932899500006,17.936944109000024],[120.62152090200004,17.93037268100005],[120.62859064400004,17.929361905000064],[120.6298690100001,17.92444740600007],[120.63368102000004,17.922133721000023],[120.63338318300009,17.920298740000078],[120.63755351200007,17.916701412000066],[120.662722443,17.90576078500004],[120.66493165000009,17.908940311000038],[120.661388256,17.913202780000063],[120.66103595800007,17.92423043200006],[120.66320638200011,17.932253252000066],[120.66704338300008,17.938066890000073],[120.675040222,17.936287201000027],[120.67397364700003,17.939321866000057],[120.6765728470001,17.943633798000064],[120.68176930300001,17.94418140700003],[120.69585711700006,17.93862813100003],[120.69973324700004,17.944971253000062],[120.7125149200001,17.95662855100005],[120.7249617010001,17.96164325600006]]]}},{"type":"Feature","properties":{"shapeName":"Burgos","shapeISO":"","shapeID":"30758251B71350051012392","shapeGroup":"PHL","shapeType":"ADM3","psgc_code":"0102806000","legacy_psgc_code":"012806000","province":"Ilocos Norte"},"geometry":{"type":"Polygon","coordinates":[[[120.67069640500006,18.531614801000046],[120.66481112500003,18.533482175000074],[120.66428539900005,18.53519071100004],[120.66110308300006,18.53512691800006],[120.6608416140001,18.537206467000033],[120.65839664400005,18.538797228000078],[120.64505309800006,18.539233790000026],[120.643293,18.54128167600004],[120.63945597200006,18.542197259000034],[120.64045791900003,18.542990884000062],[120.63892053500001,18.542959503000077],[120.63785885000004,18.545637742000054],[120.63906327600012,18.545624151000027],[120.635687157,18.548093504000065],[120.62825929400003,18.545139036000023],[120.62468147000004,18.54576435000007],[120.619639462,18.542903472000035],[120.61516349400006,18.538031615000023],[120.61296489400002,18.534258829000066],[120.61284699200007,18.52946675000004],[120.60984659700011,18.531226321000076],[120.60385026900008,18.525399693000054],[120.6013009290001,18.52523612500005],[120.60199802900001,18.521996100000024],[120.60039614400011,18.521845247000044],[120.598522924,18.518180786000073],[120.5898492230001,18.516252373000043],[120.5895910160001,18.515044774000046],[120.58408560500004,18.51618617400004],[120.5820134710001,18.514756630000022],[120.58211099300001,18.509254574000067],[120.57370085200012,18.505568066000023],[120.56365051300008,18.49141149600007],[120.57563070000003,18.489658469000062],[120.58767196100007,18.475971818000062],[120.6154192140001,18.45473133300004],[120.6333618760001,18.43856082700006],[120.66237700500005,18.408725298000036],[120.69379218600011,18.41004945700007],[120.70380226700001,18.426517468000043],[120.70249957500005,18.45100486900003],[120.70843413300008,18.493792314000075],[120.70442647100003,18.506250109000064],[120.67397902500011,18.520569048000027],[120.67069640500006,18.531614801000046]]]}},{"type":"Feature","properties":{"shapeName":"Carasi","shapeISO":"","shapeID":"30758251B21012772444668","shapeGroup":"PHL","shapeType":"ADM3","psgc_code":"0102807000","legacy_psgc_code":"012807000","province":"Ilocos Norte"},"geometry":{"type":"Polygon","coordinates":[[[120.92311695500007,18.303778623000028],[120.906895426,18.306137205000027],[120.80880529300009,18.253497565000032],[120.81957928200006,18.225643942000033],[120.80917446500007,18.206249486000047],[120.79909739000004,18.181455424000035],[120.79633796000007,18.178887160000045],[120.7961634180001,18.174947492000058],[120.79259776900005,18.17374232000003],[120.78534386000001,18.15544311800005],[120.79498491000004,18.14919304500006],[120.80090920500004,18.148247010000034],[120.80484550400001,18.145994389000066],[120.80586431100005,18.143649149000055],[120.8084278660001,18.143288597000037],[120.80952606100004,18.140969820000066],[120.81254192400002,18.140415868000048],[120.82180584500009,18.138366123000026],[120.82523797800002,18.140578377000054],[120.83059825600003,18.13952962700006],[120.83450193600004,18.145449238000026],[120.83813760200007,18.145600724000076],[120.86160700200003,18.15504869800003],[120.93806832000007,18.20677695100005],[120.94316752000009,18.21651677600005],[120.93879022400006,18.22089488100005],[120.92676405500004,18.241938255000036],[120.91666636100001,18.284560256000077],[120.92311695500007,18.303778623000028]]]}},{"type":"Feature","properties":{"shapeName":"City of Batac","shapeISO":"","shapeID":"30758251B15119904313284","shapeGroup":"PHL","shapeType":"ADM3","psgc_code":"0102805000","legacy_psgc_code":"012805000","province":"Ilocos Norte"},"geometry":{"type":"Polygon","coordinates":[[[120.64746629100011,18.01749189800006],[120.65095734600004,18.019282652000072],[120.65940522100004,18.031692803000055],[120.6556160450001,18.03826986300004],[120.6358564200001,18.04603664800004],[120.63460439000005,18.04916672300004],[120.64100160400005,18.072273680000023],[120.62880488600001,18.07480337000004],[120.62957774300003,18.081303625000032],[120.62493990100006,18.07991565800006],[120.62209626000003,18.08198068300004],[120.6124952780001,18.09623924400006],[120.6124178230001,18.109466370000064],[120.59789289100001,18.107849909000038],[120.59834747500008,18.111502263000034],[120.59565000500004,18.119874982000056],[120.59219367500009,18.120077009000056],[120.58917612500011,18.115853894000054],[120.58544172600011,18.115257089000067],[120.58233621200009,18.119308701000023],[120.57808842500003,18.117961200000025],[120.57507720600006,18.121236811000074],[120.57045191000009,18.119940835000023],[120.56801567000002,18.122379868000053],[120.56375486700006,18.12320102600006],[120.56238487500002,18.122074029000032],[120.5593526670001,18.12390382800004],[120.55802771700007,18.120662036000056],[120.55290255000011,18.117351479000035],[120.55480342200008,18.11485981900006],[120.55097209400003,18.111979752000025],[120.54951377200007,18.108761251000033],[120.55269633900002,18.104946135000034],[120.54924555000002,18.08902407200003],[120.54461581600003,18.089582048000068],[120.53911940600005,18.085565915000075],[120.53912487900004,18.082107286000053],[120.54758414800006,18.07594365600005],[120.5455592290001,18.071914926000034],[120.54234976700002,18.07271228700006],[120.53864081900008,18.070231558000046],[120.53941417400006,18.05854819900003],[120.53715909000005,18.05375577600006],[120.53648985100006,18.04588950300007],[120.54261037900005,18.040946985000062],[120.53782151400003,18.032726526000033],[120.53116826200005,18.03166408900006],[120.52911173700011,18.029901014000075],[120.52932729800011,18.026336737000065],[120.52667288900011,18.02005037500004],[120.52910421700005,18.01834844600006],[120.52745621400004,18.011958218000075],[120.52310993000003,18.00801706900006],[120.5197819440001,17.999697902000037],[120.51828684100008,17.999920546000055],[120.51724905600008,17.99773211300004],[120.52432171600003,17.990485396000054],[120.52457199700007,17.986842168000067],[120.52912737100007,17.986471851000033],[120.52984933100004,17.988251667000043],[120.53272387600009,17.988055849000034],[120.5343307390001,17.990057254000078],[120.53967499200007,17.98833561500004],[120.54232559800005,17.98890232100007],[120.54328326000007,17.98616204600006],[120.54496544500012,17.985713702000055],[120.549083031,17.988199318000056],[120.5524305130001,17.987337366000077],[120.55381039500003,17.988665764000075],[120.56682023000008,17.962016015000074],[120.5720570530001,17.95929759300003],[120.57826025000008,17.96162544500004],[120.58099895200007,17.96127102500003],[120.59077465500002,17.950553617000025],[120.5963051440001,17.94819422200004],[120.6089046840001,17.964051919000042],[120.61709357400002,17.989370632000032],[120.61926613700007,17.99212811500007],[120.62177294000003,18.004244331000052],[120.63027445400007,18.025691162000044],[120.64746629100011,18.01749189800006]]]}},{"type":"Feature","properties":{"shapeName":"Currimao","shapeISO":"","shapeID":"30758251B25146130050891","shapeGroup":"PHL","shapeType":"ADM3","psgc_code":"0102808000","legacy_psgc_code":"012808000","province":"Ilocos Norte"},"geometry":{"type":"Polygon","coordinates":[[[120.47851106100006,17.97638812300005],[120.48377191300006,17.968567266000036],[120.48814542700006,17.965908531000025],[120.49061871800006,17.969531244000052],[120.50179886100011,17.96615132900007],[120.504551235,17.967819268000028],[120.5072957210001,17.96608842200004],[120.51495863200012,17.96619927200004],[120.52267904300004,17.97250371100006],[120.52185291100011,17.985405635000063],[120.52457199700007,17.986842168000067],[120.52432171600003,17.990485396000054],[120.51724905600008,17.99773211300004],[120.51828684100008,17.999920546000055],[120.5197819440001,17.999697902000037],[120.52310993000003,18.00801706900006],[120.52745621400004,18.011958218000075],[120.52910421700005,18.01834844600006],[120.52667288900011,18.02005037500004],[120.51385798100011,18.019723605000024],[120.50655944300001,18.025255128000026],[120.50297972700002,18.037260875000072],[120.49790323500008,18.045474969000054],[120.49889424700007,18.054434439000033],[120.48935714900006,18.05568829400005],[120.4912822330001,18.057253874000025],[120.49380152600008,18.066383635000022],[120.4855524730001,18.067258550000076],[120.482745184,18.073534436000045],[120.47940414300001,18.073176526000054],[120.48075529300002,18.051091494000048],[120.47960836800007,18.044705935000025],[120.47391409900001,18.036699783000074],[120.47384061900004,18.031020770000055],[120.47751259800009,18.025281076000056],[120.47968257600007,18.017349204000027],[120.48629139000002,18.01715699300007],[120.48835146200008,18.014484434000053],[120.4880325790001,18.009111603000065],[120.49184274000004,18.00592124700006],[120.49714853900002,18.003996522000023],[120.49832024900002,17.99998609100004],[120.4967407360001,17.99343147600007],[120.49203455500003,17.987720575000026],[120.48964457300008,17.98687323300004],[120.48814782000011,17.98822440200007],[120.48885772800008,17.988919337000027],[120.48752044800005,17.99022777600004],[120.48872745000006,17.988952726000036],[120.48779409300005,17.98797713700003],[120.48480556000004,17.98900769900007],[120.48813878800001,17.987465791000034],[120.48825675600006,17.98393991200004],[120.48258918500005,17.981598946000076],[120.48369916200011,17.981150996000054],[120.48121427600006,17.979361354000048],[120.48107709200008,17.977399947000038],[120.47813562800002,17.977168909000056],[120.47851106100006,17.97638812300005]]]}},{"type":"Feature","properties":{"shapeName":"Dingras","shapeISO":"","shapeID":"30758251B52269325260495","shapeGroup":"PHL","shapeType":"ADM3","psgc_code":"0102809000","legacy_psgc_code":"012809000","province":"Ilocos Norte"},"geometry":{"type":"Polygon","coordinates":[[[120.73328427500007,18.131728752000072],[120.72032066400004,18.133607556000072],[120.70936903800009,18.14025735900003],[120.68760295600009,18.141316439000036],[120.68382871800009,18.142232728000067],[120.68380973100011,18.14397533700003],[120.67527971000004,18.138790193000034],[120.67053780000003,18.132354285000076],[120.66341561500008,18.116343654000048],[120.65260397200007,18.10264393600005],[120.64548322700011,18.08921074700004],[120.67722974300011,18.08003844600006],[120.67410033200008,18.06568389100005],[120.69235868800001,18.06314720100005],[120.69911245000003,18.06003804000005],[120.69366020700011,18.052928226000063],[120.711733664,18.039689500000065],[120.7215837650001,18.035985562000064],[120.72575100400002,18.030626059000042],[120.73229313000002,18.026825853000048],[120.73647816700009,18.02215977800006],[120.75033510700007,18.018140623000022],[120.76069541700008,18.006733260000033],[120.77009133700005,18.00389519600003],[120.7826251460001,18.028193357000077],[120.79722046800009,18.041995864000057],[120.80467476800004,18.053350543000022],[120.79423216000009,18.054197258000045],[120.789317073,18.05669401800003],[120.7824542520001,18.05537374200003],[120.77850649600009,18.056079632000035],[120.7595157610001,18.07059832500005],[120.75830719800001,18.073945115000072],[120.74869823100005,18.07855083800007],[120.7441462810001,18.078252607000024],[120.74282778500003,18.082270881000056],[120.73698443400008,18.082196973000066],[120.73840134200009,18.08942589800006],[120.73072548700009,18.092054690000055],[120.73075224800004,18.096935359000042],[120.72873494200007,18.10134987600003],[120.72299652700008,18.108766525000078],[120.73527053700002,18.113206451000053],[120.73733689100004,18.121715848000065],[120.73661701000003,18.12886728600006],[120.73328427500007,18.131728752000072]]]}},{"type":"Feature","properties":{"shapeName":"Dumalneg","shapeISO":"","shapeID":"30758251B34921997573635","shapeGroup":"PHL","shapeType":"ADM3","psgc_code":"0102810000","legacy_psgc_code":"012810000","province":"Ilocos Norte"},"geometry":{"type":"Polygon","coordinates":[[[120.88929347100009,18.476307956000028],[120.87305724100008,18.481739713000024],[120.86924910700009,18.480795060000048],[120.86440775900007,18.481857795000053],[120.86157379800011,18.47976184500004],[120.85572875500009,18.47999800900004],[120.850149396,18.484573674000046],[120.85316047900005,18.490477757000065],[120.84474716000011,18.49340027900007],[120.84347778200004,18.49505342200007],[120.84403867000003,18.49968812800006],[120.84114566900007,18.50145935300003],[120.84610509900006,18.50482468100006],[120.84288737300005,18.510994448000076],[120.84758112000009,18.511142050000046],[120.84952946800001,18.51270663300005],[120.84797423400005,18.521411826000076],[120.84596915000009,18.523133142000063],[120.84169741800008,18.523383195000065],[120.84059903200011,18.526874489000022],[120.83643963400004,18.52684428200007],[120.83606405300009,18.53238142600003],[120.82909969800005,18.537167408000073],[120.81317776900005,18.534574365000026],[120.81599671900005,18.529991652000035],[120.81272448700008,18.527915044000054],[120.808382488,18.529084171000022],[120.80726304000007,18.527484487000038],[120.80384346300002,18.526991381000073],[120.79989581600012,18.514926567000032],[120.80236441800002,18.506501189000062],[120.80507503500007,18.478111041000034],[120.80484130900004,18.45590622800006],[120.86654945600003,18.416060397000024],[120.87035669400007,18.429886047000025],[120.88929347100009,18.476307956000028]]]}},{"type":"Feature","properties":{"shapeName":"Laoag City","shapeISO":"","shapeID":"30758251B72838386588139","shapeGroup":"PHL","shapeType":"ADM3","psgc_code":"0102812000","legacy_psgc_code":"012812000","province":"Ilocos Norte"},"geometry":{"type":"Polygon","coordinates":[[[120.56214031400009,18.263762883000027],[120.54865267100001,18.233600720000027],[120.53945017,18.22044942200006],[120.52351140500002,18.204803687000037],[120.5177606200001,18.18555252500005],[120.51933234400008,18.18493914000004],[120.517121287,18.180828845000065],[120.51849827900003,18.15610699900003],[120.51409518100002,18.13927367900004],[120.53186357200002,18.132565948000035],[120.53529744800005,18.132853655000076],[120.53792734300009,18.13450014700004],[120.54379135300007,18.134124645000043],[120.557426931,18.14402876400004],[120.55875118600011,18.150383668000075],[120.56801717000008,18.153427934000035],[120.57114134800008,18.156856538000056],[120.56945482100002,18.160356053000044],[120.57079220900005,18.165756259000034],[120.57394302400007,18.166207190000023],[120.58146251900007,18.17545480900003],[120.58782884800007,18.178804892000073],[120.58890579400008,18.183333610000034],[120.59464925800012,18.18163627900003],[120.60014305700008,18.18360481700006],[120.6046231470001,18.177339622000034],[120.61242089600012,18.17439315000007],[120.6204716960001,18.16897857600003],[120.63163026300003,18.169204852000064],[120.63385243200003,18.174242057000072],[120.66045535,18.184947555000065],[120.66240776000006,18.19020080100006],[120.66058176500007,18.19451295700003],[120.66356217400005,18.199055995000037],[120.6668625850001,18.209183451000058],[120.66468213300004,18.21207697400007],[120.65092720500002,18.21167577800003],[120.64355609400002,18.207175800000073],[120.62080834900007,18.223549262000063],[120.59392797800001,18.23291621000004],[120.58904662500004,18.237379456000042],[120.5870312620001,18.242692687000044],[120.5842097530001,18.244598121000024],[120.58377554200001,18.251850940000054],[120.574504165,18.254962084000056],[120.56997717800004,18.261317115000054],[120.56545540400009,18.260547621000057],[120.56214031400009,18.263762883000027]]]}},{"type":"Feature","properties":{"shapeName":"Marcos","shapeISO":"","shapeID":"30758251B92654029938439","shapeGroup":"PHL","shapeType":"ADM3","psgc_code":"0102813000","legacy_psgc_code":"012813000","province":"Ilocos Norte"},"geometry":{"type":"Polygon","coordinates":[[[120.7249617010001,17.96164325600006],[120.73361430500006,17.96072061900003],[120.74560415300004,17.98379752900007],[120.7506290450001,17.996784309000077],[120.75331186800008,18.001196846000028],[120.76069541700008,18.006733260000033],[120.75033510700007,18.018140623000022],[120.73647816700009,18.02215977800006],[120.73229313000002,18.026825853000048],[120.72575100400002,18.030626059000042],[120.7215837650001,18.035985562000064],[120.711733664,18.039689500000065],[120.69366020700011,18.052928226000063],[120.69911245000003,18.06003804000005],[120.69235868800001,18.06314720100005],[120.67410033200008,18.06568389100005],[120.67722974300011,18.08003844600006],[120.64548322700011,18.08921074700004],[120.64100160400005,18.072273680000023],[120.63460439000005,18.04916672300004],[120.6358564200001,18.04603664800004],[120.6556160450001,18.03826986300004],[120.65940522100004,18.031692803000055],[120.65095734600004,18.019282652000072],[120.64746629100011,18.01749189800006],[120.64838762600004,18.01565026700007],[120.6584764160001,18.012605638000025],[120.65877396000008,18.010806540000033],[120.66184626600011,18.00864762200007],[120.6640328630001,18.010218373000043],[120.66761722000001,18.00847463200006],[120.67002524500003,18.01145006400003],[120.67019131500001,18.010218373000043],[120.68079242800002,18.008983054000055],[120.69453599000008,17.995098177000045],[120.70226260200002,17.98323782700004],[120.7249617010001,17.96164325600006]]]}},{"type":"Feature","properties":{"shapeName":"Nueva Era","shapeISO":"","shapeID":"30758251B81029869492051","shapeGroup":"PHL","shapeType":"ADM3","psgc_code":"0102814000","legacy_psgc_code":"012814000","province":"Ilocos Norte"},"geometry":{"type":"Polygon","coordinates":[[[120.539245004,17.834870462000026],[120.54059008000002,17.824333185000057],[120.57182232500008,17.786033365000037],[120.58279342800006,17.799097519000043],[120.60222550600008,17.809284779000052],[120.62459554400004,17.814628300000038],[120.63328457800003,17.81909497500004],[120.6717216400001,17.828020168000023],[120.68185365600004,17.830346956000028],[120.69086868800002,17.83457964200005],[120.71309088700002,17.85995599300003],[120.72293107300004,17.88324755800005],[120.72824914700004,17.892507978000026],[120.73259717500002,17.896165732000043],[120.74365221500011,17.90140434400007],[120.75553122500003,17.903190151000047],[120.78375228200002,17.911236471000052],[120.81005946700009,17.935047884000028],[120.82604262300003,17.95475861500006],[120.83369465900012,17.95945428300007],[120.85020468100004,17.962860961000047],[120.86494466500005,17.961519929000076],[120.87937962800004,17.957658047000052],[120.8945855720001,17.95147229400004],[120.90997355400009,17.94992527000005],[120.9203956020001,17.956264822000037],[120.93125998500011,17.973635974000047],[120.9403137060001,17.986803063000025],[120.94483351000008,17.989445019000073],[120.9469459710001,17.997094376000064],[120.9450504020001,17.996526439000036],[120.94409452000002,17.999826832000053],[120.93931481600009,18.005185315000062],[120.93812287900005,18.01240294400003],[120.93225689000008,18.013896287000023],[120.9277503080001,18.020743286000027],[120.92795495700011,18.023135386000035],[120.93339553900012,18.02913028100005],[120.93584120900005,18.048433540000076],[120.93298814900004,18.057569600000022],[120.93547615500006,18.064370777000022],[120.93546188900007,18.068995150000035],[120.92753268900003,18.078632767000045],[120.92814130400006,18.088193385000068],[120.94854229900011,18.132612094000024],[120.94804674600005,18.137152979000064],[120.97006946800002,18.18186392000007],[120.94316752000009,18.21651677600005],[120.93806832000007,18.20677695100005],[120.86160700200003,18.15504869800003],[120.83344567000006,18.09353681400006],[120.83346144000006,18.075970765000022],[120.82690983600003,18.063240016000066],[120.82153764200007,18.053970347000075],[120.81055898700004,18.052006583000036],[120.80467476800004,18.053350543000022],[120.79722046800009,18.041995864000057],[120.7826251460001,18.028193357000077],[120.77009133700005,18.00389519600003],[120.76069541700008,18.006733260000033],[120.75331186800008,18.001196846000028],[120.7506290450001,17.996784309000077],[120.74560415300004,17.98379752900007],[120.73361430500006,17.96072061900003],[120.7249617010001,17.96164325600006],[120.7125149200001,17.95662855100005],[120.69973324700004,17.944971253000062],[120.69585711700006,17.93862813100003],[120.68176930300001,17.94418140700003],[120.6765728470001,17.943633798000064],[120.67397364700003,17.939321866000057],[120.675040222,17.936287201000027],[120.66704338300008,17.938066890000073],[120.66320638200011,17.932253252000066],[120.66103595800007,17.92423043200006],[120.661388256,17.913202780000063],[120.66493165000009,17.908940311000038],[120.662722443,17.90576078500004],[120.63755351200007,17.916701412000066],[120.63338318300009,17.920298740000078],[120.63368102000004,17.922133721000023],[120.6298690100001,17.92444740600007],[120.62859064400004,17.929361905000064],[120.62152090200004,17.93037268100005],[120.60932899500006,17.936944109000024],[120.60668618900002,17.936985578000076],[120.5927902410001,17.916529252000032],[120.58233430500002,17.919864570000072],[120.57963880400007,17.919169671000077],[120.57840391900004,17.913269667000066],[120.57281148300001,17.903091992000043],[120.56432825400009,17.90304197200004],[120.56345252000006,17.89896890500006],[120.5647479590001,17.898670073000062],[120.56451352800002,17.89701671200004],[120.56870862400001,17.89559778200004],[120.56520114200009,17.886829523000074],[120.56377402400005,17.872169390000067],[120.55961296600003,17.86488984500005],[120.55769875200008,17.85034975800005],[120.54792555000006,17.84336889900004],[120.539245004,17.834870462000026]]]}},{"type":"Feature","properties":{"shapeName":"Pagudpud","shapeISO":"","shapeID":"30758251B61370537104024","shapeGroup":"PHL","shapeType":"ADM3","psgc_code":"0102815000","legacy_psgc_code":"012815000","province":"Ilocos Norte"},"geometry":{"type":"Polygon","coordinates":[[[120.96914518200003,18.510116371000038],[120.97645367700011,18.568958937000048],[120.97413311000003,18.576991173000067],[120.97143995200008,18.579972885000075],[120.96575156100005,18.574341795000066],[120.96228198200004,18.566792645000078],[120.95546249800009,18.559624402000054],[120.94289747000005,18.558146342000043],[120.92800873600004,18.559397641000032],[120.90984432000005,18.564217425000038],[120.89600372200005,18.57379485200005],[120.88347395400001,18.597389457000077],[120.87130108500003,18.606013403000077],[120.8684940490001,18.61074516800005],[120.86974085300005,18.614728510000077],[120.86748558300008,18.617394642000022],[120.86814495600004,18.623009800000034],[120.8644645710001,18.623410677000038],[120.86173071400003,18.62103290600004],[120.85909065200008,18.622918193000032],[120.86032194800009,18.635009711000066],[120.8566904380001,18.639185114000043],[120.85338727700002,18.64690653200006],[120.84633263800004,18.651224168000056],[120.84284441400007,18.650990222000075],[120.83419997900012,18.643181911000056],[120.83335530500005,18.638329301000056],[120.82884955200007,18.637378529000046],[120.82727393900007,18.634955588000025],[120.81994921900002,18.63397330300006],[120.81566929300004,18.63136868400005],[120.81252795700004,18.632275750000076],[120.8103841200001,18.63486284000004],[120.79757167100001,18.63264041800005],[120.78538444600008,18.62488065100007],[120.7817876260001,18.62026965700005],[120.77895522600011,18.613294006000046],[120.77767566700004,18.600784222000073],[120.7824502630001,18.597402617000057],[120.78538955600004,18.592808346000027],[120.78555657800007,18.584619991000068],[120.78216517100009,18.580088446000047],[120.78752984700009,18.57541609900005],[120.78780994400006,18.570654303000026],[120.7788030690001,18.55490388800007],[120.77080118200001,18.547183535000045],[120.78971986800002,18.535548119000055],[120.81317776900005,18.534574365000026],[120.82909969800005,18.537167408000073],[120.83606405300009,18.53238142600003],[120.83643963400004,18.52684428200007],[120.84059903200011,18.526874489000022],[120.84169741800008,18.523383195000065],[120.84596915000009,18.523133142000063],[120.84797423400005,18.521411826000076],[120.84952946800001,18.51270663300005],[120.84758112000009,18.511142050000046],[120.84288737300005,18.510994448000076],[120.84610509900006,18.50482468100006],[120.84114566900007,18.50145935300003],[120.84403867000003,18.49968812800006],[120.84347778200004,18.49505342200007],[120.84474716000011,18.49340027900007],[120.85316047900005,18.490477757000065],[120.850149396,18.484573674000046],[120.85572875500009,18.47999800900004],[120.86157379800011,18.47976184500004],[120.86440775900007,18.481857795000053],[120.86924910700009,18.480795060000048],[120.87305724100008,18.481739713000024],[120.88929347100009,18.476307956000028],[120.87267031800002,18.509416895000072],[120.92154564000009,18.518382190000068],[120.92067803000009,18.51462255000007],[120.96914518200003,18.510116371000038]]]}},{"type":"Feature","properties":{"shapeName":"Paoay","shapeISO":"","shapeID":"30758251B25110952192125","shapeGroup":"PHL","shapeType":"ADM3","psgc_code":"0102816000","legacy_psgc_code":"012816000","province":"Ilocos Norte"},"geometry":{"type":"Polygon","coordinates":[[[120.5593526670001,18.12390382800004],[120.558864835,18.12601990400003],[120.56117250500006,18.13120059700003],[120.55731782300006,18.137804952000067],[120.557426931,18.14402876400004],[120.54379135300007,18.134124645000043],[120.53792734300009,18.13450014700004],[120.53529744800005,18.132853655000076],[120.53186357200002,18.132565948000035],[120.51409518100002,18.13927367900004],[120.49591480100003,18.111753363000048],[120.4709937240001,18.087817099000063],[120.4709278360001,18.085964027000045],[120.4772838020001,18.08241429900005],[120.47940414300001,18.073176526000054],[120.482745184,18.073534436000045],[120.4855524730001,18.067258550000076],[120.49380152600008,18.066383635000022],[120.4912822330001,18.057253874000025],[120.48935714900006,18.05568829400005],[120.49889424700007,18.054434439000033],[120.49790323500008,18.045474969000054],[120.50297972700002,18.037260875000072],[120.50655944300001,18.025255128000026],[120.51385798100011,18.019723605000024],[120.52667288900011,18.02005037500004],[120.52932729800011,18.026336737000065],[120.52911173700011,18.029901014000075],[120.53116826200005,18.03166408900006],[120.53782151400003,18.032726526000033],[120.54261037900005,18.040946985000062],[120.53648985100006,18.04588950300007],[120.53715909000005,18.05375577600006],[120.53941417400006,18.05854819900003],[120.53864081900008,18.070231558000046],[120.54234976700002,18.07271228700006],[120.5455592290001,18.071914926000034],[120.54758414800006,18.07594365600005],[120.53912487900004,18.082107286000053],[120.53911940600005,18.085565915000075],[120.54461581600003,18.089582048000068],[120.54924555000002,18.08902407200003],[120.55269633900002,18.104946135000034],[120.54951377200007,18.108761251000033],[120.55097209400003,18.111979752000025],[120.55480342200008,18.11485981900006],[120.55290255000011,18.117351479000035],[120.55802771700007,18.120662036000056],[120.5593526670001,18.12390382800004]]]}},{"type":"Feature","properties":{"shapeName":"Pasuquin","shapeISO":"","shapeID":"30758251B90243887174140","shapeGroup":"PHL","shapeType":"ADM3","psgc_code":"0102817000","legacy_psgc_code":"012817000","province":"Ilocos Norte"},"geometry":{"type":"Polygon","coordinates":[[[120.66821351200008,18.287053077000053],[120.68458006500009,18.302920570000026],[120.68902237100008,18.311648395000077],[120.69519055600006,18.332740714000067],[120.70537492500011,18.356933268000034],[120.71321173600006,18.369926707000047],[120.69742278000001,18.406709310000053],[120.69379218600011,18.41004945700007],[120.66237700500005,18.408725298000036],[120.6333618760001,18.43856082700006],[120.6154192140001,18.45473133300004],[120.58767196100007,18.475971818000062],[120.57563070000003,18.489658469000062],[120.56365051300008,18.49141149600007],[120.56533156800003,18.486789862000023],[120.5643732630001,18.485528086000045],[120.56782958800011,18.48405572200005],[120.57004858000005,18.479409093000072],[120.56706542500001,18.47909452400006],[120.56838031300003,18.477539481000065],[120.56969308400005,18.478229997000028],[120.56819692600004,18.475266517000023],[120.5708881700001,18.469299653000064],[120.56979057700005,18.46345205500006],[120.57226765400003,18.460388410000064],[120.57850583200002,18.461779772000057],[120.57972809900002,18.460972111000046],[120.57938347800007,18.452324345000022],[120.58333774900007,18.436766427000066],[120.58957792600006,18.429293656000027],[120.5917356220001,18.415417782000077],[120.5949097780001,18.411319117000062],[120.59783418400002,18.38073545700007],[120.59999656500008,18.376752148000037],[120.60014086900003,18.357514930000036],[120.59634586200002,18.329598022000027],[120.59071281000001,18.311711045000038],[120.58134274300005,18.296504215000027],[120.62237783400008,18.293141174000027],[120.63081385700002,18.29487566000006],[120.63481539800011,18.293321236000054],[120.64074321400005,18.295372678000035],[120.65955747400005,18.294457158000057],[120.66377014200009,18.292607289000046],[120.66821351200008,18.287053077000053]]]}},{"type":"Feature","properties":{"shapeName":"Piddig","shapeISO":"","shapeID":"30758251B11502828535213","shapeGroup":"PHL","shapeType":"ADM3","psgc_code":"0102818000","legacy_psgc_code":"012818000","province":"Ilocos Norte"},"geometry":{"type":"Polygon","coordinates":[[[120.80880529300009,18.253497565000032],[120.79216565400009,18.24159508300005],[120.72744864000003,18.203574395000032],[120.71049287100004,18.202423658000043],[120.7071958900001,18.203546067000048],[120.68869860900008,18.19857432500004],[120.68302034600003,18.201200895000056],[120.67766408700004,18.20586228700006],[120.66856104300007,18.207604183000058],[120.6668625850001,18.209183451000058],[120.66356217400005,18.199055995000037],[120.66058176500007,18.19451295700003],[120.66240776000006,18.19020080100006],[120.66045535,18.184947555000065],[120.67267952400005,18.186077273000024],[120.68050656100002,18.185267311000075],[120.68609522000008,18.151028590000067],[120.68380973100011,18.14397533700003],[120.68382871800009,18.142232728000067],[120.68760295600009,18.141316439000036],[120.70936903800009,18.14025735900003],[120.72032066400004,18.133607556000072],[120.73328427500007,18.131728752000072],[120.73613873800002,18.131809446000034],[120.7416021470001,18.137265631000048],[120.74582009700009,18.13779001100005],[120.75896124200005,18.135534121000035],[120.758926,18.13456181400005],[120.77132936600003,18.135529070000075],[120.77483764300007,18.126395624000054],[120.77923918600004,18.12281224800006],[120.79396217400006,18.130127669000046],[120.79817980700011,18.130100538000022],[120.80558122200011,18.12706170200005],[120.81217207300006,18.135542349000048],[120.81254192400002,18.140415868000048],[120.80952606100004,18.140969820000066],[120.8084278660001,18.143288597000037],[120.80586431100005,18.143649149000055],[120.80484550400001,18.145994389000066],[120.80090920500004,18.148247010000034],[120.79498491000004,18.14919304500006],[120.78534386000001,18.15544311800005],[120.79259776900005,18.17374232000003],[120.7961634180001,18.174947492000058],[120.79633796000007,18.178887160000045],[120.79909739000004,18.181455424000035],[120.80917446500007,18.206249486000047],[120.81957928200006,18.225643942000033],[120.80880529300009,18.253497565000032]]]}},{"type":"Feature","properties":{"shapeName":"Pinili","shapeISO":"","shapeID":"30758251B26496758793693","shapeGroup":"PHL","shapeType":"ADM3","psgc_code":"0102819000","legacy_psgc_code":"012819000","province":"Ilocos Norte"},"geometry":{"type":"Polygon","coordinates":[[[120.58233430500002,17.919864570000072],[120.5927902410001,17.916529252000032],[120.60668618900002,17.936985578000076],[120.5963051440001,17.94819422200004],[120.59077465500002,17.950553617000025],[120.58099895200007,17.96127102500003],[120.57826025000008,17.96162544500004],[120.5720570530001,17.95929759300003],[120.56682023000008,17.962016015000074],[120.55381039500003,17.988665764000075],[120.5524305130001,17.987337366000077],[120.549083031,17.988199318000056],[120.54496544500012,17.985713702000055],[120.54328326000007,17.98616204600006],[120.54232559800005,17.98890232100007],[120.53967499200007,17.98833561500004],[120.5343307390001,17.990057254000078],[120.53272387600009,17.988055849000034],[120.52984933100004,17.988251667000043],[120.52912737100007,17.986471851000033],[120.52457199700007,17.986842168000067],[120.52185291100011,17.985405635000063],[120.52267904300004,17.97250371100006],[120.51495863200012,17.96619927200004],[120.5072957210001,17.96608842200004],[120.504551235,17.967819268000028],[120.50179886100011,17.96615132900007],[120.49061871800006,17.969531244000052],[120.48814542700006,17.965908531000025],[120.48377191300006,17.968567266000036],[120.47851106100006,17.97638812300005],[120.47681786800001,17.97476431000007],[120.47657176700011,17.97021144400003],[120.48331279100012,17.956125567000072],[120.48312192300011,17.953060722000032],[120.48655634900001,17.953177508000067],[120.48558329600007,17.950367990000075],[120.48671708100005,17.948754001000054],[120.49190591500007,17.94957689000006],[120.49623704700002,17.947779808000064],[120.50188311200009,17.948081713000022],[120.5093896940001,17.937736357000063],[120.50824914700002,17.922889006000048],[120.50990786500006,17.920298177000063],[120.513107869,17.919711020000022],[120.51988952900001,17.921589922000067],[120.53036293600007,17.918184413000063],[120.53915560700011,17.913406425000062],[120.54192992300011,17.908173391000048],[120.5457850040001,17.90681880900007],[120.54822442000011,17.910866312000053],[120.55159193000009,17.911728082000025],[120.55665262700006,17.916488445000027],[120.58075369200003,17.927421867000078],[120.58787353200012,17.928483509000046],[120.58579257400004,17.92212153400004],[120.58233430500002,17.919864570000072]]]}},{"type":"Feature","properties":{"shapeName":"San Nicolas","shapeISO":"","shapeID":"30758251B22278088652196","shapeGroup":"PHL","shapeType":"ADM3","psgc_code":"0102820000","legacy_psgc_code":"012820000","province":"Ilocos Norte"},"geometry":{"type":"Polygon","coordinates":[[[120.6124178230001,18.109466370000064],[120.61903410500008,18.128156084000068],[120.6198306980001,18.135075396000047],[120.62419196300004,18.14055878100004],[120.63114649600004,18.162062028000037],[120.63163026300003,18.169204852000064],[120.6204716960001,18.16897857600003],[120.61242089600012,18.17439315000007],[120.6046231470001,18.177339622000034],[120.60014305700008,18.18360481700006],[120.59464925800012,18.18163627900003],[120.58890579400008,18.183333610000034],[120.58782884800007,18.178804892000073],[120.58146251900007,18.17545480900003],[120.57394302400007,18.166207190000023],[120.57079220900005,18.165756259000034],[120.56945482100002,18.160356053000044],[120.57114134800008,18.156856538000056],[120.56801717000008,18.153427934000035],[120.55875118600011,18.150383668000075],[120.557426931,18.14402876400004],[120.55731782300006,18.137804952000067],[120.56117250500006,18.13120059700003],[120.558864835,18.12601990400003],[120.5593526670001,18.12390382800004],[120.56238487500002,18.122074029000032],[120.56375486700006,18.12320102600006],[120.56801567000002,18.122379868000053],[120.57045191000009,18.119940835000023],[120.57507720600006,18.121236811000074],[120.57808842500003,18.117961200000025],[120.58233621200009,18.119308701000023],[120.58544172600011,18.115257089000067],[120.58917612500011,18.115853894000054],[120.59219367500009,18.120077009000056],[120.59565000500004,18.119874982000056],[120.59834747500008,18.111502263000034],[120.59789289100001,18.107849909000038],[120.6124178230001,18.109466370000064]]]}},{"type":"Feature","properties":{"shapeName":"Sarrat","shapeISO":"","shapeID":"30758251B82772093165971","shapeGroup":"PHL","shapeType":"ADM3","psgc_code":"0102821000","legacy_psgc_code":"012821000","province":"Ilocos Norte"},"geometry":{"type":"Polygon","coordinates":[[[120.64100160400005,18.072273680000023],[120.64548322700011,18.08921074700004],[120.65260397200007,18.10264393600005],[120.66341561500008,18.116343654000048],[120.67053780000003,18.132354285000076],[120.67527971000004,18.138790193000034],[120.68380973100011,18.14397533700003],[120.68609522000008,18.151028590000067],[120.68050656100002,18.185267311000075],[120.67267952400005,18.186077273000024],[120.66045535,18.184947555000065],[120.63385243200003,18.174242057000072],[120.63163026300003,18.169204852000064],[120.63114649600004,18.162062028000037],[120.62419196300004,18.14055878100004],[120.6198306980001,18.135075396000047],[120.61903410500008,18.128156084000068],[120.6124178230001,18.109466370000064],[120.6124952780001,18.09623924400006],[120.62209626000003,18.08198068300004],[120.62493990100006,18.07991565800006],[120.62957774300003,18.081303625000032],[120.62880488600001,18.07480337000004],[120.64100160400005,18.072273680000023]]]}},{"type":"Feature","properties":{"shapeName":"Solsona","shapeISO":"","shapeID":"30758251B20065822888258","shapeGroup":"PHL","shapeType":"ADM3","psgc_code":"0102822000","legacy_psgc_code":"012822000","province":"Ilocos Norte"},"geometry":{"type":"Polygon","coordinates":[[[120.81254192400002,18.140415868000048],[120.81217207300006,18.135542349000048],[120.80558122200011,18.12706170200005],[120.79817980700011,18.130100538000022],[120.79396217400006,18.130127669000046],[120.77923918600004,18.12281224800006],[120.77483764300007,18.126395624000054],[120.77132936600003,18.135529070000075],[120.758926,18.13456181400005],[120.75896124200005,18.135534121000035],[120.74582009700009,18.13779001100005],[120.7416021470001,18.137265631000048],[120.73613873800002,18.131809446000034],[120.73328427500007,18.131728752000072],[120.73661701000003,18.12886728600006],[120.73733689100004,18.121715848000065],[120.73527053700002,18.113206451000053],[120.72299652700008,18.108766525000078],[120.72873494200007,18.10134987600003],[120.73075224800004,18.096935359000042],[120.73072548700009,18.092054690000055],[120.73840134200009,18.08942589800006],[120.73698443400008,18.082196973000066],[120.74282778500003,18.082270881000056],[120.7441462810001,18.078252607000024],[120.74869823100005,18.07855083800007],[120.75830719800001,18.073945115000072],[120.7595157610001,18.07059832500005],[120.77850649600009,18.056079632000035],[120.7824542520001,18.05537374200003],[120.789317073,18.05669401800003],[120.79423216000009,18.054197258000045],[120.80467476800004,18.053350543000022],[120.81055898700004,18.052006583000036],[120.82153764200007,18.053970347000075],[120.82690983600003,18.063240016000066],[120.83346144000006,18.075970765000022],[120.83344567000006,18.09353681400006],[120.86160700200003,18.15504869800003],[120.83813760200007,18.145600724000076],[120.83450193600004,18.145449238000026],[120.83059825600003,18.13952962700006],[120.82523797800002,18.140578377000054],[120.82180584500009,18.138366123000026],[120.81254192400002,18.140415868000048]]]}},{"type":"Feature","properties":{"shapeName":"Vintar","shapeISO":"","shapeID":"30758251B43967243138313","shapeGroup":"PHL","shapeType":"ADM3","psgc_code":"0102823000","legacy_psgc_code":"012823000","province":"Ilocos Norte"},"geometry":{"type":"Polygon","coordinates":[[[120.87035669400007,18.429886047000025],[120.86654945600003,18.416060397000024],[120.80484130900004,18.45590622800006],[120.70380226700001,18.426517468000043],[120.69379218600011,18.41004945700007],[120.69742278000001,18.406709310000053],[120.71321173600006,18.369926707000047],[120.70537492500011,18.356933268000034],[120.69519055600006,18.332740714000067],[120.68902237100008,18.311648395000077],[120.68458006500009,18.302920570000026],[120.66821351200008,18.287053077000053],[120.65810433200011,18.277596378000055],[120.66157270600002,18.269243782000046],[120.65628768700003,18.26794205400006],[120.65641785900004,18.265781184000048],[120.6528012230001,18.263833653000063],[120.65186397800005,18.264551050000023],[120.65157904000012,18.260885925000025],[120.64409156400006,18.25895627600005],[120.64424555000005,18.25630694800003],[120.63887192700008,18.250409492000074],[120.6344980340001,18.240835445000073],[120.63262333300008,18.239345589000038],[120.62975556900005,18.241469858000073],[120.62699401900011,18.24030151000005],[120.62080834900007,18.223549262000063],[120.64355609400002,18.207175800000073],[120.65092720500002,18.21167577800003],[120.66468213300004,18.21207697400007],[120.6668625850001,18.209183451000058],[120.66856104300007,18.207604183000058],[120.67766408700004,18.20586228700006],[120.68302034600003,18.201200895000056],[120.68869860900008,18.19857432500004],[120.7071958900001,18.203546067000048],[120.71049287100004,18.202423658000043],[120.72744864000003,18.203574395000032],[120.79216565400009,18.24159508300005],[120.80880529300009,18.253497565000032],[120.906895426,18.306137205000027],[120.92311695500007,18.303778623000028],[120.94836326600011,18.38169343000004],[120.91484017700009,18.37693302100007],[120.87035669400007,18.429886047000025]]]}}]}
