{"type":"FeatureCollection","source":{"dataset":"geoBoundaries gbOpen PHL ADM3","commit":"9469f09","license":"CC BY 3.0 IGO","boundary_year":2020,"url":"https://media.githubusercontent.com/media/wmgeolab/geoBoundaries/9469f09/releaseData/gbOpen/PHL/ADM3/geoBoundaries-PHL-ADM3_simplified.geojson","upstream_sources":["NAMRIA","PSA","OCHA Philippines"],"reference":"https://ulap-nga.georisk.gov.ph/arcgis/rest/services/PSA/Municipal/MapServer/0","psgc_reference":"https://psa.gov.ph/classification/psgc/provinces/1400000000","notice":"Approximate planning/reference boundaries, not legal, cadastral, or survey-grade."},"features":[{"type":"Feature","properties":{"shapeName":"Balbalan","shapeISO":"","shapeID":"30758251B68760581282795","shapeGroup":"PHL","shapeType":"ADM3","psgc_code":"1403201000","legacy_psgc_code":"143201000","province":"Kalinga"},"geometry":{"type":"Polygon","coordinates":[[[121.29874457100004,17.65610837400004],[121.30359246900002,17.66199183300006],[121.30482793600004,17.666375654000035],[121.29578468900002,17.680417802000022],[121.284441033,17.683695749000037],[121.28129082500004,17.682456843000068],[121.27649862700002,17.684045338000033],[121.26614798600008,17.683203898000045],[121.25869072400008,17.674579909000045],[121.25354751400005,17.67230002100007],[121.25345991200004,17.659203984000044],[121.24044747900007,17.654378180000037],[121.23529448900001,17.644741277000037],[121.23552752600006,17.64123853500007],[121.23119520300008,17.63629835300003],[121.21925737000004,17.635588399000028],[121.19849677600007,17.64420186600006],[121.18770896700005,17.651469346000056],[121.1864298380001,17.655474397000035],[121.18151743800001,17.655204667000078],[121.17672048400004,17.657100940000078],[121.17358859,17.66147586200003],[121.17328511000005,17.666550091000033],[121.17023120700003,17.66948573800005],[121.16767728600007,17.669869821000077],[121.16200503400012,17.664881319000074],[121.15850505600008,17.666066589000025],[121.15156283400006,17.663272694000057],[121.14601259900007,17.66329793500006],[121.14365983400012,17.66704078400005],[121.14375487900008,17.67427592300004],[121.14258180200011,17.676026469000078],[121.13932253900009,17.676736163000044],[121.1325760310001,17.67234271600006],[121.12094725500003,17.67414837700005],[121.11752955800011,17.68332818400006],[121.11445616500009,17.684967189000076],[121.11067267300007,17.684892269000045],[121.10778942600007,17.683711734000042],[121.10137862900001,17.673671539000054],[121.09530265900003,17.670817621000026],[121.08981004500004,17.67092755500005],[121.09112967600004,17.664431473000036],[121.0896172680001,17.655858248000072],[121.09045829400009,17.643479373000048],[121.09831187100008,17.630879306000054],[121.09039717400003,17.621290806000047],[121.08918661100006,17.61366613900003],[121.09395511000002,17.60690357900006],[121.11109822100002,17.598684629000047],[121.1169102240001,17.58617556100006],[121.11613839200004,17.58133871900003],[121.11155955800007,17.576103395000075],[121.1122802540001,17.570890861000066],[121.10902357500004,17.553992790000052],[121.10209294700007,17.549275671000032],[121.08048317100008,17.548210964000077],[121.07316134700011,17.549341257000037],[121.06992636900009,17.547774894000042],[121.05939327600004,17.528416694000043],[121.03788846100008,17.518238143000076],[121.03364106100003,17.511994918000028],[121.02810466300002,17.507897295000078],[120.99977919000003,17.494860908000078],[120.99545500300007,17.489607008000064],[120.99272570200003,17.483298011000045],[120.99280199000009,17.47821396200004],[120.99918727900001,17.465187627000034],[120.99983809200012,17.44454041700004],[120.9993776120001,17.432616061000033],[120.99281149800004,17.417806642000073],[120.99207446900004,17.400302743000054],[120.9891611590001,17.392206052000063],[120.99879349200012,17.38086202200003],[120.99977789500008,17.377822970000068],[121.00386949400001,17.380278861000022],[121.00632038700007,17.385755566000057],[121.01313134600002,17.393422936000036],[121.01604200300005,17.39319744100004],[121.02251455600003,17.386940281000022],[121.02573384000004,17.389446448000058],[121.02966249700012,17.387753146000023],[121.0334373930001,17.388630298000066],[121.04252622700005,17.405168659000026],[121.04647769500002,17.406142131000024],[121.05482108800004,17.404086497000037],[121.0600862010001,17.406181399000047],[121.06377996000003,17.413491588000056],[121.06627847800007,17.42820911700005],[121.07040837200009,17.434468269000035],[121.0809280200001,17.441898323000032],[121.09160165000003,17.444188706000034],[121.09744956700001,17.44283130900004],[121.11942187800003,17.443904110000062],[121.13631320200011,17.440412294000055],[121.1425203760001,17.442808471000035],[121.15827714700004,17.442502520000062],[121.16422018000003,17.44544135800004],[121.16750578900007,17.44893273100007],[121.169663248,17.449031647000027],[121.1735485270001,17.444324426000037],[121.18279987200003,17.444732852000072],[121.18674280900007,17.443204311000045],[121.19428736300006,17.434716949000062],[121.20020718500007,17.431944976000068],[121.21944113200004,17.43253491200005],[121.22074722100001,17.43049460000003],[121.22079849600004,17.42251144100004],[121.23697210400007,17.441016168000033],[121.25582969300001,17.44522246200006],[121.25575889900006,17.45110636000004],[121.25985752200006,17.471733047000043],[121.26765435100003,17.488278103000027],[121.27695851300007,17.50197686200005],[121.28413288900003,17.510204421000026],[121.29462547600008,17.511914347000072],[121.29930942600004,17.51859021300004],[121.30258053700004,17.51861285600006],[121.30958642400003,17.523168268000063],[121.31461829600005,17.524595661000035],[121.3195126390001,17.531819574000053],[121.31963018700003,17.538434994000056],[121.31633791400009,17.545854553000026],[121.30087477600011,17.553718504000074],[121.29262177800001,17.572153995000065],[121.28560474300002,17.573430201000065],[121.28452739200009,17.604508],[121.29002316800006,17.617740223000055],[121.29679567900007,17.626793518000056],[121.2936428370001,17.642643702000044],[121.29874457100004,17.65610837400004]]]}},{"type":"Feature","properties":{"shapeName":"Lubuagan","shapeISO":"","shapeID":"30758251B13511507037260","shapeGroup":"PHL","shapeType":"ADM3","psgc_code":"1403206000","legacy_psgc_code":"143206000","province":"Kalinga"},"geometry":{"type":"Polygon","coordinates":[[[121.2191920460001,17.39402482400004],[121.212986827,17.393479556000045],[121.20244009600003,17.380428856000037],[121.19456592100005,17.377162691000024],[121.180382602,17.37916876500003],[121.16690307600004,17.374641731000054],[121.15486002300008,17.37515958800003],[121.14035140900012,17.37069172400004],[121.13070167300009,17.371371476000036],[121.1203271500001,17.369661535000034],[121.11460337100004,17.362717447000023],[121.11059526500003,17.34771132000003],[121.1149114430001,17.347103548000064],[121.1191883030001,17.349242739000033],[121.12893061200009,17.333778237000047],[121.14677960400002,17.344100051000055],[121.15695707600003,17.326137567000046],[121.17519577000007,17.32021934100004],[121.20624202800002,17.315960763000078],[121.20615392600007,17.318555548000063],[121.21129175700003,17.321171393000043],[121.21130619300004,17.32378277600003],[121.21496953000008,17.32846168800006],[121.21394201700002,17.33317093900007],[121.21240918900003,17.33371425300004],[121.2158942530001,17.33664296200004],[121.21474938500012,17.342318035000062],[121.2181419320001,17.34773371400007],[121.21752612000012,17.34980444400003],[121.21916323500011,17.35217703400002],[121.2179598140001,17.355185317000064],[121.2223264490001,17.357788939000045],[121.22200282900008,17.361925875000054],[121.22413891000008,17.364863295000077],[121.22762138600001,17.365698923000025],[121.233867873,17.37299110500004],[121.2367839310001,17.372410821000074],[121.2191920460001,17.39402482400004]]]}},{"type":"Feature","properties":{"shapeName":"Pasil","shapeISO":"","shapeID":"30758251B66518683632982","shapeGroup":"PHL","shapeType":"ADM3","psgc_code":"1403208000","legacy_psgc_code":"143208000","province":"Kalinga"},"geometry":{"type":"Polygon","coordinates":[[[120.9891611590001,17.392206052000063],[120.98250925200011,17.382881326000074],[120.97422982600006,17.37953454600006],[120.96337297000002,17.367742754000062],[120.95622476800008,17.340714356000035],[120.944740034,17.32207284900005],[120.93785452200007,17.315444943000045],[120.93023821500003,17.294310680000024],[120.92482817500002,17.28479105300005],[120.92709183200009,17.276336626000045],[120.92632239900001,17.273389456000075],[120.9179180430001,17.267102484000077],[120.91664448000006,17.258944531000054],[120.91223169000011,17.253670903000057],[120.91189962700003,17.24891692500006],[120.9431989420001,17.244172087000038],[120.94871022200005,17.241077373000053],[120.97571818400002,17.241355342000077],[121.00252487600005,17.265390660000037],[121.03813009800001,17.282603107000057],[121.04184142500003,17.28617076300003],[121.04618335700002,17.297708099000033],[121.08656884900006,17.30274060100004],[121.09662872800004,17.30739285800007],[121.10438660200009,17.313285284000074],[121.11034605700002,17.31931793700005],[121.11059526500003,17.34771132000003],[121.11460337100004,17.362717447000023],[121.1203271500001,17.369661535000034],[121.13070167300009,17.371371476000036],[121.14035140900012,17.37069172400004],[121.15486002300008,17.37515958800003],[121.16690307600004,17.374641731000054],[121.180382602,17.37916876500003],[121.19456592100005,17.377162691000024],[121.20244009600003,17.380428856000037],[121.212986827,17.393479556000045],[121.2191920460001,17.39402482400004],[121.22079849600004,17.42251144100004],[121.22074722100001,17.43049460000003],[121.21944113200004,17.43253491200005],[121.20020718500007,17.431944976000068],[121.19428736300006,17.434716949000062],[121.18674280900007,17.443204311000045],[121.18279987200003,17.444732852000072],[121.1735485270001,17.444324426000037],[121.169663248,17.449031647000027],[121.16750578900007,17.44893273100007],[121.16422018000003,17.44544135800004],[121.15827714700004,17.442502520000062],[121.1425203760001,17.442808471000035],[121.13631320200011,17.440412294000055],[121.11942187800003,17.443904110000062],[121.09744956700001,17.44283130900004],[121.09160165000003,17.444188706000034],[121.0809280200001,17.441898323000032],[121.07040837200009,17.434468269000035],[121.06627847800007,17.42820911700005],[121.06377996000003,17.413491588000056],[121.0600862010001,17.406181399000047],[121.05482108800004,17.404086497000037],[121.04647769500002,17.406142131000024],[121.04252622700005,17.405168659000026],[121.0334373930001,17.388630298000066],[121.02966249700012,17.387753146000023],[121.02573384000004,17.389446448000058],[121.02251455600003,17.386940281000022],[121.01604200300005,17.39319744100004],[121.01313134600002,17.393422936000036],[121.00632038700007,17.385755566000057],[121.00386949400001,17.380278861000022],[120.99977789500008,17.377822970000068],[120.99879349200012,17.38086202200003],[120.9891611590001,17.392206052000063]]]}},{"type":"Feature","properties":{"shapeName":"Pinukpuk","shapeISO":"","shapeID":"30758251B26297568532116","shapeGroup":"PHL","shapeType":"ADM3","psgc_code":"1403209000","legacy_psgc_code":"143209000","province":"Kalinga"},"geometry":{"type":"Polygon","coordinates":[[[121.25582969300001,17.44522246200006],[121.26925075400004,17.447676023000042],[121.31138194900007,17.46103964300005],[121.34019338600001,17.478693330000056],[121.34557220900001,17.472219506000044],[121.38374202200009,17.482483657000046],[121.37727782500008,17.489196934000063],[121.36977217100002,17.49348453700003],[121.39252252500012,17.50067316600007],[121.39781161000008,17.500775001000022],[121.39799707600002,17.520306468000058],[121.41135525800007,17.539397767000025],[121.43993756900011,17.543532897000034],[121.4528884130001,17.54843375400003],[121.49628646000008,17.547741881000036],[121.49661415900005,17.59104271800004],[121.49190766200002,17.609354548000056],[121.48723603600001,17.610048520000078],[121.48758995800006,17.624506232000044],[121.48884152300002,17.62598446100003],[121.484090594,17.638499731000024],[121.47618784800011,17.64545142000003],[121.48512366300008,17.647321689000023],[121.47227292500008,17.659905649000052],[121.4740407590001,17.66097971000005],[121.47338809900009,17.662269612000046],[121.47587026100007,17.663122695000027],[121.47706405600002,17.66879736800007],[121.47269773300002,17.672020574000044],[121.46647706300007,17.672358059000032],[121.46370834100003,17.669227143000057],[121.45757936200005,17.669447244000025],[121.457623968,17.66307906000003],[121.45216195600005,17.661194212000055],[121.44961295600001,17.661005241000055],[121.44633298200006,17.663998089000074],[121.44186998900011,17.664542089000065],[121.43675604700002,17.671347725000032],[121.4393278340001,17.69023258900006],[121.43655489200012,17.69322616000005],[121.4327607240001,17.690659865000043],[121.41666851800005,17.666664041000047],[121.38183713300009,17.650711586000057],[121.37117822500011,17.64169464300005],[121.34969516000001,17.652796137000053],[121.29874457100004,17.65610837400004],[121.2936428370001,17.642643702000044],[121.29679567900007,17.626793518000056],[121.29002316800006,17.617740223000055],[121.28452739200009,17.604508],[121.28560474300002,17.573430201000065],[121.29262177800001,17.572153995000065],[121.30087477600011,17.553718504000074],[121.31633791400009,17.545854553000026],[121.31963018700003,17.538434994000056],[121.3195126390001,17.531819574000053],[121.31461829600005,17.524595661000035],[121.30958642400003,17.523168268000063],[121.30258053700004,17.51861285600006],[121.29930942600004,17.51859021300004],[121.29462547600008,17.511914347000072],[121.28413288900003,17.510204421000026],[121.27695851300007,17.50197686200005],[121.26765435100003,17.488278103000027],[121.25985752200006,17.471733047000043],[121.25575889900006,17.45110636000004],[121.25582969300001,17.44522246200006]]]}},{"type":"Feature","properties":{"shapeName":"Rizal","shapeISO":"","shapeID":"30758251B32653531312940","shapeGroup":"PHL","shapeType":"ADM3","psgc_code":"1403211000","legacy_psgc_code":"143211000","province":"Kalinga"},"geometry":{"type":"Polygon","coordinates":[[[121.59347822600012,17.39691670600007],[121.60608069200009,17.42143218600006],[121.62909621500012,17.418319980000035],[121.62793480900007,17.431389672000023],[121.63792704800005,17.45354382900007],[121.64236724000011,17.468640479000044],[121.64723067800003,17.50048373000004],[121.63961454200012,17.504361036000034],[121.63324585500004,17.51925667300003],[121.63519759400003,17.521625578000055],[121.63064219800003,17.52564204500004],[121.62821918700001,17.525553668000043],[121.62597293100009,17.528587955000035],[121.63257510800008,17.533221769000022],[121.61420260300008,17.560316989000057],[121.60700935600005,17.56123643500007],[121.60549635500001,17.563004540000065],[121.60304284400002,17.563412498000048],[121.59972009100011,17.548195070000077],[121.5767341620001,17.55549054100004],[121.57497229100011,17.557070383000053],[121.57330452200006,17.564788665000037],[121.54672301300002,17.580621351000048],[121.53392325200002,17.584324932000072],[121.52581727300003,17.583678302000067],[121.51407593600004,17.590183152000066],[121.49661415900005,17.59104271800004],[121.49628646000008,17.547741881000036],[121.52462919800007,17.500303312000028],[121.55793597800005,17.47337266900007],[121.56215219100011,17.43772765700004],[121.59347822600012,17.39691670600007]]]}},{"type":"Feature","properties":{"shapeName":"City of Tabuk","shapeISO":"","shapeID":"30758251B17662801564014","shapeGroup":"PHL","shapeType":"ADM3","psgc_code":"1403213000","legacy_psgc_code":"143213000","province":"Kalinga"},"geometry":{"type":"Polygon","coordinates":[[[121.22079849600004,17.42251144100004],[121.2191920460001,17.39402482400004],[121.2367839310001,17.372410821000074],[121.24105696400011,17.37274275900006],[121.25245654800005,17.38207718900003],[121.26101711800004,17.381832504000045],[121.2650727250001,17.379417070000045],[121.26645854600008,17.375646689000064],[121.26841123000008,17.375564387000054],[121.27241843500008,17.370460340000022],[121.27515479500005,17.369874666000044],[121.27840695200007,17.364856305000046],[121.2782960610001,17.35872149900007],[121.29037251800003,17.354985640000052],[121.2976201030001,17.355531256000063],[121.30029029200011,17.349238005000075],[121.31075086500005,17.34622125800007],[121.32093740000005,17.341606280000065],[121.32284253700004,17.33947333800006],[121.3287916480001,17.340077321000024],[121.33664592200012,17.345490924000046],[121.34396775900007,17.344525755000063],[121.35210254700007,17.34880756800004],[121.36061868600007,17.35683548800006],[121.36376442500011,17.353120389000026],[121.37180269700002,17.351975561000074],[121.37383636000004,17.352897348000056],[121.3736589350001,17.347935952000057],[121.37511307400007,17.347062702000073],[121.38359356100011,17.350731921000033],[121.38415931400004,17.348453300000074],[121.38726088300007,17.348465574000045],[121.3873105560001,17.345123777000026],[121.39416264800002,17.34643505500003],[121.39763368000001,17.336491650000028],[121.39424886600011,17.333448373000067],[121.39426208500004,17.330849408000063],[121.39685661200008,17.33144892100006],[121.39845573900004,17.329339653000034],[121.40112996100004,17.33054058700003],[121.40268318900007,17.32841090100004],[121.40059178100012,17.326091534000057],[121.40214579500002,17.324042818000066],[121.40008718500007,17.31867770200006],[121.40241643600007,17.31741832800003],[121.4010189500001,17.314271974000064],[121.40307897600007,17.313360944000067],[121.40126433500006,17.311746753000023],[121.40170638200004,17.307391214000063],[121.3971145810001,17.30535274400006],[121.39196703700009,17.29900979400003],[121.38303031400005,17.294199692000063],[121.3883831070001,17.29110433900007],[121.38908908600001,17.28775536200004],[121.39625865000005,17.28396844100007],[121.39952388900008,17.280469270000026],[121.40699469800006,17.28563258300005],[121.40920222200009,17.283438471000068],[121.40915394100011,17.28630315600003],[121.41173698600005,17.28667062900007],[121.4126248230001,17.28924562700007],[121.41261677600005,17.285603078000065],[121.41383721800003,17.284717923000073],[121.4184185680001,17.287046150000037],[121.422435156,17.285718124000027],[121.4267233060001,17.28804137800006],[121.48520755900006,17.293315748000055],[121.48795111800007,17.289133804000073],[121.497765393,17.289696263000053],[121.49990185200011,17.29156572900007],[121.50181699900008,17.290872016000037],[121.50590952400012,17.28656069400006],[121.50438581800006,17.284162621000064],[121.50551322800004,17.280254004000028],[121.51127592800003,17.28224937600004],[121.51111768300007,17.276563337000027],[121.51496460100009,17.278042396000046],[121.52388054100004,17.27405999900003],[121.52537136700005,17.271746904000054],[121.52746825400004,17.273091218000047],[121.52712480200012,17.27003232800007],[121.53067411800009,17.268171379000023],[121.53451524700006,17.26951245300006],[121.53017478800007,17.274919214000022],[121.53321700200001,17.296518934000062],[121.5387001150001,17.317268562000038],[121.54836106200003,17.32394977100006],[121.55993127700003,17.35048310800005],[121.58219454800007,17.353559068000038],[121.59347822600012,17.39691670600007],[121.56215219100011,17.43772765700004],[121.55793597800005,17.47337266900007],[121.52462919800007,17.500303312000028],[121.49628646000008,17.547741881000036],[121.4528884130001,17.54843375400003],[121.43993756900011,17.543532897000034],[121.41135525800007,17.539397767000025],[121.39799707600002,17.520306468000058],[121.39781161000008,17.500775001000022],[121.39252252500012,17.50067316600007],[121.36977217100002,17.49348453700003],[121.37727782500008,17.489196934000063],[121.38374202200009,17.482483657000046],[121.34557220900001,17.472219506000044],[121.34019338600001,17.478693330000056],[121.31138194900007,17.46103964300005],[121.26925075400004,17.447676023000042],[121.25582969300001,17.44522246200006],[121.23697210400007,17.441016168000033],[121.22079849600004,17.42251144100004]]]}},{"type":"Feature","properties":{"shapeName":"Tanudan","shapeISO":"","shapeID":"30758251B98776308730929","shapeGroup":"PHL","shapeType":"ADM3","psgc_code":"1403214000","legacy_psgc_code":"143214000","province":"Kalinga"},"geometry":{"type":"Polygon","coordinates":[[[121.2367839310001,17.372410821000074],[121.233867873,17.37299110500004],[121.22762138600001,17.365698923000025],[121.22413891000008,17.364863295000077],[121.22200282900008,17.361925875000054],[121.2223264490001,17.357788939000045],[121.2179598140001,17.355185317000064],[121.21916323500011,17.35217703400002],[121.21752612000012,17.34980444400003],[121.2181419320001,17.34773371400007],[121.21474938500012,17.342318035000062],[121.2158942530001,17.33664296200004],[121.21240918900003,17.33371425300004],[121.21394201700002,17.33317093900007],[121.21496953000008,17.32846168800006],[121.21130619300004,17.32378277600003],[121.21129175700003,17.321171393000043],[121.20615392600007,17.318555548000063],[121.20624202800002,17.315960763000078],[121.2004672810001,17.310821675000057],[121.20074673900001,17.306040800000062],[121.19706862700002,17.297199757000044],[121.19191369100008,17.29617211900006],[121.18810350700005,17.290698332000034],[121.18592298400006,17.28237291000005],[121.18732052700011,17.279059278000034],[121.18347045400003,17.27337344400007],[121.18368423200002,17.268995750000045],[121.1825521830001,17.269166573000064],[121.18364821000011,17.26423699000003],[121.18286527200007,17.254740628000036],[121.1797805860001,17.252921720000074],[121.17438077200006,17.252919989000077],[121.17333867000002,17.247304520000057],[121.16983599700006,17.244051033000062],[121.16897000300003,17.24092438300005],[121.16229083700011,17.238702665000062],[121.16082882600006,17.233043042000077],[121.16300429800003,17.229222401000072],[121.16153640000005,17.22768241700004],[121.16166878600006,17.22411751800007],[121.16405527400002,17.217147586000067],[121.15765646700004,17.211831967000023],[121.15679821600008,17.20390502300006],[121.14801352800009,17.194113323000067],[121.15269985400005,17.187612614000045],[121.15751671600003,17.18596463600005],[121.15958115500007,17.17980041000004],[121.16559976400004,17.17688923700007],[121.17055808100008,17.170107307000023],[121.18000035600005,17.172262232000037],[121.18519217200003,17.170837624000058],[121.19969630500009,17.174169696000035],[121.2147677590001,17.18103680300004],[121.22601545100008,17.182766731000072],[121.24229936800009,17.189325601000064],[121.24823630000003,17.193514290000053],[121.25502036400007,17.204310831000043],[121.25722663900001,17.210712632000025],[121.25745876300005,17.221263546000046],[121.26042045200006,17.227466824000032],[121.26769990800005,17.227629816000047],[121.27378764200012,17.230986161000033],[121.28604287100006,17.231520017000037],[121.28900804600005,17.236103799000034],[121.28822452800011,17.241259126000045],[121.28932487100008,17.243460871000025],[121.292611641,17.244221853000056],[121.30338306800002,17.241337970000075],[121.31843397800003,17.23113432200006],[121.3272070060001,17.231242765000047],[121.3304206140001,17.235203799000033],[121.33541718600009,17.236227177000046],[121.33832201000007,17.23883058100006],[121.34117332000005,17.24512194600004],[121.34568145000003,17.246198363000076],[121.34733299200002,17.24841142400004],[121.35181509000006,17.247008727000036],[121.35766726300005,17.251877859000047],[121.36494052800003,17.254438967000056],[121.36785152100003,17.258673174000023],[121.37190790800003,17.25977441300006],[121.37603321800009,17.257487758000025],[121.38080157700006,17.26143920800007],[121.38400937600011,17.26193440800006],[121.395221536,17.27139790700005],[121.39521127000012,17.273586167000076],[121.39952388900008,17.280469270000026],[121.39625865000005,17.28396844100007],[121.38908908600001,17.28775536200004],[121.3883831070001,17.29110433900007],[121.38303031400005,17.294199692000063],[121.39196703700009,17.29900979400003],[121.3971145810001,17.30535274400006],[121.40170638200004,17.307391214000063],[121.40126433500006,17.311746753000023],[121.40307897600007,17.313360944000067],[121.4010189500001,17.314271974000064],[121.40241643600007,17.31741832800003],[121.40008718500007,17.31867770200006],[121.40214579500002,17.324042818000066],[121.40059178100012,17.326091534000057],[121.40268318900007,17.32841090100004],[121.40112996100004,17.33054058700003],[121.39845573900004,17.329339653000034],[121.39685661200008,17.33144892100006],[121.39426208500004,17.330849408000063],[121.39424886600011,17.333448373000067],[121.39763368000001,17.336491650000028],[121.39416264800002,17.34643505500003],[121.3873105560001,17.345123777000026],[121.38726088300007,17.348465574000045],[121.38415931400004,17.348453300000074],[121.38359356100011,17.350731921000033],[121.37511307400007,17.347062702000073],[121.3736589350001,17.347935952000057],[121.37383636000004,17.352897348000056],[121.37180269700002,17.351975561000074],[121.36376442500011,17.353120389000026],[121.36061868600007,17.35683548800006],[121.35210254700007,17.34880756800004],[121.34396775900007,17.344525755000063],[121.33664592200012,17.345490924000046],[121.3287916480001,17.340077321000024],[121.32284253700004,17.33947333800006],[121.32093740000005,17.341606280000065],[121.31075086500005,17.34622125800007],[121.30029029200011,17.349238005000075],[121.2976201030001,17.355531256000063],[121.29037251800003,17.354985640000052],[121.2782960610001,17.35872149900007],[121.27840695200007,17.364856305000046],[121.27515479500005,17.369874666000044],[121.27241843500008,17.370460340000022],[121.26841123000008,17.375564387000054],[121.26645854600008,17.375646689000064],[121.2650727250001,17.379417070000045],[121.26101711800004,17.381832504000045],[121.25245654800005,17.38207718900003],[121.24105696400011,17.37274275900006],[121.2367839310001,17.372410821000074]]]}},{"type":"Feature","properties":{"shapeName":"Tinglayan","shapeISO":"","shapeID":"30758251B33701077243030","shapeGroup":"PHL","shapeType":"ADM3","psgc_code":"1403215000","legacy_psgc_code":"143215000","province":"Kalinga"},"geometry":{"type":"Polygon","coordinates":[[[121.15978903100006,17.169494195000027],[121.17055808100008,17.170107307000023],[121.16559976400004,17.17688923700007],[121.15958115500007,17.17980041000004],[121.15751671600003,17.18596463600005],[121.15269985400005,17.187612614000045],[121.14801352800009,17.194113323000067],[121.15679821600008,17.20390502300006],[121.15765646700004,17.211831967000023],[121.16405527400002,17.217147586000067],[121.16166878600006,17.22411751800007],[121.16153640000005,17.22768241700004],[121.16300429800003,17.229222401000072],[121.16082882600006,17.233043042000077],[121.16229083700011,17.238702665000062],[121.16897000300003,17.24092438300005],[121.16983599700006,17.244051033000062],[121.17333867000002,17.247304520000057],[121.17438077200006,17.252919989000077],[121.1797805860001,17.252921720000074],[121.18286527200007,17.254740628000036],[121.18364821000011,17.26423699000003],[121.1825521830001,17.269166573000064],[121.18368423200002,17.268995750000045],[121.18347045400003,17.27337344400007],[121.18732052700011,17.279059278000034],[121.18592298400006,17.28237291000005],[121.18810350700005,17.290698332000034],[121.19191369100008,17.29617211900006],[121.19706862700002,17.297199757000044],[121.20074673900001,17.306040800000062],[121.2004672810001,17.310821675000057],[121.20624202800002,17.315960763000078],[121.17519577000007,17.32021934100004],[121.15695707600003,17.326137567000046],[121.14677960400002,17.344100051000055],[121.12893061200009,17.333778237000047],[121.1191883030001,17.349242739000033],[121.1149114430001,17.347103548000064],[121.11059526500003,17.34771132000003],[121.11034605700002,17.31931793700005],[121.10438660200009,17.313285284000074],[121.09662872800004,17.30739285800007],[121.08656884900006,17.30274060100004],[121.04618335700002,17.297708099000033],[121.04184142500003,17.28617076300003],[121.03813009800001,17.282603107000057],[121.00252487600005,17.265390660000037],[120.97571818400002,17.241355342000077],[121.03021587,17.23974410200003],[121.05369300400002,17.23101964500006],[121.06882539600008,17.22944478000005],[121.08333979800011,17.216087337000033],[121.08662453900001,17.19899657900004],[121.10040385600007,17.186487388000046],[121.11592732600002,17.177645578000067],[121.15978903100006,17.169494195000027]]]}}]}
