{"type":"FeatureCollection","source":{"dataset":"geoBoundaries gbOpen PHL ADM3","commit":"9469f09","license":"CC BY 3.0 IGO","boundary_year":2020,"url":"https://media.githubusercontent.com/media/wmgeolab/geoBoundaries/9469f09/releaseData/gbOpen/PHL/ADM3/geoBoundaries-PHL-ADM3_simplified.geojson","upstream_sources":["NAMRIA","PSA","OCHA Philippines"],"reference":"https://ulap-nga.georisk.gov.ph/arcgis/rest/services/PSA/Municipal/MapServer/0","notice":"Approximate planning/reference boundaries, not legal, cadastral, or survey-grade."},"features":[{"type":"Feature","properties":{"shapeName":"Agoo","shapeISO":"","shapeID":"30758251B44987687400589","shapeGroup":"PHL","shapeType":"ADM3","psgc_code":"0103301000","legacy_psgc_code":"013301000","province":"La Union"},"geometry":{"type":"Polygon","coordinates":[[[120.3703294280001,16.36292310300007],[120.33669035900004,16.35860384500006],[120.33311547400001,16.359743266000066],[120.3361393020001,16.353600375000042],[120.34251333500004,16.347996369000043],[120.34395186300003,16.344707258000028],[120.33933138000009,16.315270604000034],[120.33970325400003,16.30732825800004],[120.34741308000002,16.284092289000057],[120.3624735300001,16.294495280000035],[120.37206055700005,16.297965043000033],[120.3797443200001,16.29859746900007],[120.38175881900008,16.300043712000047],[120.3944948510001,16.298383212000033],[120.42057980200002,16.30380339100003],[120.41912048800009,16.312194444000056],[120.41631108400009,16.314748243000054],[120.40782970100008,16.316559763000043],[120.40131990200007,16.315457769000034],[120.40152097000009,16.330403626000077],[120.39595725200002,16.353833080000072],[120.3907242780001,16.356527910000068],[120.38620193500003,16.356919437000045],[120.380864459,16.360457626000027],[120.3703294280001,16.36292310300007]]]}},{"type":"Feature","properties":{"shapeName":"Aringay","shapeISO":"","shapeID":"30758251B96546251931007","shapeGroup":"PHL","shapeType":"ADM3","psgc_code":"0103302000","legacy_psgc_code":"013302000","province":"La Union"},"geometry":{"type":"Polygon","coordinates":[[[120.3703294280001,16.36292310300007],[120.38314120100006,16.36837809700006],[120.4018777440001,16.368217610000045],[120.39964344900011,16.37424950600007],[120.39973830100007,16.382074810000063],[120.399972036,16.383968029000073],[120.40352991000009,16.385576112000024],[120.4194327460001,16.386015160000056],[120.42885183700002,16.383474626000066],[120.4302760170001,16.380312463000053],[120.43246621900005,16.37926475200004],[120.44067977400005,16.382122862000074],[120.44461437400003,16.38612987700003],[120.44488429500007,16.387569282000072],[120.4490343970001,16.38875502600007],[120.44789806000006,16.392411068000058],[120.4538224800001,16.396986618000028],[120.45525300200006,16.404883097000038],[120.45027478700001,16.406199177000076],[120.45016034500009,16.40860245400006],[120.45330749300001,16.407515257000057],[120.45895805300006,16.416684901000053],[120.46745535200012,16.41874485200003],[120.46668338800009,16.42375183100006],[120.46996988700005,16.424879316000045],[120.46889437800007,16.43262661800003],[120.47233806600002,16.451502042000072],[120.47311491200003,16.472720889000072],[120.47172054100008,16.47964626600003],[120.46180209800002,16.483888837000052],[120.45486492100008,16.484041723000075],[120.45461648300011,16.486430558000052],[120.4508947920001,16.486896870000066],[120.45244973100012,16.480712594000067],[120.45208244300011,16.474712344000068],[120.44196944900011,16.464210388000026],[120.42619161800008,16.456282405000024],[120.42621052700008,16.44936385500006],[120.43139860400004,16.435863982000058],[120.40581567200002,16.42208657200007],[120.37949460700008,16.415212368000027],[120.3331792140001,16.415217407000057],[120.32015060200001,16.38639164800003],[120.3217489320001,16.38110264000005],[120.32278030000009,16.38209319300006],[120.32628379200003,16.37765814000005],[120.3288606540001,16.378340646000026],[120.33017748500004,16.37700978500004],[120.3325962770001,16.371695571000032],[120.3312821500001,16.370063935000076],[120.33311547400001,16.359743266000066],[120.33669035900004,16.35860384500006],[120.3703294280001,16.36292310300007]]]}},{"type":"Feature","properties":{"shapeName":"Bacnotan","shapeISO":"","shapeID":"30758251B79119480748241","shapeGroup":"PHL","shapeType":"ADM3","psgc_code":"0103303000","legacy_psgc_code":"013303000","province":"La Union"},"geometry":{"type":"Polygon","coordinates":[[[120.4274574420001,16.764202273000024],[120.4025431550001,16.767923513000028],[120.39025411400007,16.783191963000036],[120.37856500200007,16.78598790700005],[120.34753102600007,16.79117423200006],[120.32987167100009,16.78333428700006],[120.33179707400006,16.774865324000075],[120.33107826100002,16.769185639000057],[120.33189729600008,16.770600088000037],[120.33507813500012,16.764471896000032],[120.33316703700007,16.762097303000075],[120.33487084300009,16.76358979300005],[120.33682676400008,16.76010407900003],[120.33516686900009,16.751998498000034],[120.33672479800009,16.74894075900005],[120.3345704080001,16.74243460100007],[120.33536053500006,16.74044843100006],[120.33981914900005,16.739847712000028],[120.34125422200009,16.73474409000005],[120.340714982,16.72331906900007],[120.33623717900002,16.713785908000034],[120.33752699000001,16.70882505000003],[120.33590881900011,16.70058480800003],[120.34342165100009,16.698542045000067],[120.357963906,16.699306421000074],[120.36270298800002,16.700862293000057],[120.37195613300003,16.698318829000073],[120.37410691500008,16.700028728000063],[120.38211613800001,16.69918273600007],[120.38726593700005,16.701156024000056],[120.39056277100008,16.700626605000025],[120.3937633480001,16.702648022000062],[120.40560523800002,16.704251229000022],[120.40518465600007,16.707803933000037],[120.40906482900004,16.72411309900002],[120.41598349600008,16.733477468000046],[120.4274574420001,16.764202273000024]]]}},{"type":"Feature","properties":{"shapeName":"Bagulin","shapeISO":"","shapeID":"30758251B85285313745351","shapeGroup":"PHL","shapeType":"ADM3","psgc_code":"0103304000","legacy_psgc_code":"013304000","province":"La Union"},"geometry":{"type":"Polygon","coordinates":[[[120.54121983300001,16.638014294000072],[120.52244250700005,16.642017010000075],[120.51871587900007,16.647287738000045],[120.51417776900007,16.642739653000035],[120.50935667200008,16.642426595000074],[120.5063669650001,16.639640376000045],[120.50135803300009,16.63973429400005],[120.49829006200002,16.64200396600006],[120.48817828100005,16.64200396600006],[120.47678296000004,16.648609495000073],[120.47457589900011,16.643287505000046],[120.47247840900002,16.641910049000046],[120.46670248400005,16.64111175000005],[120.45859427500011,16.64407015100005],[120.45122175300003,16.642426595000074],[120.44219002200009,16.64976781100006],[120.43912205100003,16.654635867000025],[120.43301741500011,16.655747224000038],[120.43081035500006,16.659363046000067],[120.4285737030001,16.65861865000005],[120.42783403500005,16.654428320000022],[120.42301483200004,16.64944984400006],[120.42579534000004,16.645768409000027],[120.4252190950001,16.643540182000038],[120.42381469100008,16.64349625400007],[120.42571459100009,16.64108312600007],[120.42463623300011,16.631560681000053],[120.41968310000004,16.628407856000024],[120.421261576,16.613236710000024],[120.41054064500008,16.61730516600005],[120.40757442600011,16.602605351000022],[120.42312240600006,16.602319409000074],[120.44028421100006,16.59388296900005],[120.44367991900003,16.58260566200005],[120.44832990300006,16.578102838000063],[120.45000390300004,16.563754261000042],[120.45255476200009,16.56000768800004],[120.46084513900007,16.55863871500003],[120.47692858900007,16.56167085000004],[120.48296165300007,16.567068977000076],[120.49596944500001,16.566081741000062],[120.50349382400009,16.563102514000036],[120.50904324500004,16.565410194000037],[120.50976668400006,16.56950052600007],[120.51203773400005,16.571698316000038],[120.51785667800004,16.594691728000043],[120.54121983300001,16.638014294000072]]]}},{"type":"Feature","properties":{"shapeName":"Balaoan","shapeISO":"","shapeID":"30758251B45278202455383","shapeGroup":"PHL","shapeType":"ADM3","psgc_code":"0103305000","legacy_psgc_code":"013305000","province":"La Union"},"geometry":{"type":"Polygon","coordinates":[[[120.32984921900004,16.783422243000075],[120.32987167100009,16.78333428700006],[120.34753102600007,16.79117423200006],[120.37856500200007,16.78598790700005],[120.39025411400007,16.783191963000036],[120.4025431550001,16.767923513000028],[120.4274574420001,16.764202273000024],[120.42847860400002,16.768890468000052],[120.43902423700001,16.78553484100007],[120.442815171,16.798403637000035],[120.44058956300012,16.800139611000077],[120.44126466400007,16.80299580800005],[120.44584199700012,16.80658645500006],[120.44522624600006,16.81032547600006],[120.44279291500004,16.80756572200005],[120.44122757100001,16.808552408000025],[120.44070826200004,16.812491734000048],[120.44524934200001,16.82209221100004],[120.4467874400001,16.825322155000038],[120.44428969000012,16.83161853400003],[120.44532690000005,16.837064359000067],[120.45114068900011,16.846128416000056],[120.44082519900007,16.847991316000048],[120.439075075,16.842999993000035],[120.4357824010001,16.843001620000052],[120.42507533700007,16.84434219600007],[120.42364397300003,16.842046382000035],[120.41349168600004,16.84932968800007],[120.41019041900006,16.84440529400007],[120.40726010500009,16.83523026100005],[120.40288413600001,16.836023941000064],[120.3969632940001,16.842216699000062],[120.393359529,16.832116722000023],[120.39177284100003,16.830538922000073],[120.3875327830001,16.831663382000045],[120.38435619400002,16.824398552000048],[120.36413804600011,16.801588028000026],[120.35421886300003,16.801054259000068],[120.33962736700005,16.809964438000065],[120.34080851400006,16.813333321000073],[120.33388554300006,16.819232526000064],[120.33013903000005,16.818623528000046],[120.32754094200004,16.81419291000003],[120.32949762800001,16.810024312000053],[120.3292216750001,16.80631958200007],[120.32509651600003,16.800347702000067],[120.32871156200008,16.796104397000022],[120.32978155400008,16.78361217400004],[120.32984921900004,16.783422243000075]]]}},{"type":"Feature","properties":{"shapeName":"Bangar","shapeISO":"","shapeID":"30758251B10509197504559","shapeGroup":"PHL","shapeType":"ADM3","psgc_code":"0103306000","legacy_psgc_code":"013306000","province":"La Union"},"geometry":{"type":"Polygon","coordinates":[[[120.45114068900011,16.846128416000056],[120.4647637060001,16.865636448000032],[120.4635007390001,16.874456851000048],[120.45676506200004,16.88129952500003],[120.45460928300008,16.885578278000025],[120.45287178600006,16.894610509000074],[120.45411660000002,16.908505391000062],[120.4453053630001,16.907241984000052],[120.43577346200004,16.900497252000036],[120.43142940000007,16.900243077000027],[120.42560699500007,16.902960199000063],[120.42117909100011,16.90695681400007],[120.41732624000008,16.91218979100006],[120.41643490900003,16.916157652000038],[120.41079750900008,16.920904919000066],[120.40062004100002,16.902278375000037],[120.40204507400006,16.899755019000054],[120.4012181820001,16.895616080000025],[120.40243842600012,16.890765315000067],[120.40138161000004,16.88486842700007],[120.39860281900008,16.880314500000054],[120.41444037500003,16.865693049000072],[120.420256246,16.854363396000053],[120.43106234600009,16.850112780000075],[120.4357824010001,16.843001620000052],[120.439075075,16.842999993000035],[120.44082519900007,16.847991316000048],[120.45114068900011,16.846128416000056]]]}},{"type":"Feature","properties":{"shapeName":"Bauang","shapeISO":"","shapeID":"30758251B39876538190612","shapeGroup":"PHL","shapeType":"ADM3","psgc_code":"0103307000","legacy_psgc_code":"013307000","province":"La Union"},"geometry":{"type":"Polygon","coordinates":[[[120.36862686400002,16.561095788000046],[120.34418316900008,16.570347474000073],[120.33069924000006,16.569797445000063],[120.328106692,16.574675107000076],[120.32324846000006,16.573696854000048],[120.3193287250001,16.57617472800007],[120.3208118980001,16.567663981000067],[120.31868879000001,16.55394178100005],[120.31887288900009,16.543244817000073],[120.31561589300009,16.53347240200003],[120.31011586400007,16.525668325000026],[120.30868201500004,16.52028715600005],[120.30493775100001,16.518909441000062],[120.30489920600007,16.516598481000074],[120.30515661700008,16.51882881100005],[120.30696716600005,16.515552353000032],[120.30402566600003,16.50121718500003],[120.30692264400011,16.494287615000076],[120.31170999400001,16.492216880000058],[120.31604730200002,16.492566027000066],[120.3157554390001,16.493562544000042],[120.3191009520001,16.491950015000043],[120.3209528220001,16.48838494000006],[120.32344363300001,16.487107688000037],[120.32499936700003,16.480565132000038],[120.32699960500008,16.479727194000077],[120.32906213600006,16.473182988000076],[120.33125802900008,16.45913379900003],[120.3445747180001,16.462177074000067],[120.3858964100001,16.463507181000068],[120.383881,16.490640753000037],[120.38057634200004,16.50945908800003],[120.3786044950001,16.516885325000032],[120.37527631800003,16.52078065300003],[120.36690241800011,16.551259707000042],[120.36862686400002,16.561095788000046]]]}},{"type":"Feature","properties":{"shapeName":"Burgos","shapeISO":"","shapeID":"30758251B56891504947345","shapeGroup":"PHL","shapeType":"ADM3","psgc_code":"0103308000","legacy_psgc_code":"013308000","province":"La Union"},"geometry":{"type":"Polygon","coordinates":[[[120.47172054100008,16.47964626600003],[120.4712448900001,16.48761033100004],[120.4673463900001,16.502706239000076],[120.46914610300007,16.50847851800006],[120.47904665800002,16.522822865000023],[120.47820839000008,16.52999621600003],[120.48809029900008,16.540866315000073],[120.51263136200009,16.550257849000047],[120.51635794300012,16.558020404000047],[120.5133821280001,16.56226312000007],[120.51708050200011,16.568623203000072],[120.5159224250001,16.571051429000022],[120.51203773400005,16.571698316000038],[120.50976668400006,16.56950052600007],[120.50904324500004,16.565410194000037],[120.50349382400009,16.563102514000036],[120.49596944500001,16.566081741000062],[120.48296165300007,16.567068977000076],[120.47692858900007,16.56167085000004],[120.46084513900007,16.55863871500003],[120.45255476200009,16.56000768800004],[120.44968947500001,16.55216616200005],[120.45004139900004,16.54734368800007],[120.44651890500006,16.547740453000074],[120.44766987000003,16.542409720000023],[120.44437575300003,16.537633250000056],[120.44921810500011,16.535920309000062],[120.44312398800002,16.53354854500003],[120.44473810600005,16.531012074000046],[120.44865767400006,16.53216522400004],[120.44918049600005,16.530808715000035],[120.44706095100003,16.528915255000072],[120.44463928200003,16.52906854500003],[120.44249810600002,16.52623560400002],[120.43933575300002,16.528080310000064],[120.43898226200008,16.523375015000056],[120.44112516500002,16.523297091000074],[120.44252021700004,16.520407419000037],[120.43949850700005,16.52142908600007],[120.43835562600009,16.520216939000022],[120.44224423700007,16.51584888000002],[120.44205643300006,16.510042897000062],[120.43852196500006,16.508218371000055],[120.44057061,16.50503413000007],[120.443901879,16.50638642800004],[120.44150993400001,16.50365709500005],[120.44151884400003,16.501365925000073],[120.44456699200009,16.501983272000075],[120.44618752600002,16.491237586000068],[120.44923567400008,16.490022186000033],[120.4508947920001,16.486896870000066],[120.45461648300011,16.486430558000052],[120.45486492100008,16.484041723000075],[120.46180209800002,16.483888837000052],[120.47172054100008,16.47964626600003]]]}},{"type":"Feature","properties":{"shapeName":"Caba","shapeISO":"","shapeID":"30758251B6644033388737","shapeGroup":"PHL","shapeType":"ADM3","psgc_code":"0103309000","legacy_psgc_code":"013309000","province":"La Union"},"geometry":{"type":"Polygon","coordinates":[[[120.42619161800008,16.456282405000024],[120.39994854500003,16.46006961200004],[120.39613112000006,16.463280530000077],[120.3953462290001,16.462317255000073],[120.3858964100001,16.463507181000068],[120.3445747180001,16.462177074000067],[120.33125802900008,16.45913379900003],[120.33466217300008,16.43387845600006],[120.3331792140001,16.415217407000057],[120.37949460700008,16.415212368000027],[120.40581567200002,16.42208657200007],[120.43139860400004,16.435863982000058],[120.42621052700008,16.44936385500006],[120.42619161800008,16.456282405000024]]]}},{"type":"Feature","properties":{"shapeName":"City of San Fernando","shapeISO":"","shapeID":"30758251B73043571821095","shapeGroup":"PHL","shapeType":"ADM3","psgc_code":"0103314000","legacy_psgc_code":"013314000","province":"La Union"},"geometry":{"type":"Polygon","coordinates":[[[120.42381469100008,16.64349625400007],[120.40381424800012,16.644174381000028],[120.3988546700001,16.643088074000048],[120.38425363100009,16.64513039600007],[120.37093702800007,16.64390873700006],[120.36115199300002,16.645365880000043],[120.34163815200009,16.64429497200007],[120.33560423000006,16.647835271000076],[120.33456959300008,16.652289025000073],[120.32618911800012,16.651756512000077],[120.31782245200009,16.65401266600003],[120.3106295660001,16.64878074300003],[120.30755536700008,16.64405884400003],[120.307269689,16.638558239000076],[120.31098209400011,16.63261020400006],[120.31516918400007,16.631300476000035],[120.31644362700001,16.628813752000042],[120.31523748500001,16.622092934000023],[120.30821443000002,16.61267800400003],[120.30140217600001,16.609602221000046],[120.2990616400001,16.609725807000075],[120.29887930400002,16.61153352200006],[120.29886298400004,16.609517878000077],[120.29727311500005,16.60939683500004],[120.29702115000009,16.611229179000077],[120.29646599900002,16.609159787000067],[120.29539310500002,16.611614467000038],[120.29470418100004,16.609512556000027],[120.2917838520001,16.61205261500004],[120.29146727300008,16.617804876000037],[120.28291126400006,16.625183763000052],[120.27942824700006,16.624484452000047],[120.2778754840001,16.618466640000065],[120.27988554100011,16.614927344000023],[120.28456524300009,16.611262471000032],[120.28668413200012,16.60660504300006],[120.28951342800008,16.605318518000047],[120.29412845400009,16.606686153000055],[120.29926793900006,16.602565480000067],[120.30157114000008,16.593323079000072],[120.29930241000011,16.58536560600004],[120.30004054000005,16.582525373000067],[120.30762962800009,16.579668268000034],[120.30816075100006,16.581480132000024],[120.31140404000007,16.58220011700007],[120.3193287250001,16.57617472800007],[120.32324846000006,16.573696854000048],[120.328106692,16.574675107000076],[120.33069924000006,16.569797445000063],[120.34418316900008,16.570347474000073],[120.36862686400002,16.561095788000046],[120.39017919100002,16.562903809000034],[120.39475422700002,16.567022481000038],[120.40294977500002,16.580526706000057],[120.40412079400005,16.587469175000024],[120.40606226300008,16.589507323000078],[120.40757442600011,16.602605351000022],[120.41054064500008,16.61730516600005],[120.421261576,16.613236710000024],[120.41968310000004,16.628407856000024],[120.42463623300011,16.631560681000053],[120.42571459100009,16.64108312600007],[120.42381469100008,16.64349625400007]]]}},{"type":"Feature","properties":{"shapeName":"Luna","shapeISO":"","shapeID":"30758251B16717842706250","shapeGroup":"PHL","shapeType":"ADM3","psgc_code":"0103310000","legacy_psgc_code":"013310000","province":"La Union"},"geometry":{"type":"Polygon","coordinates":[[[120.4357824010001,16.843001620000052],[120.43106234600009,16.850112780000075],[120.420256246,16.854363396000053],[120.41444037500003,16.865693049000072],[120.39860281900008,16.880314500000054],[120.37299283400012,16.857335412000054],[120.35991549900007,16.85042024100005],[120.347168656,16.84716628500007],[120.33811901000001,16.840351836000025],[120.33214938200001,16.82959040800006],[120.33317273000011,16.82315724800003],[120.33506497600001,16.82165725300007],[120.33388554300006,16.819232526000064],[120.34080851400006,16.813333321000073],[120.33962736700005,16.809964438000065],[120.35421886300003,16.801054259000068],[120.36413804600011,16.801588028000026],[120.38435619400002,16.824398552000048],[120.3875327830001,16.831663382000045],[120.39177284100003,16.830538922000073],[120.393359529,16.832116722000023],[120.3969632940001,16.842216699000062],[120.40288413600001,16.836023941000064],[120.40726010500009,16.83523026100005],[120.41019041900006,16.84440529400007],[120.41349168600004,16.84932968800007],[120.42364397300003,16.842046382000035],[120.42507533700007,16.84434219600007],[120.4357824010001,16.843001620000052]]]}},{"type":"Feature","properties":{"shapeName":"Naguilian","shapeISO":"","shapeID":"30758251B47724455039703","shapeGroup":"PHL","shapeType":"ADM3","psgc_code":"0103311000","legacy_psgc_code":"013311000","province":"La Union"},"geometry":{"type":"Polygon","coordinates":[[[120.4508947920001,16.486896870000066],[120.44923567400008,16.490022186000033],[120.44618752600002,16.491237586000068],[120.44456699200009,16.501983272000075],[120.44151884400003,16.501365925000073],[120.44150993400001,16.50365709500005],[120.443901879,16.50638642800004],[120.44057061,16.50503413000007],[120.43852196500006,16.508218371000055],[120.44205643300006,16.510042897000062],[120.44224423700007,16.51584888000002],[120.43835562600009,16.520216939000022],[120.43949850700005,16.52142908600007],[120.44252021700004,16.520407419000037],[120.44112516500002,16.523297091000074],[120.43898226200008,16.523375015000056],[120.43933575300002,16.528080310000064],[120.44249810600002,16.52623560400002],[120.44463928200003,16.52906854500003],[120.44706095100003,16.528915255000072],[120.44918049600005,16.530808715000035],[120.44865767400006,16.53216522400004],[120.44473810600005,16.531012074000046],[120.44312398800002,16.53354854500003],[120.44921810500011,16.535920309000062],[120.44437575300003,16.537633250000056],[120.44766987000003,16.542409720000023],[120.44651890500006,16.547740453000074],[120.45004139900004,16.54734368800007],[120.44968947500001,16.55216616200005],[120.45255476200009,16.56000768800004],[120.45000390300004,16.563754261000042],[120.44832990300006,16.578102838000063],[120.44367991900003,16.58260566200005],[120.44028421100006,16.59388296900005],[120.42312240600006,16.602319409000074],[120.40757442600011,16.602605351000022],[120.40606226300008,16.589507323000078],[120.40412079400005,16.587469175000024],[120.40294977500002,16.580526706000057],[120.39475422700002,16.567022481000038],[120.39017919100002,16.562903809000034],[120.36862686400002,16.561095788000046],[120.36690241800011,16.551259707000042],[120.37527631800003,16.52078065300003],[120.3786044950001,16.516885325000032],[120.38057634200004,16.50945908800003],[120.383881,16.490640753000037],[120.3858964100001,16.463507181000068],[120.3953462290001,16.462317255000073],[120.39613112000006,16.463280530000077],[120.39994854500003,16.46006961200004],[120.42619161800008,16.456282405000024],[120.44196944900011,16.464210388000026],[120.45208244300011,16.474712344000068],[120.45244973100012,16.480712594000067],[120.4508947920001,16.486896870000066]]]}},{"type":"Feature","properties":{"shapeName":"Pugo","shapeISO":"","shapeID":"30758251B7939243888170","shapeGroup":"PHL","shapeType":"ADM3","psgc_code":"0103312000","legacy_psgc_code":"013312000","province":"La Union"},"geometry":{"type":"Polygon","coordinates":[[[120.51182322200009,16.23220132700004],[120.51669938400005,16.249475371000074],[120.51256863600008,16.259845979000033],[120.51059975200008,16.275798020000025],[120.50654804300007,16.287193684000044],[120.50267899200003,16.29305283700006],[120.50082950600006,16.293355268000028],[120.49736965000011,16.31297650700003],[120.49912476800012,16.323063542000057],[120.49060076100011,16.33247536500005],[120.49227370100004,16.333032598000045],[120.49271586600003,16.33569447600007],[120.49615315100004,16.335536181000066],[120.49670380700002,16.340136633000043],[120.49325875500006,16.34198933500005],[120.49628202200006,16.34544155100002],[120.49472417200002,16.347753779000072],[120.48084990500001,16.34760837700003],[120.47980471400001,16.34871186600003],[120.48161193700003,16.350527416000034],[120.47909265200008,16.355366109000045],[120.4822740300001,16.354441677000068],[120.48440041100002,16.358889514000055],[120.4690371590001,16.379756875000055],[120.44461437400003,16.38612987700003],[120.45131723100008,16.373195301000067],[120.4562737330001,16.359353187000067],[120.45291751700006,16.35042605600006],[120.45334060100004,16.342495134000046],[120.454893878,16.34065071400005],[120.45374713900003,16.33555298400006],[120.4574774560001,16.327947668000036],[120.45040315000006,16.320951407000052],[120.45669338200003,16.30554027000005],[120.45716649600001,16.298296536000066],[120.48852822000003,16.291657163000025],[120.48546554600011,16.288958939000054],[120.48477964400001,16.28557231600007],[120.48577780300002,16.26879804400005],[120.49052434900011,16.259834230000024],[120.49310963100004,16.249706828000058],[120.49965716200006,16.236501463000025],[120.50614609900003,16.23536428500006],[120.50828509500002,16.23309782900003],[120.51182322200009,16.23220132700004]]]}},{"type":"Feature","properties":{"shapeName":"Rosario","shapeISO":"","shapeID":"30758251B6500282829815","shapeGroup":"PHL","shapeType":"ADM3","psgc_code":"0103313000","legacy_psgc_code":"013313000","province":"La Union"},"geometry":{"type":"Polygon","coordinates":[[[120.45716649600001,16.298296536000066],[120.44609980200005,16.29773251200004],[120.42354923900007,16.293269069000075],[120.43907687400008,16.245284582000068],[120.43018068600009,16.240770774000055],[120.40385725100009,16.23904137100004],[120.40615316600008,16.232039373000077],[120.40967783200006,16.226853477000077],[120.41726211800005,16.204736093000065],[120.42701355800011,16.20130000300003],[120.43131934000007,16.20281398700007],[120.46260046600003,16.205320964000066],[120.46437273600009,16.204386854000063],[120.5066795030001,16.206713226000034],[120.5076717180001,16.21449145200006],[120.50570878100007,16.21906444900003],[120.50685203000012,16.223551162000035],[120.51144659700003,16.22657106500003],[120.51182322200009,16.23220132700004],[120.50828509500002,16.23309782900003],[120.50614609900003,16.23536428500006],[120.49965716200006,16.236501463000025],[120.49310963100004,16.249706828000058],[120.49052434900011,16.259834230000024],[120.48577780300002,16.26879804400005],[120.48477964400001,16.28557231600007],[120.48546554600011,16.288958939000054],[120.48852822000003,16.291657163000025],[120.45716649600001,16.298296536000066]]]}},{"type":"Feature","properties":{"shapeName":"San Gabriel","shapeISO":"","shapeID":"30758251B9999882220346","shapeGroup":"PHL","shapeType":"ADM3","psgc_code":"0103315000","legacy_psgc_code":"013315000","province":"La Union"},"geometry":{"type":"Polygon","coordinates":[[[120.40560523800002,16.704251229000022],[120.40310682300003,16.688968729000067],[120.3986897530001,16.67569564200005],[120.40159871900005,16.663170786000023],[120.403754649,16.660363740000037],[120.41051829700007,16.658875281000064],[120.41506921700011,16.662302729000032],[120.4285737030001,16.65861865000005],[120.43081035500006,16.659363046000067],[120.43301741500011,16.655747224000038],[120.43912205100003,16.654635867000025],[120.44219002200009,16.64976781100006],[120.45122175300003,16.642426595000074],[120.45859427500011,16.64407015100005],[120.46670248400005,16.64111175000005],[120.47247840900002,16.641910049000046],[120.47457589900011,16.643287505000046],[120.47678296000004,16.648609495000073],[120.48817828100005,16.64200396600006],[120.49829006200002,16.64200396600006],[120.50135803300009,16.63973429400005],[120.5063669650001,16.639640376000045],[120.50935667200008,16.642426595000074],[120.51417776900007,16.642739653000035],[120.51871587900007,16.647287738000045],[120.52244250700005,16.642017010000075],[120.54121983300001,16.638014294000072],[120.5650648840001,16.669766382000034],[120.56298155800005,16.672982391000062],[120.56299301400009,16.678416480000067],[120.53762835500004,16.675316805000023],[120.51801248400011,16.701299231000064],[120.51818455300008,16.70431043900004],[120.50433299400004,16.706375268000045],[120.49409488600008,16.713085960000058],[120.47458554500008,16.70892129200007],[120.45571414400001,16.719157953000035],[120.45323024400011,16.726751070000034],[120.45525531400006,16.727192183000057],[120.45444706800004,16.72840892100004],[120.45592464600008,16.729517646000033],[120.45384128900002,16.732345192000025],[120.45151596200003,16.731741743000043],[120.45283751900001,16.73558445900005],[120.447504,16.74040884300007],[120.44924851200005,16.741879458000028],[120.4478828010001,16.744584400000065],[120.44381923600008,16.745141440000054],[120.44130370200003,16.749476566000055],[120.43841902100007,16.751361882000026],[120.43413345400006,16.751192047000075],[120.43108367700006,16.75275871200006],[120.4274574420001,16.764202273000024],[120.41598349600008,16.733477468000046],[120.40906482900004,16.72411309900002],[120.40518465600007,16.707803933000037],[120.40560523800002,16.704251229000022]]]}},{"type":"Feature","properties":{"shapeName":"San Juan","shapeISO":"","shapeID":"30758251B15811216691174","shapeGroup":"PHL","shapeType":"ADM3","psgc_code":"0103316000","legacy_psgc_code":"013316000","province":"La Union"},"geometry":{"type":"Polygon","coordinates":[[[120.33590881900011,16.70058480800003],[120.33407523200003,16.696232122000026],[120.33834882300005,16.68889266700006],[120.33469652200006,16.674910832000023],[120.32795358600004,16.665794249000044],[120.32203085600008,16.661753488000045],[120.32162263900011,16.65901831000002],[120.31934297700002,16.657678648000058],[120.31782245200009,16.65401266600003],[120.32618911800012,16.651756512000077],[120.33456959300008,16.652289025000073],[120.33560423000006,16.647835271000076],[120.34163815200009,16.64429497200007],[120.36115199300002,16.645365880000043],[120.37093702800007,16.64390873700006],[120.38425363100009,16.64513039600007],[120.3988546700001,16.643088074000048],[120.40381424800012,16.644174381000028],[120.42381469100008,16.64349625400007],[120.4252190950001,16.643540182000038],[120.42579534000004,16.645768409000027],[120.42301483200004,16.64944984400006],[120.42783403500005,16.654428320000022],[120.4285737030001,16.65861865000005],[120.41506921700011,16.662302729000032],[120.41051829700007,16.658875281000064],[120.403754649,16.660363740000037],[120.40159871900005,16.663170786000023],[120.3986897530001,16.67569564200005],[120.40310682300003,16.688968729000067],[120.40560523800002,16.704251229000022],[120.3937633480001,16.702648022000062],[120.39056277100008,16.700626605000025],[120.38726593700005,16.701156024000056],[120.38211613800001,16.69918273600007],[120.37410691500008,16.700028728000063],[120.37195613300003,16.698318829000073],[120.36270298800002,16.700862293000057],[120.357963906,16.699306421000074],[120.34342165100009,16.698542045000067],[120.33590881900011,16.70058480800003]]]}},{"type":"Feature","properties":{"shapeName":"Santo Tomas","shapeISO":"","shapeID":"30758251B23413436311315","shapeGroup":"PHL","shapeType":"ADM3","psgc_code":"0103317000","legacy_psgc_code":"013317000","province":"La Union"},"geometry":{"type":"Polygon","coordinates":[[[120.34741308000002,16.284092289000057],[120.34866840100005,16.280492237000033],[120.35563534000005,16.274013339000078],[120.36138145100006,16.259021191000045],[120.37232290300005,16.24931694600002],[120.37382563500012,16.242018865000034],[120.37629322400005,16.238415892000035],[120.37999060000004,16.237593866000054],[120.38305140200009,16.240646618000028],[120.38078999400011,16.24095995600004],[120.37910060900003,16.243634642000075],[120.3744325990001,16.244745950000038],[120.37142106200008,16.252601689000073],[120.36928713600003,16.254556430000036],[120.37052678700002,16.25497560100007],[120.36969216900002,16.257142570000042],[120.3667195700001,16.258508264000056],[120.36653471700004,16.260546039000076],[120.36383188600007,16.26259072000005],[120.3629130920001,16.265176704000055],[120.36495938900009,16.267083884000044],[120.36309295900003,16.26985952700005],[120.3642511380001,16.27287592700003],[120.36667121700009,16.270216149000078],[120.36976006700002,16.27125209600007],[120.36856731400007,16.27329448000006],[120.37405315,16.273384468000074],[120.37606843900005,16.26859726300006],[120.38172256400003,16.264979373000074],[120.38495345000001,16.259898314000054],[120.38758951800003,16.25915268800003],[120.38696702300001,16.256998226000064],[120.39310910100005,16.25691464700003],[120.39589439100007,16.255551656000023],[120.39926455700004,16.251687744000037],[120.3944847460001,16.248502892000033],[120.39887777500007,16.251270912000052],[120.4006752570001,16.249852978000035],[120.40324554000006,16.243130888000053],[120.40255757300008,16.239991730000042],[120.40385725100009,16.23904137100004],[120.43018068600009,16.240770774000055],[120.43907687400008,16.245284582000068],[120.42354923900007,16.293269069000075],[120.42057980200002,16.30380339100003],[120.3944948510001,16.298383212000033],[120.38175881900008,16.300043712000047],[120.3797443200001,16.29859746900007],[120.37206055700005,16.297965043000033],[120.3624735300001,16.294495280000035],[120.34741308000002,16.284092289000057]]]}},{"type":"Feature","properties":{"shapeName":"Santol","shapeISO":"","shapeID":"30758251B51477832736818","shapeGroup":"PHL","shapeType":"ADM3","psgc_code":"0103318000","legacy_psgc_code":"013318000","province":"La Union"},"geometry":{"type":"Polygon","coordinates":[[[120.4274574420001,16.764202273000024],[120.43108367700006,16.75275871200006],[120.43413345400006,16.751192047000075],[120.43841902100007,16.751361882000026],[120.44130370200003,16.749476566000055],[120.44381923600008,16.745141440000054],[120.4478828010001,16.744584400000065],[120.44924851200005,16.741879458000028],[120.447504,16.74040884300007],[120.45283751900001,16.73558445900005],[120.45151596200003,16.731741743000043],[120.45384128900002,16.732345192000025],[120.45592464600008,16.729517646000033],[120.45444706800004,16.72840892100004],[120.45525531400006,16.727192183000057],[120.45323024400011,16.726751070000034],[120.45571414400001,16.719157953000035],[120.47458554500008,16.70892129200007],[120.49409488600008,16.713085960000058],[120.50433299400004,16.706375268000045],[120.51818455300008,16.70431043900004],[120.51801248400011,16.701299231000064],[120.53762835500004,16.675316805000023],[120.56299301400009,16.678416480000067],[120.56536460000007,16.681298302000073],[120.56438745700007,16.685027079000065],[120.558219731,16.691702919000022],[120.54661127400004,16.696729342000026],[120.54264798300005,16.70158378800005],[120.5437756660001,16.706471003000047],[120.54274178800006,16.709041342000035],[120.53784825700006,16.714607148000027],[120.53343938800003,16.716842851000024],[120.53420505800011,16.720465268000055],[120.53972819900002,16.721454487000074],[120.54409725100004,16.72620823500006],[120.54544368800009,16.72892858800003],[120.54555360100005,16.740744262000078],[120.5483838670001,16.743052440000042],[120.5513240470001,16.749482365000063],[120.55091187200003,16.752477501000044],[120.54711986500001,16.75811055400004],[120.54332785800011,16.760720994000053],[120.54293403000008,16.763281412000026],[120.53891887300006,16.76427650100004],[120.49057354700005,16.801864505000026],[120.46738423900001,16.812485928000058],[120.45621658900006,16.812376827000037],[120.44524934200001,16.82209221100004],[120.44070826200004,16.812491734000048],[120.44122757100001,16.808552408000025],[120.44279291500004,16.80756572200005],[120.44522624600006,16.81032547600006],[120.44584199700012,16.80658645500006],[120.44126466400007,16.80299580800005],[120.44058956300012,16.800139611000077],[120.442815171,16.798403637000035],[120.43902423700001,16.78553484100007],[120.42847860400002,16.768890468000052],[120.4274574420001,16.764202273000024]]]}},{"type":"Feature","properties":{"shapeName":"Sudipen","shapeISO":"","shapeID":"30758251B50085603864193","shapeGroup":"PHL","shapeType":"ADM3","psgc_code":"0103319000","legacy_psgc_code":"013319000","province":"La Union"},"geometry":{"type":"Polygon","coordinates":[[[120.5164729170001,16.91618965200007],[120.51429626700008,16.91810680800006],[120.50981946900004,16.917918806000046],[120.50090112400005,16.910328225000058],[120.49208853000005,16.90563992500006],[120.48474446500006,16.907755482000027],[120.47886359900008,16.912491749000026],[120.47002256600001,16.914780946000064],[120.46426010700009,16.91450466300006],[120.45411660000002,16.908505391000062],[120.45287178600006,16.894610509000074],[120.45460928300008,16.885578278000025],[120.45676506200004,16.88129952500003],[120.4635007390001,16.874456851000048],[120.4647637060001,16.865636448000032],[120.45114068900011,16.846128416000056],[120.44532690000005,16.837064359000067],[120.44428969000012,16.83161853400003],[120.4467874400001,16.825322155000038],[120.44524934200001,16.82209221100004],[120.45621658900006,16.812376827000037],[120.46738423900001,16.812485928000058],[120.49057354700005,16.801864505000026],[120.53891887300006,16.76427650100004],[120.54293403000008,16.763281412000026],[120.54890816500006,16.767490429000077],[120.54947059000006,16.773485914000048],[120.54674500300007,16.77939135200006],[120.54093041800002,16.77699889300004],[120.53726601800008,16.778452539000057],[120.53471281000009,16.785542150000026],[120.53634697300004,16.788516946000072],[120.54389026400008,16.791373338000028],[120.54433280400008,16.79358603700007],[120.542421837,16.795195272000058],[120.53996775300004,16.79382742200005],[120.53859990300009,16.794953887000077],[120.53423485200005,16.80314087100004],[120.52914564500009,16.79762924000005],[120.523935746,16.796945315000073],[120.52168281700006,16.799701131000063],[120.52246731900004,16.803764450000074],[120.5353009700001,16.81054335400006],[120.53548200900002,16.814928520000024],[120.52743583300003,16.82245169500004],[120.52468001700004,16.829572561000077],[120.52193302600006,16.831514436000077],[120.51279179200003,16.831825491000075],[120.50931182000011,16.837095736000038],[120.5068979670001,16.844880412000066],[120.50717958400003,16.846851725000022],[120.50979459100006,16.84856153800007],[120.51029747700011,16.856044482000073],[120.50740085300004,16.85916237600003],[120.51009632300008,16.86702751300004],[120.51202740500003,16.873243184000046],[120.5181223840001,16.87925770100003],[120.51613095500011,16.88374344500005],[120.51142394200008,16.887283762000038],[120.51277167600006,16.897502407000047],[120.51936954100006,16.907358973000044],[120.51717695800005,16.91057744400007],[120.5164729170001,16.91618965200007]]]}},{"type":"Feature","properties":{"shapeName":"Tubao","shapeISO":"","shapeID":"30758251B29046135341619","shapeGroup":"PHL","shapeType":"ADM3","psgc_code":"0103320000","legacy_psgc_code":"013320000","province":"La Union"},"geometry":{"type":"Polygon","coordinates":[[[120.42057980200002,16.30380339100003],[120.42354923900007,16.293269069000075],[120.44609980200005,16.29773251200004],[120.45716649600001,16.298296536000066],[120.45669338200003,16.30554027000005],[120.45040315000006,16.320951407000052],[120.4574774560001,16.327947668000036],[120.45374713900003,16.33555298400006],[120.454893878,16.34065071400005],[120.45334060100004,16.342495134000046],[120.45291751700006,16.35042605600006],[120.4562737330001,16.359353187000067],[120.45131723100008,16.373195301000067],[120.44461437400003,16.38612987700003],[120.44067977400005,16.382122862000074],[120.43246621900005,16.37926475200004],[120.4302760170001,16.380312463000053],[120.42885183700002,16.383474626000066],[120.4194327460001,16.386015160000056],[120.40352991000009,16.385576112000024],[120.399972036,16.383968029000073],[120.39973830100007,16.382074810000063],[120.39964344900011,16.37424950600007],[120.4018777440001,16.368217610000045],[120.38314120100006,16.36837809700006],[120.3703294280001,16.36292310300007],[120.380864459,16.360457626000027],[120.38620193500003,16.356919437000045],[120.3907242780001,16.356527910000068],[120.39595725200002,16.353833080000072],[120.40152097000009,16.330403626000077],[120.40131990200007,16.315457769000034],[120.40782970100008,16.316559763000043],[120.41631108400009,16.314748243000054],[120.41912048800009,16.312194444000056],[120.42057980200002,16.30380339100003]]]}}]}
