{"type":"FeatureCollection","source":{"dataset":"geoBoundaries gbOpen PHL ADM3","commit":"9469f09","license":"CC BY 3.0 IGO","boundary_year":2020,"url":"https://media.githubusercontent.com/media/wmgeolab/geoBoundaries/9469f09/releaseData/gbOpen/PHL/ADM3/geoBoundaries-PHL-ADM3_simplified.geojson","upstream_sources":["NAMRIA","PSA","OCHA Philippines"],"reference":"https://ulap-nga.georisk.gov.ph/arcgis/rest/services/PSA/Municipal/MapServer/0","psgc_reference":"https://psa.gov.ph/classification/psgc/provinces/0400000000","area_notes":"Noveleta uses government polygon spherical area; Cavinti uses government exterior-ring area including interior water. Other references use munarea_sqkm. See CALABARZON_BOUNDARY_SOURCES.md.","notice":"Approximate planning/reference boundaries, not legal, cadastral, or survey-grade."},"features":[{"type":"Feature","properties":{"shapeName":"Lucena City","shapeISO":"","shapeID":"30758251B97555965649214","shapeGroup":"PHL","shapeType":"ADM3","psgc_code":"0431200000","legacy_psgc_code":"045624000","province":"Lucena City","geographic_province":"Quezon"},"geometry":{"type":"Polygon","coordinates":[[[121.55469601200002,13.946192129000053],[121.55637001000002,13.942790916000035],[121.55604302100005,13.93937932800003],[121.56072986700008,13.93432189400005],[121.55923661600002,13.932861342000024],[121.56247381000003,13.931575185000042],[121.5650570250001,13.924915504000069],[121.57266497400008,13.920795439000074],[121.57342939500006,13.91837842600006],[121.57191509000006,13.914885128000037],[121.57621391100008,13.909378849000063],[121.573554392,13.899745947000042],[121.58197765700004,13.890231707000055],[121.58440324300011,13.890172180000036],[121.60325115300009,13.895132519000072],[121.60253540400004,13.899003583000024],[121.6181869180001,13.89031540600007],[121.6156239500001,13.89537848200007],[121.61618174400007,13.900310894000029],[121.61977882300005,13.905533811000055],[121.6207527580001,13.90498393200005],[121.61964065500001,13.903522708000025],[121.623279711,13.902168988000028],[121.623503722,13.904345503000059],[121.62046350700007,13.905561876000036],[121.62409398200009,13.907556578000026],[121.62595450200001,13.907978107000076],[121.62682891500003,13.905486835000033],[121.62694071300007,13.907494605000068],[121.6296898710001,13.908367374000022],[121.64590556100006,13.90779503400006],[121.649442,13.910638002000042],[121.65650193600004,13.913185989000056],[121.65551661500001,13.915161491000049],[121.66116548800005,13.914198819000035],[121.66441858500002,13.915745212000047],[121.66740528200012,13.91192562200007],[121.668952192,13.916503846000069],[121.67103731000009,13.917895852000072],[121.67445567200002,13.916897271000039],[121.67499423600009,13.920925149000027],[121.67634422900005,13.920665746000054],[121.67786587600006,13.922824267000067],[121.6811046580001,13.923809317000064],[121.68436553100003,13.922544727000059],[121.68680697500008,13.924469344000045],[121.68819463300008,13.922606482000049],[121.68920752400004,13.923708121000061],[121.69218227300007,13.923115556000027],[121.69273459800002,13.926163827000039],[121.68994272100008,13.925658328000054],[121.68965565300005,13.927660600000024],[121.68228484200006,13.930492301000072],[121.65200837800012,13.950065967000057],[121.6525429830001,13.955405382000038],[121.65044918800004,13.955109519000075],[121.64863254000011,13.957495381000058],[121.65048266600002,13.958192390000022],[121.65016345900005,13.964043762000074],[121.65292469200006,13.96739604000004],[121.64990063000005,13.968997242000057],[121.64971841600004,13.971351790000028],[121.64496946100007,13.970634322000024],[121.64221062600006,13.973521277000032],[121.64082409100001,13.972874986000022],[121.64049515500005,13.981286543000067],[121.63451588900011,13.983814993000067],[121.63159389100008,13.983883006000042],[121.63062309400004,13.980536982000046],[121.6264972780001,13.984284178000053],[121.61510595000004,13.990113159000032],[121.61549363800009,13.988239331000045],[121.61361058000011,13.987897796000027],[121.61578902000008,13.985017824000067],[121.61227213100005,13.982100930000058],[121.61228211900004,13.980200728000057],[121.60939157400003,13.979410259000076],[121.60856638000007,13.975617542000066],[121.60982004000005,13.972459589000039],[121.6059003690001,13.973300651000045],[121.60675730100002,13.968682740000077],[121.60548777200006,13.96892077700005],[121.60250437900004,13.975871447000031],[121.59989804300005,13.976628730000073],[121.59648625500006,13.973657923000076],[121.59329090000006,13.96474784700007],[121.58492348700008,13.96952641200005],[121.58579722400009,13.964677681000069],[121.5846044110001,13.96608099100007],[121.5779949680001,13.960274053000035],[121.57616633100008,13.961014997000063],[121.57560858700003,13.95873444600005],[121.56729127500012,13.951044448000061],[121.55469601200002,13.946192129000053]]]}}]}
