{"type":"FeatureCollection","source":{"dataset":"geoBoundaries gbOpen PHL ADM3","commit":"9469f09","license":"CC BY 3.0 IGO","boundary_year":2020,"url":"https://media.githubusercontent.com/media/wmgeolab/geoBoundaries/9469f09/releaseData/gbOpen/PHL/ADM3/geoBoundaries-PHL-ADM3_simplified.geojson","upstream_sources":["NAMRIA","PSA","OCHA Philippines"],"reference":"https://ulap-nga.georisk.gov.ph/arcgis/rest/services/PSA/Municipal/MapServer/0","psgc_reference":"https://psa.gov.ph/classification/psgc/provinces/1700000000","area_notes":"Four provinces use GeoRiskPH published polygon area; Palawan and Puerto Princesa use OCHA COD-AB v03 area_sqkm. These are polygon checks, not PSA LMB land-area totals. See MIMAROPA_BOUNDARY_SOURCES.md.","additional_reference":"https://data.humdata.org/dataset/cod-ab-phl","full_source_url":"https://media.githubusercontent.com/media/wmgeolab/geoBoundaries/9469f09/releaseData/gbOpen/PHL/ADM3/geoBoundaries-PHL-ADM3.geojson","notice":"Approximate planning/reference boundaries, not legal, cadastral, or survey-grade."},"features":[{"type":"Feature","properties":{"shapeName":"Boac","shapeISO":"","shapeID":"30758251B94760060482549","shapeGroup":"PHL","shapeType":"ADM3","psgc_code":"1704001000","legacy_psgc_code":"174001000","province":"Marinduque"},"geometry":{"type":"Polygon","coordinates":[[[121.8385544250001,13.484198755000023],[121.83304088900002,13.477224385000056],[121.81904555900007,13.46566419800007],[121.81092004400011,13.453103749000036],[121.81216188500002,13.45026871300007],[121.8106186220001,13.450349456000026],[121.811331934,13.445708723000052],[121.81838098000003,13.434808564000036],[121.820958087,13.427051161000065],[121.8214249340001,13.415101237000044],[121.82474221400003,13.405040567000071],[121.82465566100007,13.390092971000058],[121.82310781300009,13.383887403000074],[121.82152655400012,13.382462152000073],[121.8201551620001,13.383039362000034],[121.82375274200001,13.378661367000063],[121.82343881700001,13.372451862000048],[121.82689964100007,13.375774023000076],[121.83771232900006,13.375790057000074],[121.84720421000009,13.37199312000007],[121.85416304000012,13.379103900000075],[121.86223171000006,13.374999870000067],[121.87222285000007,13.365682970000023],[121.88448356000004,13.36434932000003],[121.90738737000004,13.349082440000075],[121.91915257000005,13.356448839000052],[121.92391427700011,13.353788578000035],[121.930182467,13.336618471000065],[121.93992635900008,13.331046431000061],[121.94861291400002,13.322643980000066],[121.95350408800005,13.320142375000046],[121.95436564400006,13.314560146000076],[121.9584424410001,13.310558007000054],[121.96343807900007,13.310091533000048],[121.96814826700006,13.303481705000024],[121.97440507300007,13.298484158000065],[121.98971166700005,13.290840923000076],[121.98847199700003,13.298266788000035],[121.98948662200007,13.306101151000064],[121.99725461900005,13.308212498000046],[121.99448750700003,13.317206663000036],[122.00409764500012,13.321406030000048],[122.00532169000007,13.327201650000063],[122.00521314600007,13.356673362000038],[122.00082795100002,13.367359717000056],[122.00890787700007,13.390104271000041],[121.97919126300008,13.413326384000072],[121.95955432000005,13.433903110000074],[121.97483774300008,13.440725190000023],[121.963403,13.447035],[121.96126431100004,13.454465280000022],[121.95103654800005,13.452343966000058],[121.95156687600002,13.448821070000065],[121.9495246780001,13.445734780000066],[121.94628602000012,13.448630280000032],[121.94302169000002,13.449441730000046],[121.93707868800004,13.447283987000048],[121.93515213600006,13.444423823000022],[121.93060467100008,13.442345895000074],[121.92747002100009,13.445967732000042],[121.92740420700011,13.448402805000057],[121.93134477000001,13.449381550000055],[121.92643142000009,13.453468120000025],[121.92166391400008,13.453941198000052],[121.92102640500002,13.455755708000027],[121.91478627000004,13.452021897000066],[121.91013232700004,13.454186521000054],[121.90591131000008,13.452671284000076],[121.90002167700004,13.453989300000046],[121.89106788100003,13.453174600000068],[121.88743898200005,13.455190654000035],[121.88363018600012,13.454818338000052],[121.88021864100006,13.459832611000024],[121.86477646100002,13.459280662000026],[121.86237772000004,13.46071573000006],[121.86328062000007,13.462973900000065],[121.85460476000003,13.462311310000075],[121.85270433000005,13.467164350000076],[121.84992984000007,13.468095490000053],[121.8470808300001,13.472853980000025],[121.84494688000007,13.471609860000058],[121.84169671000006,13.480096870000068],[121.84240659300008,13.48371091100006],[121.8385544250001,13.484198755000023]]]}},{"type":"Feature","properties":{"shapeName":"Buenavista","shapeISO":"","shapeID":"30758251B40445123670017","shapeGroup":"PHL","shapeType":"ADM3","psgc_code":"1704002000","legacy_psgc_code":"174002000","province":"Marinduque"},"geometry":{"type":"MultiPolygon","coordinates":[[[[121.99888218700005,13.194103033000033],[121.9975206790001,13.191823189000047],[121.99897915500003,13.189599480000027],[122.00189971800012,13.192133236000075],[121.99888218700005,13.194103033000033]]],[[[121.9584424410001,13.310558007000054],[121.92140015000007,13.289124680000043],[121.9180885400001,13.280024280000077],[121.90421202200002,13.273116015000028],[121.90790905000006,13.272134103000042],[121.90859084500005,13.269940332000033],[121.91267354100012,13.268490859000053],[121.91473175200008,13.265008704000024],[121.9204587270001,13.262791198000059],[121.92646356900002,13.256582278000053],[121.9490588220001,13.250571781000076],[121.95245885800011,13.247480660000065],[121.95902910100006,13.235449832000029],[121.96229061200006,13.227426914000034],[121.96201205000011,13.224827193000067],[121.96529466200002,13.225073765000047],[121.96769945100004,13.22355127000003],[121.96835446900002,13.22171520300003],[121.96686155200007,13.221763725000073],[121.9661151470001,13.219348319000062],[121.97023342300008,13.219295659000068],[121.97692776300005,13.214730444000054],[121.98216236700011,13.207648689000052],[121.99643993100005,13.203966439000055],[121.99760501000003,13.204856092000057],[122.0055264660001,13.199304362000078],[122.01633274700009,13.200238528000057],[122.02632048900011,13.198969358000056],[122.03207156500002,13.20179130400004],[122.02446738000003,13.209563400000036],[122.0244220730001,13.215329575000055],[122.0174846860001,13.23703676200006],[122.01279771700001,13.243593696000062],[122.01080818200012,13.250314381000067],[121.99145562500007,13.273758914000041],[121.99223795000012,13.285734898000044],[121.98971166700005,13.290840923000076],[121.97440507300007,13.298484158000065],[121.96814826700006,13.303481705000024],[121.96343807900007,13.310091533000048],[121.9584424410001,13.310558007000054]]]]}},{"type":"Feature","properties":{"shapeName":"Gasan","shapeISO":"","shapeID":"30758251B69905180384114","shapeGroup":"PHL","shapeType":"ADM3","psgc_code":"1704003000","legacy_psgc_code":"174003000","province":"Marinduque"},"geometry":{"type":"MultiPolygon","coordinates":[[[[121.81388893300004,13.22938937400005],[121.80664605700008,13.228273672000057],[121.80490871600011,13.226003849000051],[121.80834365200008,13.222289214000057],[121.81324282300011,13.220700965000049],[121.81900002100008,13.22695305700006],[121.81388893300004,13.22938937400005]]],[[[121.83063511300008,13.237275454000041],[121.82795443600003,13.235289562000048],[121.8307815610001,13.231521257000054],[121.8366980180001,13.231975560000024],[121.83587805600007,13.235183482000025],[121.83063511300008,13.237275454000041]]],[[[121.86702630600007,13.252611216000048],[121.86721584600002,13.253874643000074],[121.85962161200007,13.252596991000075],[121.85044620600002,13.249780395000073],[121.84896079200007,13.247789579000028],[121.85395323500006,13.245924896000076],[121.85916598400001,13.247692174000065],[121.8665410960001,13.244353674000024],[121.86839393000002,13.247650987000043],[121.86702630600007,13.252611216000048]]],[[[121.82343881700001,13.372451862000048],[121.82291235600007,13.365328164000061],[121.81896280900003,13.351621444000045],[121.82018059400002,13.34479107900006],[121.83625122600006,13.335600643000078],[121.84188666600005,13.330721925000034],[121.84630992100006,13.320288849000065],[121.8533283490001,13.311217362000036],[121.85459238300007,13.305874273000029],[121.86439904500003,13.286245645000065],[121.887536,13.274660427000072],[121.90421202200002,13.273116015000028],[121.9180885400001,13.280024280000077],[121.92140015000007,13.289124680000043],[121.9584424410001,13.310558007000054],[121.95436564400006,13.314560146000076],[121.95350408800005,13.320142375000046],[121.94861291400002,13.322643980000066],[121.93992635900008,13.331046431000061],[121.930182467,13.336618471000065],[121.92391427700011,13.353788578000035],[121.91915257000005,13.356448839000052],[121.90738737000004,13.349082440000075],[121.88448356000004,13.36434932000003],[121.87222285000007,13.365682970000023],[121.86223171000006,13.374999870000067],[121.85416304000012,13.379103900000075],[121.84720421000009,13.37199312000007],[121.83771232900006,13.375790057000074],[121.82689964100007,13.375774023000076],[121.82343881700001,13.372451862000048]]]]}},{"type":"Feature","properties":{"shapeName":"Mogpog","shapeISO":"","shapeID":"30758251B75724413863333","shapeGroup":"PHL","shapeType":"ADM3","psgc_code":"1704004000","legacy_psgc_code":"174004000","province":"Marinduque"},"geometry":{"type":"MultiPolygon","coordinates":[[[[121.86094156400009,13.529369092000024],[121.86047075800002,13.530837078000047],[121.85885423700006,13.530697920000023],[121.86094156400009,13.529369092000024]]],[[[121.96126431100004,13.454465280000022],[121.96159322100004,13.458024962000025],[121.95943521100003,13.460109818000035],[121.96254420800005,13.464206377000039],[121.96210529000007,13.465724300000034],[121.94255088000011,13.493776300000036],[121.93989649000002,13.495347410000022],[121.93412220000005,13.51242252000003],[121.92914951300008,13.538687538000033],[121.92856082500009,13.536011359000042],[121.92296589800003,13.533087549000072],[121.9251779110001,13.531322233000026],[121.9252065390001,13.528319855000063],[121.918815246,13.525143361000062],[121.91577176900012,13.525931361000062],[121.91167497200001,13.527785639000058],[121.91211249300011,13.530489504000059],[121.90992351900002,13.531425583000043],[121.9066927770001,13.531566198000064],[121.9050072550001,13.533291385000041],[121.90394912900001,13.532109281000032],[121.89927871200007,13.532392582000057],[121.89615345100003,13.537278404000062],[121.89367628600007,13.538435767000067],[121.89414071400006,13.541168739000057],[121.8981834220001,13.540593314000034],[121.89114636800002,13.546930446000033],[121.89299706500003,13.548782138000036],[121.88920046400006,13.553449250000028],[121.89012857400007,13.558761147000041],[121.88737953000009,13.556851231000053],[121.88870658600001,13.552722938000045],[121.88718598900005,13.54993130400004],[121.884043098,13.551194605000035],[121.88138392100007,13.55470623900004],[121.87913890300001,13.551845170000036],[121.8737823030001,13.55353591100004],[121.87499207100007,13.556213046000039],[121.87885717300003,13.558785238000041],[121.87632176000011,13.56062094500004],[121.87625415500008,13.562884460000078],[121.87406843800011,13.562776949000067],[121.87468921400011,13.564506813000037],[121.87318799400009,13.56510081700003],[121.8713460670001,13.570097926000074],[121.865064447,13.570621120000055],[121.86482010200007,13.568018314000028],[121.86205936800002,13.565123240000048],[121.85476480800003,13.56490502500003],[121.85704736600007,13.557877850000068],[121.85984992400006,13.554086996000024],[121.8652794730001,13.551054874000044],[121.85968713700004,13.539555301000064],[121.85517751700002,13.539880352000068],[121.85926883200011,13.532946916000071],[121.86139482500005,13.531788668000047],[121.86314329000004,13.532714403000057],[121.86372489000007,13.535727966000024],[121.85958481400007,13.53677897800003],[121.86026284400009,13.538268093000056],[121.86423323500003,13.540377829000022],[121.86621822300003,13.539065444000073],[121.8684930710001,13.540692988000046],[121.86853470200003,13.543053111000063],[121.87044101000004,13.543776803000071],[121.87495936000005,13.540690176000055],[121.87295981900002,13.539793984000028],[121.87339632300007,13.537573488000021],[121.87117734600008,13.534771797000076],[121.8698950480001,13.53625605700006],[121.86691461400005,13.533779281000022],[121.8649334270001,13.535098576000053],[121.8675721190001,13.52690268200007],[121.86644428900001,13.528005118000067],[121.86669390700001,13.526063265000062],[121.86369466200006,13.525075815000037],[121.8622053470001,13.526157756000032],[121.8609251040001,13.524340035000023],[121.85944034400006,13.52456208500007],[121.85794937000003,13.520963510000058],[121.8495805550001,13.521392113000047],[121.85098603800009,13.519440774000032],[121.84951710400003,13.517334063000021],[121.85141991300009,13.517371228000059],[121.85241108800005,13.515133082000034],[121.85454005500003,13.51522146900004],[121.8535631530001,13.510887468000021],[121.85230900600004,13.508718716000033],[121.84704716300007,13.508748225000033],[121.84717826300005,13.507664186000056],[121.85061878300007,13.507112913000071],[121.85095156000011,13.50561291200006],[121.84778008400008,13.504238213000065],[121.84758525200004,13.506401400000072],[121.84546734800006,13.50518038100006],[121.8435562410001,13.498267200000043],[121.83874639800001,13.497415379000074],[121.8424492470001,13.49588039200006],[121.84262683300005,13.494119150000074],[121.84111561500004,13.489535992000071],[121.83769163500006,13.485650208000038],[121.8385544250001,13.484198755000023],[121.84240659300008,13.48371091100006],[121.84169671000006,13.480096870000068],[121.84494688000007,13.471609860000058],[121.8470808300001,13.472853980000025],[121.84992984000007,13.468095490000053],[121.85270433000005,13.467164350000076],[121.85460476000003,13.462311310000075],[121.86328062000007,13.462973900000065],[121.86237772000004,13.46071573000006],[121.86477646100002,13.459280662000026],[121.88021864100006,13.459832611000024],[121.88363018600012,13.454818338000052],[121.88743898200005,13.455190654000035],[121.89106788100003,13.453174600000068],[121.90002167700004,13.453989300000046],[121.90591131000008,13.452671284000076],[121.91013232700004,13.454186521000054],[121.91478627000004,13.452021897000066],[121.92102640500002,13.455755708000027],[121.92166391400008,13.453941198000052],[121.92643142000009,13.453468120000025],[121.93134477000001,13.449381550000055],[121.92740420700011,13.448402805000057],[121.92747002100009,13.445967732000042],[121.93060467100008,13.442345895000074],[121.93515213600006,13.444423823000022],[121.93707868800004,13.447283987000048],[121.94302169000002,13.449441730000046],[121.94628602000012,13.448630280000032],[121.9495246780001,13.445734780000066],[121.95156687600002,13.448821070000065],[121.95103654800005,13.452343966000058],[121.96126431100004,13.454465280000022]]]]}},{"type":"Feature","properties":{"shapeName":"Santa Cruz","shapeISO":"","shapeID":"30758251B46699269491955","shapeGroup":"PHL","shapeType":"ADM3","psgc_code":"1704005000","legacy_psgc_code":"174005000","province":"Marinduque"},"geometry":{"type":"MultiPolygon","coordinates":[[[[122.12673551600005,13.426665488000026],[122.12379657600002,13.424557562000075],[122.1231852310001,13.420595212000023],[122.12061791800011,13.41673976800007],[122.12419251600011,13.414017125000044],[122.12232395600006,13.407817912000041],[122.12358229600011,13.405215628000064],[122.12538050700005,13.405019909000032],[122.12816697200003,13.399814126000024],[122.13032948700004,13.399518056000034],[122.13863252200008,13.406551776000072],[122.1406589070001,13.403964390000056],[122.13831143000004,13.402189772000042],[122.13914600700002,13.398579105000067],[122.14193328600004,13.39716383800004],[122.14269067500004,13.398165805000076],[122.14501767200011,13.39536119500002],[122.14749682600007,13.395977796000068],[122.14961224100011,13.402197237000053],[122.14771184900007,13.407430136000073],[122.13216458000011,13.420787215000075],[122.12948425800005,13.425788946000068],[122.12673551600005,13.426665488000026]]],[[[122.07015620700008,13.484316060000026],[122.06944487100009,13.483367963000035],[122.07146870500003,13.480240612000046],[122.07015620700008,13.484316060000026]]],[[[122.04457819600009,13.48629670500003],[122.0411945830001,13.485803846000067],[122.0440827110001,13.483987865000074],[122.04298190000009,13.485329560000025],[122.04457819600009,13.48629670500003]]],[[[122.068716472,13.527467684000044],[122.06648221900002,13.527327179000054],[122.06722770700003,13.52229614600003],[122.06446856600007,13.515294518000076],[122.0653787980001,13.503583006000042],[122.06960749500001,13.501139074000037],[122.07251354900006,13.501851095000063],[122.07539220300009,13.500192747000028],[122.07605110400004,13.501312640000037],[122.07856730700007,13.498712676000025],[122.08100414800003,13.499562780000076],[122.08121965700002,13.498449390000076],[122.08652537900002,13.497093519000032],[122.08631572600007,13.496129598000039],[122.08686916400006,13.498012954000046],[122.08963870100001,13.49571142700006],[122.0998749790001,13.496774586000072],[122.10059035400002,13.49940347100005],[122.09879548300012,13.505536150000069],[122.09289298500005,13.50764096000006],[122.09145903500007,13.506973731000073],[122.08599987600007,13.513018104000025],[122.08192992300008,13.513205540000058],[122.07831396400002,13.515515090000065],[122.076020448,13.517492754000045],[122.07336881600008,13.524052648000065],[122.068716472,13.527467684000044]]],[[[122.17736665400002,13.528968672000076],[122.17759991200012,13.527016959000036],[122.17021313300006,13.522651892000056],[122.1679913910001,13.519524410000031],[122.17037835500003,13.517920115000038],[122.17058374100009,13.514575926000077],[122.17597671200008,13.504851401000053],[122.18180828900006,13.503964763000056],[122.18508139300002,13.50600617200007],[122.18811884000002,13.515878834000034],[122.18278005600007,13.526071707000028],[122.17736665400002,13.528968672000076]]],[[[121.94866009700002,13.53674970000003],[121.9456950020001,13.535371540000028],[121.9477809550001,13.534391792000065],[121.94866009700002,13.53674970000003]]],[[[122.10635598400006,13.538686088000077],[122.1098122300001,13.532047185000067],[122.10956527700012,13.52560802100004],[122.1181316630001,13.527183625000077],[122.12554432000002,13.520773187000032],[122.13547291900011,13.517014127000039],[122.1366861780001,13.52236135100003],[122.13178624800003,13.531360888000052],[122.13165463500002,13.535386997000046],[122.11292212100011,13.53548878600003],[122.10635598400006,13.538686088000077]]],[[[121.9458516630001,13.542344994000075],[121.94397219900009,13.541291027000057],[121.94542314000012,13.54076006300005],[121.9458516630001,13.542344994000075]]],[[[121.96028865400001,13.547080845000039],[121.96037872200009,13.545837946000063],[121.9547199320001,13.542442981000022],[121.95129009100003,13.543891316000042],[121.94936068700008,13.541071903000045],[121.95243667700004,13.539422707000028],[121.9557320240001,13.542165554000064],[121.95863897000004,13.542575788000022],[121.96247337900002,13.545706971000072],[121.96028865400001,13.547080845000039]]],[[[121.94229417500003,13.555756187000043],[121.9441368790001,13.55237442400005],[121.94588210600011,13.553732006000075],[121.94229417500003,13.555756187000043]]],[[[122.00890787700007,13.390104271000041],[122.02064272000007,13.393043760000069],[122.02788670000007,13.381332230000055],[122.07120957000006,13.377466670000047],[122.07237683000005,13.38662725000006],[122.0711067200001,13.388281840000047],[122.0772070700001,13.401571680000075],[122.08758923000005,13.398325370000066],[122.09662786000001,13.405770090000033],[122.11008352500005,13.411620093000067],[122.1101160500001,13.415619535000076],[122.10497041600001,13.416884487000061],[122.10120303100007,13.421938117000025],[122.10243090300003,13.426936147000049],[122.09960524900009,13.433895455000027],[122.10237619400004,13.435743744000035],[122.10544704100005,13.434820433000027],[122.11044844000003,13.428533357000049],[122.11769966400004,13.425754452000035],[122.1198782570001,13.436260823000055],[122.11520267700007,13.43994211100005],[122.119380653,13.43894328400006],[122.1219585980001,13.440831195000044],[122.12473097800012,13.440107141000055],[122.12600517300007,13.444604209000033],[122.12883767900007,13.448105604000034],[122.12718605400005,13.455329379000034],[122.12343405800004,13.461260320000065],[122.11356840000008,13.470682618000069],[122.10882386900005,13.472836692000044],[122.10781480000003,13.476935162000075],[122.10473170800003,13.477873772000066],[122.10407347300008,13.479629509000063],[122.10365200800004,13.478697603000057],[122.09891198900004,13.480653500000074],[122.09581410800001,13.483399855000073],[122.09518115100002,13.48218259400005],[122.09356151300005,13.484735943000032],[122.08983886600004,13.486063872000045],[122.08650919800004,13.489365818000067],[122.0775073530001,13.487610622000034],[122.0747966020001,13.483643119000021],[122.0729015170001,13.48390134400006],[122.07271161900007,13.479777119000062],[122.07577077700012,13.477016095000067],[122.07575206400008,13.47507157900003],[122.06988669600003,13.478733913000042],[122.067445571,13.476779302000068],[122.06176295400007,13.479380234000075],[122.05840837200003,13.476965107000069],[122.05680189000009,13.478497755000035],[122.05414247400006,13.476888881000036],[122.0563937170001,13.480972346000044],[122.05402085600008,13.477042675000064],[122.05060424300007,13.478855894000048],[122.05053057400005,13.48149111600003],[122.04804290600009,13.483517272000029],[122.044082247,13.483136244000036],[122.04056975200001,13.485536125000067],[122.04062512400003,13.486083664000034],[122.04372870700001,13.486665560000063],[122.04174477900006,13.486864553000032],[122.04557120800007,13.490589302000046],[122.05078453500005,13.49034922100003],[122.05310084300004,13.486393346000057],[122.05686482300007,13.48487681000006],[122.05798387400012,13.485731413000053],[122.05665311300004,13.490660794000064],[122.05346946200007,13.494172346000028],[122.05059993600003,13.501063341000076],[122.04734513400001,13.500656771000024],[122.05028093100009,13.501725927000052],[122.048938614,13.505700769000043],[122.05160424700011,13.504145873000027],[122.05060413900003,13.505938173000061],[122.05160346200012,13.50640125800004],[122.04766989900008,13.50619923000005],[122.04892376500004,13.509120334000045],[122.04659334400003,13.514822282000068],[122.03188245500007,13.511385203000032],[122.02331002300002,13.513544024000055],[122.03644829300003,13.51961748900004],[122.03200742500007,13.524865273000046],[122.03290047400003,13.529233195000074],[122.02996512200002,13.532900337000058],[122.02684481900008,13.532713200000046],[122.02552987800004,13.533953618000055],[122.02597839400005,13.536532143000045],[122.02362228900006,13.537257237000063],[122.01755327300009,13.543545272000074],[122.0135689230001,13.544919851000031],[122.01252842400004,13.547802191000073],[122.00907970800006,13.549501292000059],[122.0059715210001,13.547853848000045],[122.00375202100008,13.542476598000064],[122.00535704300012,13.538022367000053],[122.01050764100012,13.537823295000067],[122.01159516200005,13.535524757000076],[122.0066280100001,13.53456183000003],[121.99974659400004,13.536291737000056],[121.99490767500004,13.532676452000032],[122.0000427010001,13.526591151000048],[121.99876984100001,13.522039128000074],[121.99693186200011,13.52218718100005],[121.99661698700004,13.523934532000055],[121.9933578670001,13.523464348000061],[121.98880801900009,13.525267148000069],[121.98441868000009,13.52459738300007],[121.98088888900008,13.520932877000064],[121.97866960500005,13.521008344000052],[121.9766548990001,13.524651552000023],[121.97152821600002,13.526996711000038],[121.97182848500006,13.529115342000068],[121.97042238600011,13.528099498000074],[121.96855266900002,13.52968766500004],[121.96686894800007,13.528964163000069],[121.9672767830001,13.530434331000038],[121.96816743600004,13.52989969600003],[121.96609401400008,13.533499616000029],[121.9663122820001,13.54105035200007],[121.9681049290001,13.543368523000026],[121.96714536600007,13.549062339000045],[121.97168271200007,13.554613721000067],[121.97261335200005,13.557808742000077],[121.9734129310001,13.556141220000029],[121.97333810000009,13.557402369000044],[121.97214062500007,13.558563458000037],[121.97010078700009,13.557865333000052],[121.96636116600007,13.551651547000063],[121.9643215850001,13.545386390000033],[121.96548934200007,13.542409820000046],[121.96446570100011,13.53966237000003],[121.96578808200002,13.536628094000037],[121.96563569500006,13.528725201000043],[121.96153720900008,13.528625981000062],[121.95281842400004,13.533519549000061],[121.9486705270001,13.53123898900003],[121.94842042800008,13.532256508000046],[121.94403768100005,13.530881669000053],[121.9384654480001,13.536387927000021],[121.94121017100008,13.540361860000075],[121.93694844200002,13.540401875000043],[121.93490913800008,13.542903175000049],[121.93057200500004,13.544604166000056],[121.927461762,13.54229009900007],[121.9274732230001,13.539875282000025],[121.92914951300008,13.538687538000033],[121.93412220000005,13.51242252000003],[121.93989649000002,13.495347410000022],[121.94255088000011,13.493776300000036],[121.96210529000007,13.465724300000034],[121.96254420800005,13.464206377000039],[121.95943521100003,13.460109818000035],[121.96159322100004,13.458024962000025],[121.96126431100004,13.454465280000022],[121.963403,13.447035],[121.97483774300008,13.440725190000023],[121.95955432000005,13.433903110000074],[121.97919126300008,13.413326384000072],[122.00890787700007,13.390104271000041]]]]}},{"type":"Feature","properties":{"shapeName":"Torrijos","shapeISO":"","shapeID":"30758251B44137486572010","shapeGroup":"PHL","shapeType":"ADM3","psgc_code":"1704006000","legacy_psgc_code":"174006000","province":"Marinduque"},"geometry":{"type":"Polygon","coordinates":[[[121.98971166700005,13.290840923000076],[121.99223795000012,13.285734898000044],[121.99145562500007,13.273758914000041],[122.01080818200012,13.250314381000067],[122.01279771700001,13.243593696000062],[122.0174846860001,13.23703676200006],[122.0244220730001,13.215329575000055],[122.02446738000003,13.209563400000036],[122.03207156500002,13.20179130400004],[122.04229806700005,13.21582991300005],[122.05292695100002,13.240728231000048],[122.05390473500006,13.255174827000076],[122.05213353800002,13.258434760000057],[122.04560668200008,13.263346192000029],[122.04375548000007,13.268406081000023],[122.04671488500003,13.276764662000062],[122.05046546500012,13.27993870000006],[122.05950279000001,13.282910687000026],[122.05955439400009,13.284110058000067],[122.06087647900006,13.283598737000034],[122.06532336400005,13.288791924000066],[122.06474134400003,13.29725876200007],[122.06872952700007,13.30619559300004],[122.07252364200008,13.309208182000077],[122.08204376900005,13.311708783000029],[122.08999201000006,13.319628228000056],[122.09208404200001,13.32523907600006],[122.09558875800008,13.324028776000034],[122.10419270300008,13.32757855500006],[122.10750718100007,13.330932824000058],[122.10766882300004,13.333128121000072],[122.10901851200003,13.332984459000045],[122.1092844420001,13.335331411000027],[122.11035272200002,13.33424384500006],[122.11334718100011,13.336249810000027],[122.11563806400011,13.335236745000032],[122.1173950220001,13.337931486000059],[122.120411364,13.33920597100007],[122.11937779800007,13.341840610000077],[122.12454919900006,13.346347275000028],[122.12453591700012,13.356353894000051],[122.1281054420001,13.362364979000063],[122.13967847700007,13.370179509000025],[122.14380481300009,13.371088176000058],[122.14815790600005,13.368697689000044],[122.14899485700005,13.37101395700006],[122.15067202900002,13.371106172000054],[122.1466138940001,13.377647112000034],[122.14522940200004,13.378239018000045],[122.14269616000001,13.376011625000046],[122.13821220300008,13.378413473000023],[122.13788242200008,13.381177613000034],[122.14265300900001,13.385474505000047],[122.14396123000006,13.389290711000058],[122.13658297100005,13.39195759100005],[122.1356709590001,13.390322144000038],[122.13304958200001,13.391940757000043],[122.13114776000009,13.389071623000063],[122.12942389900002,13.389308153000059],[122.12555530300006,13.391249213000037],[122.12452516100007,13.393653115000063],[122.12263223200011,13.39236926500007],[122.12233128700007,13.399565353000071],[122.11885169300001,13.408113899000057],[122.11642406300007,13.40972716400006],[122.11088128900008,13.409616970000059],[122.11008352500005,13.411620093000067],[122.09662786000001,13.405770090000033],[122.08758923000005,13.398325370000066],[122.0772070700001,13.401571680000075],[122.0711067200001,13.388281840000047],[122.07237683000005,13.38662725000006],[122.07120957000006,13.377466670000047],[122.02788670000007,13.381332230000055],[122.02064272000007,13.393043760000069],[122.00890787700007,13.390104271000041],[122.00082795100002,13.367359717000056],[122.00521314600007,13.356673362000038],[122.00532169000007,13.327201650000063],[122.00409764500012,13.321406030000048],[121.99448750700003,13.317206663000036],[121.99725461900005,13.308212498000046],[121.98948662200007,13.306101151000064],[121.98847199700003,13.298266788000035],[121.98971166700005,13.290840923000076]]]}}]}
