{"type":"FeatureCollection","source":{"dataset":"geoBoundaries gbOpen PHL ADM3","commit":"9469f09","license":"CC BY 3.0 IGO","boundary_year":2020,"url":"https://media.githubusercontent.com/media/wmgeolab/geoBoundaries/9469f09/releaseData/gbOpen/PHL/ADM3/geoBoundaries-PHL-ADM3_simplified.geojson","upstream_sources":["NAMRIA","PSA","OCHA Philippines"],"reference":"https://ulap-nga.georisk.gov.ph/arcgis/rest/services/PSA/Municipal/MapServer/0","psgc_reference":"https://psa.gov.ph/classification/psgc/citimuni/1404400000","notice":"Approximate planning/reference boundaries, not legal, cadastral, or survey-grade."},"features":[{"type":"Feature","properties":{"shapeName":"Barlig","shapeISO":"","shapeID":"30758251B41172258375645","shapeGroup":"PHL","shapeType":"ADM3","psgc_code":"1404401000","legacy_psgc_code":"144401000","province":"Mountain Province"},"geometry":{"type":"Polygon","coordinates":[[[121.12908609800002,17.009840820000022],[121.14536511100005,17.01234623700003],[121.14937963200009,17.009478976000025],[121.16356277400007,17.00428677900004],[121.18956655500006,17.00299447200007],[121.21438503800005,17.003306597000062],[121.2284571890001,17.00609120200005],[121.227699185,17.023991047000038],[121.23476000200003,17.035025932000053],[121.24170830000003,17.04157718500005],[121.24094893100005,17.053382815000077],[121.24249939100002,17.058567476000064],[121.24091089800004,17.06328639700007],[121.23860451000007,17.06380143100006],[121.23778404000007,17.06069261300007],[121.2307272380001,17.06350998100004],[121.22814821800011,17.061324092000064],[121.22419682600002,17.061984230000064],[121.22338211600004,17.060977797000078],[121.22488354400002,17.058137996000028],[121.2206481610001,17.05618818000005],[121.21718195800008,17.057772618000058],[121.21684609600004,17.055695632000038],[121.21457101100009,17.054601219000062],[121.21294787300008,17.05887554700007],[121.21061725800007,17.05804080100006],[121.20937301000004,17.06149486000004],[121.20754864100002,17.062231514000075],[121.20721201200001,17.065860127000064],[121.20200007800008,17.067143360000046],[121.19427828200003,17.074435134000055],[121.1885948900001,17.089315731000056],[121.18607559700001,17.124516818000075],[121.17912340900011,17.138731389000043],[121.15978903100006,17.169494195000027],[121.11592732600002,17.177645578000067],[121.10040385600007,17.186487388000046],[121.08662453900001,17.19899657900004],[121.08788778200005,17.186305297000047],[121.09182447900002,17.179970382000022],[121.09345345700001,17.174178460000064],[121.09331623700007,17.158919732000072],[121.09907358800001,17.146389027000055],[121.09873492100007,17.139277004000064],[121.09568691100003,17.115570263000052],[121.08722021800008,17.106764903000055],[121.084849544,17.10337822500003],[121.08315620500002,17.09558886800005],[121.07943086000012,17.092540858000064],[121.07502818000012,17.07459146900004],[121.06927082800007,17.064431437000053],[121.06927082800007,17.05935142100003],[121.06024152400005,17.059786364000047],[121.05438040900003,17.036353999000028],[121.0411725350001,17.020703858000047],[121.04054430000008,17.01897024300007],[121.04276887800006,17.015688400000045],[121.03270594700007,16.989761326000064],[121.048369621,16.994817884000042],[121.07499735600004,17.002940487000046],[121.09105511000007,17.00615656100007],[121.10765113600007,17.008846962000064],[121.12908609800002,17.009840820000022]]]}},{"type":"Feature","properties":{"shapeName":"Bauko","shapeISO":"","shapeID":"30758251B51622624666316","shapeGroup":"PHL","shapeType":"ADM3","psgc_code":"1404402000","legacy_psgc_code":"144402000","province":"Mountain Province"},"geometry":{"type":"Polygon","coordinates":[[[120.92279801100005,16.875224339000056],[120.908299725,16.898896781000076],[120.89402137700006,16.908157085000028],[120.89344474200004,16.916221463000056],[120.8899640300001,16.922729245000028],[120.88846202500008,16.93547821900006],[120.89373344500007,16.947964999000078],[120.89605987100003,16.957776446000025],[120.89535182800012,16.966677553000068],[120.89219099500008,16.966831090000028],[120.89446118700005,16.978814450000073],[120.89351177000003,17.002952100000073],[120.887317961,17.016136197000037],[120.89276803000007,17.031401595000034],[120.89417902500008,17.039917497000033],[120.8838616270001,17.041109264000056],[120.8861472750001,17.05457598000004],[120.86461477800003,17.060300948000076],[120.8667561960001,17.04975765200004],[120.85704423700008,17.037514179000027],[120.85190213300007,17.028060451000044],[120.8534983620001,17.022815699000034],[120.85332733700011,17.010558943000035],[120.85539799800006,16.998906133000048],[120.84873528000003,16.98171830600006],[120.8409842740001,16.97751313300006],[120.83321006300002,16.965909466000028],[120.83680195200009,16.954695081000068],[120.8422901350001,16.951033169000027],[120.84172425700001,16.948185012000067],[120.84434653500011,16.945976983000037],[120.84496239900011,16.940374315000042],[120.84888439400004,16.934458694000057],[120.8512468880001,16.93368057500004],[120.85351740100009,16.92699434900004],[120.8526788800001,16.92485642400004],[120.8545801350001,16.923225561000038],[120.85442185700003,16.918615732000035],[120.85654311200005,16.913399307000077],[120.84886982100011,16.900830407000058],[120.85106485100005,16.89793572900004],[120.85004227900004,16.894031853000058],[120.85100619000002,16.87432044600007],[120.85244241700002,16.86396382500004],[120.85423092600001,16.860931489000052],[120.8520054810001,16.85772700900003],[120.8564290710001,16.85399791900005],[120.856741026,16.84185635800003],[120.8701147590001,16.829583596000077],[120.87463829900003,16.82733462400006],[120.88616453300006,16.827413768000042],[120.89301445400008,16.821064410000076],[120.91012830800003,16.83411354900005],[120.92138135900007,16.861439122000036],[120.92279801100005,16.875224339000056]]]}},{"type":"Feature","properties":{"shapeName":"Besao","shapeISO":"","shapeID":"30758251B80716483482108","shapeGroup":"PHL","shapeType":"ADM3","psgc_code":"1404403000","legacy_psgc_code":"144403000","province":"Mountain Province"},"geometry":{"type":"Polygon","coordinates":[[[120.86461477800003,17.060300948000076],[120.86571881600003,17.065545619000034],[120.868917269,17.067476761000023],[120.8680120470001,17.07043382200004],[120.8690983140001,17.071882178000067],[120.87967566200007,17.077441188000023],[120.87670399900003,17.08830126500004],[120.87864999200008,17.101226945000064],[120.8840658790001,17.112968479000074],[120.87869184400006,17.135248304000072],[120.89104587700001,17.190818569000044],[120.88231281900005,17.18872262000002],[120.85315334200004,17.187441957000033],[120.82752492300006,17.18124139500003],[120.80474638400005,17.17126978500005],[120.81235520500002,17.155871674000025],[120.77482395200002,17.108020993000025],[120.767612847,17.066790583000056],[120.86461477800003,17.060300948000076]]]}},{"type":"Feature","properties":{"shapeName":"Bontoc","shapeISO":"","shapeID":"30758251B89395664322006","shapeGroup":"PHL","shapeType":"ADM3","psgc_code":"1404404000","legacy_psgc_code":"144404000","province":"Mountain Province"},"geometry":{"type":"Polygon","coordinates":[[[121.07943086000012,17.092540858000064],[121.06942405600012,17.102748555000062],[121.03466364700012,17.121299196000052],[121.03169393100006,17.127858057000026],[121.03089639400002,17.135833434000062],[121.02671135900005,17.14361535200004],[120.99937593600009,17.153900752000027],[120.97729992500001,17.18244162700006],[120.9107590100001,17.213078086000053],[120.89104587700001,17.190818569000044],[120.90793599200003,17.138263408000057],[120.92028837700002,17.10821022700003],[120.9230130730001,17.105332143000055],[120.92432354100004,17.098802111000055],[120.93264154700012,17.095586613000023],[120.93384722200005,17.09633240100004],[120.93674303000012,17.092799980000052],[120.93902194900011,17.093959143000063],[120.94065013900001,17.092302139000026],[120.94206621700005,17.093601680000063],[120.94427928300001,17.089704013000073],[120.94323041200005,17.084899191000034],[120.94482221300007,17.08365913500006],[120.93958357600002,17.079141562000075],[120.93733193000003,17.072269248000055],[120.92832689600004,17.067155557000035],[120.92447480700002,17.056840238000063],[120.91994377600008,17.05029541600004],[120.91776531900007,17.04093887600004],[120.91866044000005,17.038535594000052],[120.92339599000002,17.036126954000054],[120.93087295100008,17.035272725000027],[120.93149196000002,17.01576318700006],[120.9331090180001,17.01413602200006],[120.945863486,17.012537533000057],[120.9827881860001,16.997625678000077],[120.99386996900012,16.989062895000075],[121.00898631400003,16.984268722000024],[121.0229981980001,16.985088674000053],[121.03270594700007,16.989761326000064],[121.04276887800006,17.015688400000045],[121.04054430000008,17.01897024300007],[121.0411725350001,17.020703858000047],[121.05438040900003,17.036353999000028],[121.06024152400005,17.059786364000047],[121.06927082800007,17.05935142100003],[121.06927082800007,17.064431437000053],[121.07502818000012,17.07459146900004],[121.07943086000012,17.092540858000064]]]}},{"type":"Feature","properties":{"shapeName":"Natonin","shapeISO":"","shapeID":"30758251B25528294473690","shapeGroup":"PHL","shapeType":"ADM3","psgc_code":"1404405000","legacy_psgc_code":"144405000","province":"Mountain Province"},"geometry":{"type":"Polygon","coordinates":[[[121.41712661000008,17.06801943800002],[121.36068556300006,17.15243955400007],[121.34675839400006,17.170550260000027],[121.33571321200009,17.194612969000048],[121.33063451200007,17.202093456000057],[121.3304206140001,17.235203799000033],[121.3272070060001,17.231242765000047],[121.31843397800003,17.23113432200006],[121.30338306800002,17.241337970000075],[121.292611641,17.244221853000056],[121.28932487100008,17.243460871000025],[121.28822452800011,17.241259126000045],[121.28900804600005,17.236103799000034],[121.28604287100006,17.231520017000037],[121.27378764200012,17.230986161000033],[121.26769990800005,17.227629816000047],[121.26042045200006,17.227466824000032],[121.25745876300005,17.221263546000046],[121.25722663900001,17.210712632000025],[121.25502036400007,17.204310831000043],[121.24823630000003,17.193514290000053],[121.24229936800009,17.189325601000064],[121.22601545100008,17.182766731000072],[121.2147677590001,17.18103680300004],[121.19969630500009,17.174169696000035],[121.18519217200003,17.170837624000058],[121.18000035600005,17.172262232000037],[121.17055808100008,17.170107307000023],[121.15978903100006,17.169494195000027],[121.17912340900011,17.138731389000043],[121.18607559700001,17.124516818000075],[121.1885948900001,17.089315731000056],[121.19427828200003,17.074435134000055],[121.20200007800008,17.067143360000046],[121.20721201200001,17.065860127000064],[121.20754864100002,17.062231514000075],[121.20937301000004,17.06149486000004],[121.21061725800007,17.05804080100006],[121.21294787300008,17.05887554700007],[121.21457101100009,17.054601219000062],[121.21684609600004,17.055695632000038],[121.21718195800008,17.057772618000058],[121.2206481610001,17.05618818000005],[121.22488354400002,17.058137996000028],[121.22338211600004,17.060977797000078],[121.22419682600002,17.061984230000064],[121.22814821800011,17.061324092000064],[121.2307272380001,17.06350998100004],[121.23778404000007,17.06069261300007],[121.23860451000007,17.06380143100006],[121.24091089800004,17.06328639700007],[121.24249939100002,17.058567476000064],[121.24094893100005,17.053382815000077],[121.24170830000003,17.04157718500005],[121.23476000200003,17.035025932000053],[121.227699185,17.023991047000038],[121.2284571890001,17.00609120200005],[121.245929,17.006259648000025],[121.26067193600011,17.016283886000053],[121.2857243630001,17.027127474000054],[121.348729348,17.064332198000045],[121.37322090000009,17.073493161000044],[121.40270192500009,17.071855791000075],[121.41712661000008,17.06801943800002]]]}},{"type":"Feature","properties":{"shapeName":"Paracelis","shapeISO":"","shapeID":"30758251B35723308513906","shapeGroup":"PHL","shapeType":"ADM3","psgc_code":"1404406000","legacy_psgc_code":"144406000","province":"Mountain Province"},"geometry":{"type":"Polygon","coordinates":[[[121.56750018100001,17.07905657500004],[121.56604146900008,17.085724945000038],[121.56702055400001,17.10782628800007],[121.56560436300003,17.12079569100007],[121.56821946600007,17.130746136000027],[121.56694659200002,17.135397021000074],[121.563173301,17.13792101000007],[121.56334011600006,17.14262085100006],[121.55990226900008,17.14452834900004],[121.56029487300009,17.149470072000042],[121.56266511000001,17.15295057000003],[121.56135275200006,17.181143647000056],[121.56243884100002,17.185352245000047],[121.55539256200007,17.187029092000046],[121.54913468000007,17.19652380800005],[121.55042941500005,17.201990463000072],[121.54899082100007,17.206162384000038],[121.55042941500005,17.210118516000023],[121.54769608700008,17.214578156000073],[121.54434120000008,17.238029932000074],[121.54278393400011,17.247162222000043],[121.54497556000001,17.26489446200003],[121.53708962400003,17.266305630000033],[121.53451524700006,17.26951245300006],[121.53067411800009,17.268171379000023],[121.52712480200012,17.27003232800007],[121.52746825400004,17.273091218000047],[121.52537136700005,17.271746904000054],[121.52388054100004,17.27405999900003],[121.51496460100009,17.278042396000046],[121.51111768300007,17.276563337000027],[121.51127592800003,17.28224937600004],[121.50551322800004,17.280254004000028],[121.50438581800006,17.284162621000064],[121.50590952400012,17.28656069400006],[121.50181699900008,17.290872016000037],[121.49990185200011,17.29156572900007],[121.497765393,17.289696263000053],[121.48795111800007,17.289133804000073],[121.48520755900006,17.293315748000055],[121.4267233060001,17.28804137800006],[121.422435156,17.285718124000027],[121.4184185680001,17.287046150000037],[121.41383721800003,17.284717923000073],[121.41261677600005,17.285603078000065],[121.4126248230001,17.28924562700007],[121.41173698600005,17.28667062900007],[121.40915394100011,17.28630315600003],[121.40920222200009,17.283438471000068],[121.40699469800006,17.28563258300005],[121.39952388900008,17.280469270000026],[121.39521127000012,17.273586167000076],[121.395221536,17.27139790700005],[121.38400937600011,17.26193440800006],[121.38080157700006,17.26143920800007],[121.37603321800009,17.257487758000025],[121.37190790800003,17.25977441300006],[121.36785152100003,17.258673174000023],[121.36494052800003,17.254438967000056],[121.35766726300005,17.251877859000047],[121.35181509000006,17.247008727000036],[121.34733299200002,17.24841142400004],[121.34568145000003,17.246198363000076],[121.34117332000005,17.24512194600004],[121.33832201000007,17.23883058100006],[121.33541718600009,17.236227177000046],[121.3304206140001,17.235203799000033],[121.33063451200007,17.202093456000057],[121.33571321200009,17.194612969000048],[121.34675839400006,17.170550260000027],[121.36068556300006,17.15243955400007],[121.41712661000008,17.06801943800002],[121.48754978400007,17.079485199000032],[121.56750018100001,17.07905657500004]]]}},{"type":"Feature","properties":{"shapeName":"Sabangan","shapeISO":"","shapeID":"30758251B87465982516801","shapeGroup":"PHL","shapeType":"ADM3","psgc_code":"1404407000","legacy_psgc_code":"144407000","province":"Mountain Province"},"geometry":{"type":"Polygon","coordinates":[[[120.92279801100005,16.875224339000056],[120.94644349500004,16.897973181000054],[120.96322057900011,16.940686287000062],[120.96572756600006,16.955652496000027],[120.9719873570001,16.968866439000067],[120.98411000800002,16.984235071000057],[120.99386996900012,16.989062895000075],[120.9827881860001,16.997625678000077],[120.945863486,17.012537533000057],[120.9331090180001,17.01413602200006],[120.93149196000002,17.01576318700006],[120.93087295100008,17.035272725000027],[120.91889325500006,17.030448162000027],[120.90392978000011,17.033138075000068],[120.89417902500008,17.039917497000033],[120.89276803000007,17.031401595000034],[120.887317961,17.016136197000037],[120.89351177000003,17.002952100000073],[120.89446118700005,16.978814450000073],[120.89219099500008,16.966831090000028],[120.89535182800012,16.966677553000068],[120.89605987100003,16.957776446000025],[120.89373344500007,16.947964999000078],[120.88846202500008,16.93547821900006],[120.8899640300001,16.922729245000028],[120.89344474200004,16.916221463000056],[120.89402137700006,16.908157085000028],[120.908299725,16.898896781000076],[120.92279801100005,16.875224339000056]]]}},{"type":"Feature","properties":{"shapeName":"Sadanga","shapeISO":"","shapeID":"30758251B98630478643343","shapeGroup":"PHL","shapeType":"ADM3","psgc_code":"1404408000","legacy_psgc_code":"144408000","province":"Mountain Province"},"geometry":{"type":"Polygon","coordinates":[[[121.08662453900001,17.19899657900004],[121.08333979800011,17.216087337000033],[121.06882539600008,17.22944478000005],[121.05369300400002,17.23101964500006],[121.03021587,17.23974410200003],[120.97571818400002,17.241355342000077],[120.94871022200005,17.241077373000053],[120.9431989420001,17.244172087000038],[120.91189962700003,17.24891692500006],[120.9107590100001,17.213078086000053],[120.97729992500001,17.18244162700006],[120.99937593600009,17.153900752000027],[121.02671135900005,17.14361535200004],[121.03089639400002,17.135833434000062],[121.03169393100006,17.127858057000026],[121.03466364700012,17.121299196000052],[121.06942405600012,17.102748555000062],[121.07943086000012,17.092540858000064],[121.08315620500002,17.09558886800005],[121.084849544,17.10337822500003],[121.08722021800008,17.106764903000055],[121.09568691100003,17.115570263000052],[121.09873492100007,17.139277004000064],[121.09907358800001,17.146389027000055],[121.09331623700007,17.158919732000072],[121.09345345700001,17.174178460000064],[121.09182447900002,17.179970382000022],[121.08788778200005,17.186305297000047],[121.08662453900001,17.19899657900004]]]}},{"type":"Feature","properties":{"shapeName":"Sagada","shapeISO":"","shapeID":"30758251B89881714553238","shapeGroup":"PHL","shapeType":"ADM3","psgc_code":"1404409000","legacy_psgc_code":"144409000","province":"Mountain Province"},"geometry":{"type":"Polygon","coordinates":[[[120.89417902500008,17.039917497000033],[120.90392978000011,17.033138075000068],[120.91889325500006,17.030448162000027],[120.93087295100008,17.035272725000027],[120.92339599000002,17.036126954000054],[120.91866044000005,17.038535594000052],[120.91776531900007,17.04093887600004],[120.91994377600008,17.05029541600004],[120.92447480700002,17.056840238000063],[120.92832689600004,17.067155557000035],[120.93733193000003,17.072269248000055],[120.93958357600002,17.079141562000075],[120.94482221300007,17.08365913500006],[120.94323041200005,17.084899191000034],[120.94427928300001,17.089704013000073],[120.94206621700005,17.093601680000063],[120.94065013900001,17.092302139000026],[120.93902194900011,17.093959143000063],[120.93674303000012,17.092799980000052],[120.93384722200005,17.09633240100004],[120.93264154700012,17.095586613000023],[120.92432354100004,17.098802111000055],[120.9230130730001,17.105332143000055],[120.92028837700002,17.10821022700003],[120.90793599200003,17.138263408000057],[120.89104587700001,17.190818569000044],[120.87869184400006,17.135248304000072],[120.8840658790001,17.112968479000074],[120.87864999200008,17.101226945000064],[120.87670399900003,17.08830126500004],[120.87967566200007,17.077441188000023],[120.8690983140001,17.071882178000067],[120.8680120470001,17.07043382200004],[120.868917269,17.067476761000023],[120.86571881600003,17.065545619000034],[120.86461477800003,17.060300948000076],[120.8861472750001,17.05457598000004],[120.8838616270001,17.041109264000056],[120.89417902500008,17.039917497000033]]]}},{"type":"Feature","properties":{"shapeName":"Tadian","shapeISO":"","shapeID":"30758251B82460503002261","shapeGroup":"PHL","shapeType":"ADM3","psgc_code":"1404410000","legacy_psgc_code":"144410000","province":"Mountain Province"},"geometry":{"type":"Polygon","coordinates":[[[120.86461477800003,17.060300948000076],[120.767612847,17.066790583000056],[120.7697235920001,17.058553509000035],[120.77479589600011,17.036158508000028],[120.77707950700005,17.01755226000006],[120.7800911270001,17.01648827300005],[120.7814782700001,16.962984348000077],[120.78527385300004,16.92133500700004],[120.79613820700001,16.90044759500006],[120.80120005000003,16.89876578700006],[120.81172529700007,16.896213617000058],[120.82131214900005,16.901669063000043],[120.841316387,16.90663692100003],[120.84886982100011,16.900830407000058],[120.85654311200005,16.913399307000077],[120.85442185700003,16.918615732000035],[120.8545801350001,16.923225561000038],[120.8526788800001,16.92485642400004],[120.85351740100009,16.92699434900004],[120.8512468880001,16.93368057500004],[120.84888439400004,16.934458694000057],[120.84496239900011,16.940374315000042],[120.84434653500011,16.945976983000037],[120.84172425700001,16.948185012000067],[120.8422901350001,16.951033169000027],[120.83680195200009,16.954695081000068],[120.83321006300002,16.965909466000028],[120.8409842740001,16.97751313300006],[120.84873528000003,16.98171830600006],[120.85539799800006,16.998906133000048],[120.85332733700011,17.010558943000035],[120.8534983620001,17.022815699000034],[120.85190213300007,17.028060451000044],[120.85704423700008,17.037514179000027],[120.8667561960001,17.04975765200004],[120.86461477800003,17.060300948000076]]]}}]}
