{"type":"FeatureCollection","source":{"dataset":"geoBoundaries gbOpen PHL ADM3","commit":"9469f09","license":"CC BY 3.0 IGO","boundary_year":2020,"url":"https://media.githubusercontent.com/media/wmgeolab/geoBoundaries/9469f09/releaseData/gbOpen/PHL/ADM3/geoBoundaries-PHL-ADM3_simplified.geojson","upstream_sources":["NAMRIA","PSA","OCHA Philippines"],"reference":"https://data.humdata.org/dataset/cod-ab-phl","psgc_reference":"https://psa.gov.ph/classification/psgc/provinces/0500000000","area_notes":"Bicol references use OCHA Philippines COD-AB v03 published polygon area_sqkm, converted to hectares for the importer comparison. These are polygon checks, not PSA LMB land-area totals. See docs/BICOL_BOUNDARY_SOURCES.md.","notice":"Approximate planning/reference boundaries, not legal, cadastral, or survey-grade."},"features":[{"type":"Feature","properties":{"shapeName":"Naga City","shapeISO":"","shapeID":"30758251B67238532990437","shapeGroup":"PHL","shapeType":"ADM3","psgc_code":"0501724000","legacy_psgc_code":"051724000","province":"Naga City","geographic_province":"Camarines Sur"},"geometry":{"type":"Polygon","coordinates":[[[123.26264759600008,13.665204790000075],[123.2542533940001,13.661532793000049],[123.24474930400004,13.660738159000061],[123.24312994500008,13.661825200000067],[123.24052004000009,13.660518945000035],[123.23752122700012,13.661587521000058],[123.23447521900005,13.659314534000032],[123.23125019200006,13.660560734000057],[123.22629112100003,13.659470666000061],[123.22571674300002,13.658024005000073],[123.22305217600001,13.659085021000067],[123.21848634300011,13.657921420000037],[123.21833595100009,13.65889661600005],[123.21510014600005,13.656105314000058],[123.20757829000001,13.65534548200003],[123.20632603900003,13.652933320000045],[123.20456129000002,13.65447713900005],[123.20181101600008,13.652300389000061],[123.2007232090001,13.65326794400005],[123.19634300500002,13.649803529000053],[123.1947708990001,13.64633307500003],[123.19027411000002,13.647522990000027],[123.17771383500008,13.631836876000023],[123.17814722500009,13.629626432000066],[123.17284881500007,13.626004928000043],[123.17696135100005,13.621450666000044],[123.17547290300001,13.619979723000029],[123.17643577500007,13.618356539000047],[123.17484443400008,13.617743140000073],[123.17749655700004,13.615918171000033],[123.17572547500004,13.61083459200006],[123.1830635980001,13.606512767000027],[123.18613312000002,13.602327056000036],[123.20119259300009,13.609158114000024],[123.21312111500004,13.611486254000056],[123.22866664700007,13.611779857000045],[123.23273690100007,13.610528275000036],[123.23570064300009,13.611663158000056],[123.23827945100004,13.610243088000061],[123.23985952800001,13.611414314000058],[123.24379186100009,13.618139344000042],[123.24334689000011,13.61976807700006],[123.2460949550001,13.620483893000028],[123.2457845670001,13.62238553900005],[123.24880180200012,13.623077645000023],[123.24994286200001,13.620458163000023],[123.24883336900007,13.61834893200006],[123.25154703800001,13.619136484000023],[123.25194132500008,13.617278273000068],[123.25724792300002,13.617074241000068],[123.2626076890001,13.622428402000025],[123.26803620100009,13.622400104000064],[123.26820441500001,13.625962885000035],[123.27172336800004,13.628301273000034],[123.27221749600005,13.630740279000065],[123.27555305700002,13.629548984000053],[123.27667617400004,13.63052003100006],[123.2766449070001,13.62826530600006],[123.27995983700009,13.628979815000037],[123.27995167800009,13.632035880000046],[123.28258109700005,13.632747046000077],[123.28250142800005,13.63454547200007],[123.28348942200012,13.633774731000074],[123.28420962000007,13.634967157000062],[123.28884977000007,13.63515456600004],[123.29066533900004,13.637369432000071],[123.29243504400006,13.63632130700006],[123.29296420900005,13.637488751000035],[123.2968424820001,13.637952220000045],[123.29845192200003,13.640381321000064],[123.2998047100001,13.639612733000035],[123.30371732900005,13.643207149000034],[123.30647368000007,13.642723968000041],[123.3067779160001,13.644203017000052],[123.30911868800001,13.644706986000074],[123.30998197100007,13.643285155000058],[123.31041195400007,13.644967807000057],[123.3137916070001,13.645333152000035],[123.31423199500011,13.647141350000027],[123.31541523900012,13.646304685000075],[123.31835544700004,13.649775145000035],[123.33137832500006,13.647486701000048],[123.33809928800008,13.649311598000054],[123.3477394360001,13.64750457100007],[123.35961638600008,13.650259339000058],[123.36593399100002,13.649047242000051],[123.37157890700007,13.650994744000059],[123.3764742400001,13.655068811000035],[123.36644016100001,13.660110209000038],[123.3253712610001,13.674360222000075],[123.30269445500005,13.674295123000036],[123.29450854900006,13.669675639000047],[123.29194704500003,13.67298190400004],[123.28548857900012,13.672370147000038],[123.26264759600008,13.665204790000075]]]}}]}
