{"type":"FeatureCollection","source":{"dataset":"geoBoundaries gbOpen PHL ADM3","commit":"9469f09","license":"CC BY 3.0 IGO","boundary_year":2020,"url":"https://media.githubusercontent.com/media/wmgeolab/geoBoundaries/9469f09/releaseData/gbOpen/PHL/ADM3/geoBoundaries-PHL-ADM3_simplified.geojson","upstream_sources":["NAMRIA","PSA","OCHA Philippines"],"reference":"https://ulap-nga.georisk.gov.ph/arcgis/rest/services/PSA/Municipal/MapServer/0","psgc_reference":"https://psa.gov.ph/classification/psgc/provinces/0200000000","notice":"Approximate planning/reference boundaries, not legal, cadastral, or survey-grade."},"features":[{"type":"Feature","properties":{"shapeName":"Ambaguio","shapeISO":"","shapeID":"30758251B68049243059466","shapeGroup":"PHL","shapeType":"ADM3","psgc_code":"0205001000","legacy_psgc_code":"025001000","province":"Nueva Vizcaya"},"geometry":{"type":"Polygon","coordinates":[[[121.06839382900012,16.44682279600005],[121.07055288300012,16.45434932300003],[121.07201009900007,16.48373352400006],[121.09523099400008,16.51032389900007],[121.09566999300012,16.537099315000034],[121.11569657500002,16.550685154000064],[121.12165396900002,16.552472375000036],[121.1139025980001,16.55736265200005],[121.09476312700008,16.562176953000062],[121.09423273200002,16.585511902000064],[121.10806148800009,16.594452027000045],[121.111555167,16.594535004000022],[121.10563417500009,16.63056137700005],[121.0721316260001,16.62783025400006],[121.03570305200003,16.61000610700006],[121.02794433300005,16.602274068000042],[120.98396101600008,16.569654786000058],[120.99213142100007,16.522645709000074],[120.99303123300001,16.497338241000023],[121.00351052000008,16.48612193100007],[121.01013539100006,16.48561309100006],[121.01258876500003,16.483589377000044],[121.01954597800011,16.48521824100004],[121.0315352450001,16.478346043000045],[121.03127688000006,16.451598760000024],[121.06839382900012,16.44682279600005]]]}},{"type":"Feature","properties":{"shapeName":"Aritao","shapeISO":"","shapeID":"30758251B32564665181621","shapeGroup":"PHL","shapeType":"ADM3","psgc_code":"0205002000","legacy_psgc_code":"025002000","province":"Nueva Vizcaya"},"geometry":{"type":"Polygon","coordinates":[[[121.05529531600007,16.328829747000043],[121.04249895800001,16.32669629700007],[121.02229610000006,16.34484532700003],[120.99926188800009,16.350081019000072],[120.99737113300012,16.348059301000035],[120.9968332300001,16.332796897000037],[120.99448757700009,16.324278477000064],[120.97474442000009,16.310177843000076],[120.96677657400005,16.315389469000024],[120.95226906000005,16.294587316000047],[120.94716564400005,16.293558414000074],[120.92702769800007,16.284634652000022],[120.93669706500009,16.25216437200004],[120.91760763600007,16.228925753000055],[120.95078226400005,16.225046802000065],[120.94951254700004,16.209772131000022],[120.9512301640001,16.20693942500003],[120.95861212700004,16.208073649000028],[120.98295336600006,16.19733954900005],[120.99799294400009,16.181415290000075],[121.02922320700009,16.16655634600005],[121.0486064700001,16.179939276000027],[121.05576197000005,16.18073412600006],[121.04988548000006,16.173362960000077],[121.04909399200005,16.166784609000047],[121.0508293370001,16.164310200000045],[121.04886476400009,16.16014629800003],[121.06197907,16.14847340500006],[121.06374579800001,16.141192942000032],[121.06305620900002,16.137358774000063],[121.06829229900006,16.13471942500007],[121.06965055300009,16.130915724000033],[121.07154797600003,16.131568431000062],[121.07305615400003,16.127074366000045],[121.07445959900008,16.127412495000044],[121.07495017300005,16.123685274000024],[121.0878713080001,16.11399938200003],[121.11397372600004,16.112773978000064],[121.11953343000005,16.113344204000043],[121.12224200300011,16.115339995000056],[121.12032985000008,16.138846642000033],[121.11257818500007,16.15499614600003],[121.0978211790001,16.196867652000037],[121.09554164100007,16.20718555800005],[121.10262020500011,16.21990297800005],[121.10286015600002,16.225301883000043],[121.10489974300003,16.22782137200005],[121.10553906200005,16.23826913000005],[121.0997591250001,16.259507038000038],[121.09250060000011,16.267840901000056],[121.08284191700011,16.28387082200004],[121.07486656600008,16.291482134000034],[121.05982868800004,16.310448175000033],[121.05901087200004,16.318549499000028],[121.05529531600007,16.328829747000043]]]}},{"type":"Feature","properties":{"shapeName":"Bagabag","shapeISO":"","shapeID":"30758251B74159720492186","shapeGroup":"PHL","shapeType":"ADM3","psgc_code":"0205003000","legacy_psgc_code":"025003000","province":"Nueva Vizcaya"},"geometry":{"type":"Polygon","coordinates":[[[121.28616128200008,16.656926525000074],[121.28061660100002,16.662655637000057],[121.2791743460001,16.66752044800006],[121.27643328400006,16.668528836000064],[121.27114555700007,16.66374496000003],[121.26945907100003,16.65898873200007],[121.26409251200005,16.66059170400007],[121.26038281600006,16.658331729000054],[121.25888818800001,16.651144153000075],[121.25375953500009,16.651054369000065],[121.25215918900005,16.652687425000067],[121.24973305500009,16.65093738400003],[121.24685897900008,16.65213897700005],[121.24382273600008,16.651306830000067],[121.24113495000006,16.65394168000006],[121.23604050400002,16.654163596000046],[121.23259590200007,16.649162278000063],[121.22856622600011,16.649567784000055],[121.2247125880001,16.64795734200004],[121.22241256600012,16.644663473000037],[121.2131224530001,16.64572067000006],[121.21188340900005,16.64166614100003],[121.20447204100003,16.642877503000022],[121.20192679400009,16.639796981000075],[121.19774842600009,16.638961271000028],[121.18570790600006,16.640736224000023],[121.17669574000001,16.64026983900004],[121.17642691200001,16.63519724400004],[121.17944382100006,16.634296714000072],[121.18473209600006,16.629494779000026],[121.18522387100006,16.62192129300007],[121.19393907100005,16.620541021000065],[121.193749668,16.614900324000075],[121.20082595800011,16.60761110900006],[121.20257140100011,16.601633486000026],[121.207836788,16.600531991000025],[121.20717167900011,16.594850243000053],[121.20480529600002,16.590447057000063],[121.20294644000012,16.588880474000064],[121.20059350800011,16.590311411000073],[121.19756936400006,16.588024863000044],[121.19855501300003,16.585367048000023],[121.19576945200004,16.585710625000047],[121.19953745600003,16.58036271800006],[121.19857440700002,16.57846850800007],[121.2146887770001,16.58426343000002],[121.22166968700003,16.57258709100006],[121.22145555800012,16.555185150000057],[121.2239735070001,16.54853253700003],[121.23477248300003,16.547856354000032],[121.23679315800007,16.54984552700006],[121.2411918360001,16.54745277400002],[121.24768044300004,16.546993059000044],[121.25477924900008,16.542215614000042],[121.251053425,16.539266130000044],[121.281962786,16.528650377000076],[121.28800527500005,16.53836152200006],[121.30024451500003,16.54717798400003],[121.30218656500006,16.546096393000028],[121.30242282800009,16.543821593000075],[121.30428466600006,16.54531143400004],[121.30902746700008,16.542708060000052],[121.310852812,16.54463131800003],[121.31131926400008,16.54208441800006],[121.31313398400005,16.543799972000045],[121.31562001900011,16.542112657000075],[121.31584972300004,16.54587196500006],[121.31827452000005,16.54390568100007],[121.32039012500002,16.545094020000022],[121.32244562900007,16.542230576000065],[121.3243993640001,16.54315338600003],[121.32649426100011,16.54084200400007],[121.33074081500001,16.54134948600006],[121.31876072300008,16.584349705000022],[121.3167928470001,16.600841717000037],[121.31405389200006,16.60671037900005],[121.319432978,16.619927381000025],[121.30982003000008,16.624899304000053],[121.30753375600011,16.631044365000037],[121.30816387200002,16.63397337300006],[121.30378559400003,16.639017120000062],[121.30534482700011,16.642277814000067],[121.30304198700003,16.64356745400005],[121.2992848450001,16.64266125300003],[121.29879670800005,16.646010643000068],[121.29703651500006,16.64758501400007],[121.29744843100002,16.65028494300003],[121.29465222100009,16.649397923000038],[121.29210423600011,16.651230829000042],[121.29018223500009,16.65085186600004],[121.28616128200008,16.656926525000074]]]}},{"type":"Feature","properties":{"shapeName":"Bambang","shapeISO":"","shapeID":"30758251B54478604625017","shapeGroup":"PHL","shapeType":"ADM3","psgc_code":"0205004000","legacy_psgc_code":"025004000","province":"Nueva Vizcaya"},"geometry":{"type":"Polygon","coordinates":[[[121.03127688000006,16.451598760000024],[121.02679088700006,16.452296748000037],[121.01321413100004,16.437029254000038],[120.99319999000011,16.38908493200006],[120.99926188800009,16.350081019000072],[121.02229610000006,16.34484532700003],[121.04249895800001,16.32669629700007],[121.05529531600007,16.328829747000043],[121.05243099600011,16.336462004000055],[121.07199008300006,16.33036222100003],[121.07089938600006,16.325719845000037],[121.07401596200009,16.32489453000005],[121.09959920900008,16.330958082000052],[121.09917783700007,16.333479644000022],[121.10207828500006,16.338830346000066],[121.10870014800003,16.338082013000076],[121.1243864700001,16.341653362000045],[121.13069497300012,16.33401125000006],[121.16974058700009,16.33230919600004],[121.17685323400008,16.38794561700007],[121.18109262300004,16.39265420600003],[121.18673319200002,16.393478422000044],[121.18784400600009,16.405816319000053],[121.22212838900009,16.417760630000032],[121.2239116080001,16.42687794400007],[121.18043867800009,16.433465841000043],[121.14102828900002,16.436196969000036],[121.10874362700008,16.432781197000054],[121.0760806940001,16.440925437000033],[121.06839382900012,16.44682279600005],[121.03127688000006,16.451598760000024]]]}},{"type":"Feature","properties":{"shapeName":"Bayombong","shapeISO":"","shapeID":"30758251B92407416311106","shapeGroup":"PHL","shapeType":"ADM3","psgc_code":"0205005000","legacy_psgc_code":"025005000","province":"Nueva Vizcaya"},"geometry":{"type":"Polygon","coordinates":[[[121.06839382900012,16.44682279600005],[121.0760806940001,16.440925437000033],[121.10874362700008,16.432781197000054],[121.14102828900002,16.436196969000036],[121.18043867800009,16.433465841000043],[121.2239116080001,16.42687794400007],[121.2348447170001,16.44236892500004],[121.2322888010001,16.45359225800007],[121.19292619100008,16.486917050000045],[121.19567546200005,16.488541619000046],[121.19044243500002,16.504279551000025],[121.18179971300003,16.50805293800005],[121.17620822200001,16.50890866700007],[121.15073718400004,16.52014637800005],[121.15281132900009,16.522823195000058],[121.14968081900008,16.52489440100004],[121.132791698,16.531031932000076],[121.1294613660001,16.53673925100003],[121.1290264810001,16.543768331000024],[121.12165396900002,16.552472375000036],[121.11569657500002,16.550685154000064],[121.09566999300012,16.537099315000034],[121.09523099400008,16.51032389900007],[121.07201009900007,16.48373352400006],[121.07055288300012,16.45434932300003],[121.06839382900012,16.44682279600005]]]}},{"type":"Feature","properties":{"shapeName":"Diadi","shapeISO":"","shapeID":"30758251B56267666888598","shapeGroup":"PHL","shapeType":"ADM3","psgc_code":"0205006000","legacy_psgc_code":"025006000","province":"Nueva Vizcaya"},"geometry":{"type":"Polygon","coordinates":[[[121.33074081500001,16.54134948600006],[121.33486162100007,16.54353210900007],[121.36183776000007,16.545607073000042],[121.38564717600002,16.51560742600003],[121.39264336400004,16.541548798000065],[121.39985675100002,16.607053096000072],[121.40832501300008,16.613597952000077],[121.41098123600011,16.613736247000077],[121.41383162800003,16.618890659000044],[121.41740695600004,16.620691883000063],[121.424899804,16.61928342500005],[121.43647493700007,16.623433001000024],[121.44575299200005,16.634300799000073],[121.43239537300008,16.638312126000073],[121.40618698600008,16.639204305000078],[121.4005889980001,16.64163803100007],[121.39661213300008,16.64523446800007],[121.3971688790001,16.64987794800004],[121.39026450500012,16.69443652700005],[121.37803094900005,16.722181686000056],[121.38941715600004,16.727348128000074],[121.38037066400011,16.736556165000025],[121.37057490500001,16.75200994000005],[121.36613663100002,16.753821986000048],[121.36317579100012,16.752735407000046],[121.3588821190001,16.753681501000074],[121.35368989100004,16.757178165000028],[121.35073532800004,16.75482642000003],[121.34893702200009,16.747466975000066],[121.34321809700009,16.745868922000057],[121.33933283500005,16.74758722100006],[121.33865075400001,16.75348573900004],[121.33381496900006,16.75193643800003],[121.33142686100007,16.737500328000067],[121.32927583800006,16.73422054200006],[121.32638383100004,16.733089630000052],[121.31434472400008,16.71791163300003],[121.31541259900007,16.701307632000066],[121.31376456600003,16.696882911000046],[121.31214757400005,16.697778868000057],[121.30436554300002,16.693060208000077],[121.29365355700008,16.694119219000072],[121.28837351600009,16.688370604000056],[121.28823650000004,16.686236734000033],[121.29188348000002,16.683741860000055],[121.29404244500006,16.679246117000048],[121.29137240400007,16.673553481000056],[121.29482832500003,16.663304078000067],[121.29182229600008,16.65921234700005],[121.28616128200008,16.656926525000074],[121.29018223500009,16.65085186600004],[121.29210423600011,16.651230829000042],[121.29465222100009,16.649397923000038],[121.29744843100002,16.65028494300003],[121.29703651500006,16.64758501400007],[121.29879670800005,16.646010643000068],[121.2992848450001,16.64266125300003],[121.30304198700003,16.64356745400005],[121.30534482700011,16.642277814000067],[121.30378559400003,16.639017120000062],[121.30816387200002,16.63397337300006],[121.30753375600011,16.631044365000037],[121.30982003000008,16.624899304000053],[121.319432978,16.619927381000025],[121.31405389200006,16.60671037900005],[121.3167928470001,16.600841717000037],[121.31876072300008,16.584349705000022],[121.33074081500001,16.54134948600006]]]}},{"type":"Feature","properties":{"shapeName":"Dupax del Norte","shapeISO":"","shapeID":"30758251B61086740814455","shapeGroup":"PHL","shapeType":"ADM3","psgc_code":"0205007000","legacy_psgc_code":"025007000","province":"Nueva Vizcaya"},"geometry":{"type":"Polygon","coordinates":[[[121.34075960900009,16.02196998100004],[121.36543708700003,16.066626002000078],[121.35063233500011,16.08875359700005],[121.34733566500006,16.088445242000034],[121.34699629700003,16.090827743000034],[121.33959771900004,16.079012976000058],[121.33944428500001,16.081160574000023],[121.33759390800003,16.080661383000063],[121.33801464100009,16.08305215000007],[121.33412161900003,16.084020813000052],[121.33004155200001,16.093953123000063],[121.32167984900002,16.094338203000063],[121.32221226900003,16.09575457400007],[121.31957864500009,16.100301788000024],[121.32037721200004,16.101725577000025],[121.31824516200004,16.103633600000023],[121.31376190800006,16.103822251000054],[121.31016108000006,16.114138549000074],[121.3014081120001,16.117928832000075],[121.30192621100002,16.11919210800005],[121.30383399900006,16.11895419500007],[121.30447043000004,16.121840417000044],[121.299556875,16.125551811000037],[121.29931867800008,16.127656315000024],[121.29763804100003,16.126824474000045],[121.29780319600002,16.128949764000026],[121.29436819200009,16.131882976000043],[121.2945684010001,16.134821827000053],[121.29212170900007,16.134508866000033],[121.29104325300011,16.135831850000045],[121.29071932800002,16.13441490100007],[121.28935733800006,16.134699643000033],[121.28964305600005,16.137084980000054],[121.28712870100003,16.136750848000077],[121.2844832080001,16.14018216200003],[121.28462499900002,16.144840660000057],[121.2858793580001,16.145210269000074],[121.28551771200011,16.147964469000044],[121.28692644500006,16.149512747000074],[121.28587908200006,16.149241709000023],[121.2850929440001,16.151655636000044],[121.28310498200005,16.151274922000027],[121.28359984000008,16.157253586000024],[121.27740099100004,16.161854126000037],[121.28687355400007,16.16680192800004],[121.3070017770001,16.156876356000055],[121.32651811800008,16.157835947000024],[121.33554269800004,16.173060719000034],[121.31394964800006,16.17928840600007],[121.30075904500006,16.20114096900005],[121.29989098200008,16.209559719000026],[121.29738218000011,16.23670707100007],[121.27466945000003,16.267447548000064],[121.25381234000008,16.279909237000027],[121.23642888900008,16.271743787000048],[121.20399027500002,16.310373087000073],[121.17867264100005,16.321142058000078],[121.16974058700009,16.33230919600004],[121.13069497300012,16.33401125000006],[121.1243864700001,16.341653362000045],[121.10870014800003,16.338082013000076],[121.10207828500006,16.338830346000066],[121.09917783700007,16.333479644000022],[121.09959920900008,16.330958082000052],[121.07401596200009,16.32489453000005],[121.07089938600006,16.325719845000037],[121.07065457100009,16.323945396000056],[121.0805790070001,16.30700252200006],[121.0903609390001,16.304067426000074],[121.10103754300007,16.294931947000066],[121.11561228800008,16.290196184000024],[121.1202152510001,16.29067636800005],[121.15414655900008,16.278829463000022],[121.17794894800011,16.237535336000064],[121.2023800290001,16.20008229900003],[121.21087675100011,16.18251274200003],[121.21707283500007,16.18218829800003],[121.21822206700006,16.185067882000055],[121.22305955900003,16.186281484000062],[121.23117819400011,16.180243327000028],[121.22911451900006,16.17739490200006],[121.23075130900008,16.174977124000065],[121.23037177800006,16.170112811000024],[121.23383581100006,16.17257358300003],[121.234237516,16.170209879000026],[121.23687748500004,16.169757505000064],[121.23516728300001,16.167241957000044],[121.23786916900008,16.16550528500005],[121.237143564,16.163222911000048],[121.24107783900001,16.16391458100003],[121.24362939000002,16.160389085000077],[121.2436396380001,16.153379358000052],[121.24240205000001,16.15200165500005],[121.25826901900007,16.132539930000064],[121.28547905800008,16.090124281000044],[121.29569712800003,16.02824997400006],[121.34075960900009,16.02196998100004]]]}},{"type":"Feature","properties":{"shapeName":"Dupax del Sur","shapeISO":"","shapeID":"30758251B45953975988302","shapeGroup":"PHL","shapeType":"ADM3","psgc_code":"0205008000","legacy_psgc_code":"025008000","province":"Nueva Vizcaya"},"geometry":{"type":"Polygon","coordinates":[[[121.29569712800003,16.02824997400006],[121.28547905800008,16.090124281000044],[121.25826901900007,16.132539930000064],[121.24240205000001,16.15200165500005],[121.2436396380001,16.153379358000052],[121.24362939000002,16.160389085000077],[121.24107783900001,16.16391458100003],[121.237143564,16.163222911000048],[121.23786916900008,16.16550528500005],[121.23516728300001,16.167241957000044],[121.23687748500004,16.169757505000064],[121.234237516,16.170209879000026],[121.23383581100006,16.17257358300003],[121.23037177800006,16.170112811000024],[121.23075130900008,16.174977124000065],[121.22911451900006,16.17739490200006],[121.23117819400011,16.180243327000028],[121.22305955900003,16.186281484000062],[121.21822206700006,16.185067882000055],[121.21707283500007,16.18218829800003],[121.21087675100011,16.18251274200003],[121.2023800290001,16.20008229900003],[121.17794894800011,16.237535336000064],[121.15414655900008,16.278829463000022],[121.1202152510001,16.29067636800005],[121.11561228800008,16.290196184000024],[121.10103754300007,16.294931947000066],[121.0903609390001,16.304067426000074],[121.0805790070001,16.30700252200006],[121.07065457100009,16.323945396000056],[121.07089938600006,16.325719845000037],[121.07199008300006,16.33036222100003],[121.05243099600011,16.336462004000055],[121.05529531600007,16.328829747000043],[121.05901087200004,16.318549499000028],[121.05982868800004,16.310448175000033],[121.07486656600008,16.291482134000034],[121.08284191700011,16.28387082200004],[121.09250060000011,16.267840901000056],[121.0997591250001,16.259507038000038],[121.10553906200005,16.23826913000005],[121.10489974300003,16.22782137200005],[121.10286015600002,16.225301883000043],[121.10262020500011,16.21990297800005],[121.09554164100007,16.20718555800005],[121.0978211790001,16.196867652000037],[121.11257818500007,16.15499614600003],[121.12032985000008,16.138846642000033],[121.12224200300011,16.115339995000056],[121.13451531900012,16.106296174000022],[121.14185030100009,16.104218253000056],[121.15619023800002,16.096400637000045],[121.17424918400002,16.090108902000054],[121.18248110400009,16.079479501000037],[121.18504504700002,16.07174795900005],[121.19210574800002,15.997633897000071],[121.18967127600001,15.977104733000033],[121.18785990100002,15.948386911000057],[121.1924981950001,15.942888391000054],[121.19399818500005,15.922087606000048],[121.22285791500008,15.872750951000057],[121.24957648000009,15.99702312900007],[121.23741815300002,16.017971190000026],[121.26517004700008,16.030457456000022],[121.29569712800003,16.02824997400006]]]}},{"type":"Feature","properties":{"shapeName":"Kasibu","shapeISO":"","shapeID":"30758251B8018524244624","shapeGroup":"PHL","shapeType":"ADM3","psgc_code":"0205009000","legacy_psgc_code":"025009000","province":"Nueva Vizcaya"},"geometry":{"type":"Polygon","coordinates":[[[121.520757752,16.339014960000043],[121.47877953800003,16.350285926000026],[121.48150201400006,16.357183331000044],[121.43716017000008,16.383300146000067],[121.44860449300006,16.42811832900003],[121.42291650800007,16.428137504000063],[121.40003235000006,16.434969730000034],[121.37686570300002,16.451005424000073],[121.34172063800008,16.431035817000065],[121.32277230500006,16.40571202600006],[121.28844037600004,16.39982915300004],[121.26020456700007,16.423810883000044],[121.2239116080001,16.42687794400007],[121.22212838900009,16.417760630000032],[121.18784400600009,16.405816319000053],[121.18673319200002,16.393478422000044],[121.18109262300004,16.39265420600003],[121.17685323400008,16.38794561700007],[121.16974058700009,16.33230919600004],[121.17867264100005,16.321142058000078],[121.20399027500002,16.310373087000073],[121.23642888900008,16.271743787000048],[121.25381234000008,16.279909237000027],[121.27466945000003,16.267447548000064],[121.29738218000011,16.23670707100007],[121.29989098200008,16.209559719000026],[121.32918279100011,16.200524123000037],[121.34825628400006,16.196709424000062],[121.38376232500002,16.201110999000036],[121.4101432010001,16.221784153000044],[121.41985524200004,16.231628588000035],[121.432033595,16.254100451000056],[121.43811692400004,16.25979982700005],[121.44370747800008,16.26220938800003],[121.4459685060001,16.264881996000042],[121.45100416800005,16.264346443000022],[121.45368998700008,16.266388929000072],[121.45764799100004,16.266509120000023],[121.46681068100008,16.270629730000053],[121.472016585,16.278176337000048],[121.47093498200002,16.281227200000046],[121.47673908700006,16.283631867000054],[121.48071900200011,16.28747204900003],[121.47994756900005,16.29007652000007],[121.48319515300011,16.29348514900005],[121.49249199500002,16.29880253600004],[121.4948758160001,16.301749236000035],[121.49598258900005,16.310331203000032],[121.50003406400003,16.31419442200007],[121.50639002100002,16.316034303000038],[121.50990650300002,16.321016833000044],[121.51472631100012,16.324598336000065],[121.51307404700003,16.329815103000044],[121.51888230300005,16.334835833000056],[121.520757752,16.339014960000043]]]}},{"type":"Feature","properties":{"shapeName":"Kayapa","shapeISO":"","shapeID":"30758251B81196974084886","shapeGroup":"PHL","shapeType":"ADM3","psgc_code":"0205010000","legacy_psgc_code":"025010000","province":"Nueva Vizcaya"},"geometry":{"type":"Polygon","coordinates":[[[120.98396101600008,16.569654786000058],[120.97311089400011,16.56944960800007],[120.96566817200005,16.573327359000075],[120.94753998600004,16.57919712100005],[120.9399374620001,16.585082947000046],[120.92950614800009,16.600053544000048],[120.90440899500004,16.595359904000077],[120.89210972500007,16.558460226000022],[120.88320633500007,16.50539150700007],[120.889427,16.436073],[120.87814482400006,16.421579058000077],[120.8711584460001,16.384243957000024],[120.86392001700005,16.374813353000036],[120.86034722400007,16.353388911000025],[120.84552298100004,16.319500078000033],[120.82832254100003,16.31969874500004],[120.82317702600005,16.31852931000003],[120.81592652800009,16.31314990800007],[120.81311988300001,16.303560539000046],[120.80005260900009,16.304845744000033],[120.78636563100008,16.255991836000078],[120.80828311000005,16.255101317000026],[120.87706298400008,16.231806279000068],[120.91760763600007,16.228925753000055],[120.93669706500009,16.25216437200004],[120.92702769800007,16.284634652000022],[120.94716564400005,16.293558414000074],[120.95226906000005,16.294587316000047],[120.96677657400005,16.315389469000024],[120.97474442000009,16.310177843000076],[120.99448757700009,16.324278477000064],[120.9968332300001,16.332796897000037],[120.99737113300012,16.348059301000035],[120.99926188800009,16.350081019000072],[120.99319999000011,16.38908493200006],[121.01321413100004,16.437029254000038],[121.02679088700006,16.452296748000037],[121.03127688000006,16.451598760000024],[121.0315352450001,16.478346043000045],[121.01954597800011,16.48521824100004],[121.01258876500003,16.483589377000044],[121.01013539100006,16.48561309100006],[121.00351052000008,16.48612193100007],[120.99303123300001,16.497338241000023],[120.99213142100007,16.522645709000074],[120.98396101600008,16.569654786000058]]]}},{"type":"Feature","properties":{"shapeName":"Quezon","shapeISO":"","shapeID":"30758251B12322451453842","shapeGroup":"PHL","shapeType":"ADM3","psgc_code":"0205011000","legacy_psgc_code":"025011000","province":"Nueva Vizcaya"},"geometry":{"type":"Polygon","coordinates":[[[121.251053425,16.539266130000044],[121.23386330100004,16.522704039000075],[121.2231253550001,16.50754011400005],[121.2188378410001,16.504151421000074],[121.20892449400003,16.501944550000076],[121.20125384000005,16.495759579000037],[121.19567546200005,16.488541619000046],[121.19292619100008,16.486917050000045],[121.2322888010001,16.45359225800007],[121.2348447170001,16.44236892500004],[121.2239116080001,16.42687794400007],[121.26020456700007,16.423810883000044],[121.28844037600004,16.39982915300004],[121.32277230500006,16.40571202600006],[121.34172063800008,16.431035817000065],[121.37686570300002,16.451005424000073],[121.3577187190001,16.498419118000072],[121.3633466230001,16.507124376000036],[121.38468610900009,16.506486988000063],[121.38564717600002,16.51560742600003],[121.36183776000007,16.545607073000042],[121.33486162100007,16.54353210900007],[121.33074081500001,16.54134948600006],[121.32649426100011,16.54084200400007],[121.3243993640001,16.54315338600003],[121.32244562900007,16.542230576000065],[121.32039012500002,16.545094020000022],[121.31827452000005,16.54390568100007],[121.31584972300004,16.54587196500006],[121.31562001900011,16.542112657000075],[121.31313398400005,16.543799972000045],[121.31131926400008,16.54208441800006],[121.310852812,16.54463131800003],[121.30902746700008,16.542708060000052],[121.30428466600006,16.54531143400004],[121.30242282800009,16.543821593000075],[121.30218656500006,16.546096393000028],[121.30024451500003,16.54717798400003],[121.28800527500005,16.53836152200006],[121.281962786,16.528650377000076],[121.251053425,16.539266130000044]]]}},{"type":"Feature","properties":{"shapeName":"Santa Fe","shapeISO":"","shapeID":"30758251B84438327849244","shapeGroup":"PHL","shapeType":"ADM3","psgc_code":"0205012000","legacy_psgc_code":"025012000","province":"Nueva Vizcaya"},"geometry":{"type":"Polygon","coordinates":[[[120.91760763600007,16.228925753000055],[120.87706298400008,16.231806279000068],[120.80828311000005,16.255101317000026],[120.78636563100008,16.255991836000078],[120.76896590800004,16.198033657000053],[120.80119503800006,16.187660433000076],[120.84150888600004,16.168612326000073],[120.8578886040001,16.13026056500007],[120.87044651800011,16.118870179000055],[120.92521313600002,16.132778591000033],[120.94003228000008,16.133600949000027],[120.95888078900009,16.132038289000036],[120.98789352400001,16.125824962000024],[120.99308113400002,16.13366633000004],[120.9987737030001,16.13651125800004],[121.03710740100007,16.13830442400007],[121.04773934000002,16.137989391000076],[121.055959701,16.134926483000072],[121.06330842200009,16.13206864700004],[121.07495017300005,16.123685274000024],[121.07445959900008,16.127412495000044],[121.07305615400003,16.127074366000045],[121.07154797600003,16.131568431000062],[121.06965055300009,16.130915724000033],[121.06829229900006,16.13471942500007],[121.06305620900002,16.137358774000063],[121.06374579800001,16.141192942000032],[121.06197907,16.14847340500006],[121.04886476400009,16.16014629800003],[121.0508293370001,16.164310200000045],[121.04909399200005,16.166784609000047],[121.04988548000006,16.173362960000077],[121.05576197000005,16.18073412600006],[121.0486064700001,16.179939276000027],[121.02922320700009,16.16655634600005],[120.99799294400009,16.181415290000075],[120.98295336600006,16.19733954900005],[120.95861212700004,16.208073649000028],[120.9512301640001,16.20693942500003],[120.94951254700004,16.209772131000022],[120.95078226400005,16.225046802000065],[120.91760763600007,16.228925753000055]]]}},{"type":"Feature","properties":{"shapeName":"Solano","shapeISO":"","shapeID":"30758251B33940729335702","shapeGroup":"PHL","shapeType":"ADM3","psgc_code":"0205013000","legacy_psgc_code":"025013000","province":"Nueva Vizcaya"},"geometry":{"type":"Polygon","coordinates":[[[121.12165396900002,16.552472375000036],[121.1290264810001,16.543768331000024],[121.1294613660001,16.53673925100003],[121.132791698,16.531031932000076],[121.14968081900008,16.52489440100004],[121.15281132900009,16.522823195000058],[121.15073718400004,16.52014637800005],[121.17620822200001,16.50890866700007],[121.18179971300003,16.50805293800005],[121.19044243500002,16.504279551000025],[121.19567546200005,16.488541619000046],[121.20125384000005,16.495759579000037],[121.20892449400003,16.501944550000076],[121.2188378410001,16.504151421000074],[121.2231253550001,16.50754011400005],[121.23386330100004,16.522704039000075],[121.251053425,16.539266130000044],[121.25477924900008,16.542215614000042],[121.24768044300004,16.546993059000044],[121.2411918360001,16.54745277400002],[121.23679315800007,16.54984552700006],[121.23477248300003,16.547856354000032],[121.2239735070001,16.54853253700003],[121.22145555800012,16.555185150000057],[121.22166968700003,16.57258709100006],[121.2146887770001,16.58426343000002],[121.19857440700002,16.57846850800007],[121.1945010720001,16.575769],[121.19356646300002,16.572419610000054],[121.19142375800004,16.572750849000045],[121.19058530900008,16.570235500000024],[121.17527393900002,16.57507749000007],[121.17242432700004,16.57150629800003],[121.17261604100008,16.574152621000053],[121.1713081150001,16.574806584000044],[121.17023656200001,16.57323864800003],[121.1678885980001,16.573585328000036],[121.16777979000005,16.571416002000035],[121.16345118400011,16.571580182000048],[121.16029915900003,16.569219795000038],[121.15381354100009,16.57075949400007],[121.15217942700008,16.56840636900006],[121.14981177700008,16.56914716800003],[121.14938895900002,16.56754436800003],[121.14522048100002,16.56752391400005],[121.14424463300008,16.57033227100004],[121.14216958800012,16.56749736200004],[121.14048882700001,16.569379083000058],[121.13727345900008,16.567168518000074],[121.12734722900007,16.568301204000022],[121.12551422500007,16.567320761000076],[121.12204727400001,16.569329951000043],[121.12192938400005,16.592330377000053],[121.111555167,16.594535004000022],[121.10806148800009,16.594452027000045],[121.09423273200002,16.585511902000064],[121.09476312700008,16.562176953000062],[121.1139025980001,16.55736265200005],[121.12165396900002,16.552472375000036]]]}},{"type":"Feature","properties":{"shapeName":"Villaverde","shapeISO":"","shapeID":"30758251B74337145174086","shapeGroup":"PHL","shapeType":"ADM3","psgc_code":"0205014000","legacy_psgc_code":"025014000","province":"Nueva Vizcaya"},"geometry":{"type":"Polygon","coordinates":[[[121.111555167,16.594535004000022],[121.12192938400005,16.592330377000053],[121.12204727400001,16.569329951000043],[121.12551422500007,16.567320761000076],[121.12734722900007,16.568301204000022],[121.13727345900008,16.567168518000074],[121.14048882700001,16.569379083000058],[121.14216958800012,16.56749736200004],[121.14424463300008,16.57033227100004],[121.14522048100002,16.56752391400005],[121.14938895900002,16.56754436800003],[121.14981177700008,16.56914716800003],[121.15217942700008,16.56840636900006],[121.15381354100009,16.57075949400007],[121.16029915900003,16.569219795000038],[121.16345118400011,16.571580182000048],[121.16777979000005,16.571416002000035],[121.1678885980001,16.573585328000036],[121.17023656200001,16.57323864800003],[121.1713081150001,16.574806584000044],[121.17261604100008,16.574152621000053],[121.17242432700004,16.57150629800003],[121.17527393900002,16.57507749000007],[121.19058530900008,16.570235500000024],[121.19142375800004,16.572750849000045],[121.19356646300002,16.572419610000054],[121.1945010720001,16.575769],[121.19857440700002,16.57846850800007],[121.19953745600003,16.58036271800006],[121.19576945200004,16.585710625000047],[121.19855501300003,16.585367048000023],[121.19756936400006,16.588024863000044],[121.20059350800011,16.590311411000073],[121.20294644000012,16.588880474000064],[121.20480529600002,16.590447057000063],[121.20717167900011,16.594850243000053],[121.207836788,16.600531991000025],[121.20257140100011,16.601633486000026],[121.20082595800011,16.60761110900006],[121.193749668,16.614900324000075],[121.19393907100005,16.620541021000065],[121.18522387100006,16.62192129300007],[121.18473209600006,16.629494779000026],[121.17944382100006,16.634296714000072],[121.17642691200001,16.63519724400004],[121.17669574000001,16.64026983900004],[121.1736839570001,16.64460975800006],[121.17142293100005,16.64422356400007],[121.16990730400005,16.645897642000023],[121.16530926000007,16.64441092900006],[121.1643813180001,16.64223175500007],[121.1631951820001,16.64301448300006],[121.16220551600009,16.63904075000005],[121.16058286600003,16.63868909200005],[121.152656578,16.64209366800003],[121.1354977630001,16.64474705200007],[121.13232954300008,16.642482554000026],[121.12661635900008,16.64165154500006],[121.12262751800006,16.63830673600006],[121.10563417500009,16.63056137700005],[121.111555167,16.594535004000022]]]}},{"type":"Feature","properties":{"shapeName":"Alfonso Castaneda","shapeISO":"","shapeID":"30758251B24689590094484","shapeGroup":"PHL","shapeType":"ADM3","psgc_code":"0205015000","legacy_psgc_code":"025015000","province":"Nueva Vizcaya"},"geometry":{"type":"Polygon","coordinates":[[[121.46354426900007,15.926616156000023],[121.4586828890001,15.928803778000031],[121.45809948700003,15.931372452000062],[121.45498507800005,15.931006051000054],[121.44976386400003,15.935494464000044],[121.44589005000012,15.934052578000035],[121.44317203500009,15.937676597000063],[121.44036342000004,15.936710192000078],[121.37090042000011,15.997911264000038],[121.34075960900009,16.02196998100004],[121.29569712800003,16.02824997400006],[121.26517004700008,16.030457456000022],[121.23741815300002,16.017971190000026],[121.24957648000009,15.99702312900007],[121.22285791500008,15.872750951000057],[121.28033899700006,15.76713201800004],[121.28476349300001,15.75441853700005],[121.28990313700001,15.766188077000038],[121.30590318500003,15.782124190000047],[121.30804924200004,15.788075675000073],[121.31631513200011,15.797562891000041],[121.31660385400005,15.804170806000059],[121.37376803400002,15.831617787000027],[121.47114962,15.886741050000069],[121.46849811800007,15.910028039000053],[121.47089792000008,15.925374537000039],[121.46354426900007,15.926616156000023]]]}}]}
