{"type":"FeatureCollection","source":{"dataset":"geoBoundaries gbOpen PHL ADM3","commit":"9469f09","license":"CC BY 3.0 IGO","boundary_year":2020,"url":"https://media.githubusercontent.com/media/wmgeolab/geoBoundaries/9469f09/releaseData/gbOpen/PHL/ADM3/geoBoundaries-PHL-ADM3_simplified.geojson","upstream_sources":["NAMRIA","PSA","OCHA Philippines"],"reference":"https://ulap-nga.georisk.gov.ph/arcgis/rest/services/PSA/Municipal/MapServer/0","psgc_reference":"https://psa.gov.ph/classification/psgc/provinces/1700000000","area_notes":"Four provinces use GeoRiskPH published polygon area; Palawan and Puerto Princesa use OCHA COD-AB v03 area_sqkm. These are polygon checks, not PSA LMB land-area totals. See MIMAROPA_BOUNDARY_SOURCES.md.","additional_reference":"https://data.humdata.org/dataset/cod-ab-phl","full_source_url":"https://media.githubusercontent.com/media/wmgeolab/geoBoundaries/9469f09/releaseData/gbOpen/PHL/ADM3/geoBoundaries-PHL-ADM3.geojson","notice":"Approximate planning/reference boundaries, not legal, cadastral, or survey-grade."},"features":[{"type":"Feature","properties":{"shapeName":"Abra de Ilog","shapeISO":"","shapeID":"30758251B36470920271092","shapeGroup":"PHL","shapeType":"ADM3","psgc_code":"1705101000","legacy_psgc_code":"175101000","province":"Occidental Mindoro"},"geometry":{"type":"Polygon","coordinates":[[[120.8837778190001,13.500751612000045],[120.87446623300002,13.497567187000072],[120.86349264300009,13.488211886000045],[120.85505609900008,13.484698481000066],[120.84743559000003,13.48488837800005],[120.84158648400012,13.48686800400003],[120.82705626000006,13.48278687900006],[120.8191038970001,13.47852008600006],[120.81287896300012,13.47854370500005],[120.79060536300005,13.469401507000043],[120.78573644000005,13.468430401000035],[120.77864403300009,13.470002579000038],[120.772909475,13.467623078000031],[120.77182416300002,13.468976177000059],[120.77069397500009,13.466572141000029],[120.76133272000004,13.464587221000045],[120.75568766000004,13.466485607000038],[120.75286056800007,13.465380244000073],[120.75317066100001,13.467147072000046],[120.74741954400008,13.465100094000036],[120.7339961780001,13.470497549000072],[120.72328420600002,13.478391445000057],[120.7176390840001,13.480874284000038],[120.68352660900007,13.48666935600005],[120.6722465470001,13.491994790000035],[120.65502677100005,13.492695368000057],[120.64828069500004,13.48883418500003],[120.63899689900006,13.487731282000027],[120.62821333200009,13.489236188000064],[120.61544261400002,13.488319244000024],[120.60910445800005,13.49501501800006],[120.59501716500006,13.496375980000039],[120.58583789400006,13.50176633500007],[120.58269026500011,13.501818267000033],[120.58124550900004,13.456996359000073],[120.5844000510001,13.398428280000076],[120.58608251900012,13.379492422000055],[120.60042746600004,13.29402516700003],[120.65199931300003,13.276601154000048],[120.66795131200001,13.312127166000039],[120.67119217100003,13.315349510000033],[120.66999821400009,13.319455867000045],[120.67362929900003,13.321340810000038],[120.67641559800006,13.319119061000038],[120.67838536200009,13.321512703000053],[120.67855092500008,13.326489708000054],[120.68222840600004,13.32635613900004],[120.68516502200009,13.329325793000066],[120.68820929100002,13.329869840000072],[120.69029623900008,13.326132914000027],[120.6953981040001,13.323748038000076],[120.7017084370001,13.323687377000056],[120.70286650600008,13.319061990000023],[120.7066798400001,13.320440273000031],[120.71196325200003,13.314650270000072],[120.72031705100005,13.315504340000075],[120.71970712100006,13.311952339000072],[120.72142900500012,13.309251671000027],[120.72718279000003,13.314248703000032],[120.7318315650001,13.312795109000035],[120.73292936900009,13.315596179000067],[120.73872710700005,13.316104231000054],[120.7455228990001,13.309727688000066],[120.80067606600005,13.280248262000043],[120.82005116900007,13.312005979000048],[120.88162226100008,13.413462412000058],[120.88701512500006,13.422209404000057],[120.88741930700007,13.437486766000063],[120.88823823500002,13.477842442000053],[120.8837778190001,13.500751612000045]]]}},{"type":"Feature","properties":{"shapeName":"Calintaan","shapeISO":"","shapeID":"30758251B26098626095065","shapeGroup":"PHL","shapeType":"ADM3","psgc_code":"1705102000","legacy_psgc_code":"175102000","province":"Occidental Mindoro"},"geometry":{"type":"Polygon","coordinates":[[[121.12065881,12.688989942000035],[121.11847868200005,12.692008380000061],[121.11589684800003,12.690561216000049],[121.11544194100009,12.691622320000022],[120.95959823800001,12.697421984000073],[120.93691449900007,12.696189784000069],[120.88955060400008,12.678237326000044],[120.88671545000011,12.67516826900004],[120.88390890200003,12.675167593000026],[120.8851740550001,12.673062911000045],[120.88309714800005,12.671412537000037],[120.88702864600009,12.663445895000052],[120.89035231700007,12.659992637000073],[120.89368668400004,12.658052700000042],[120.89898148800012,12.658891435000044],[120.90146461900008,12.656961366000075],[120.91201456400006,12.639113303000045],[120.9190478270001,12.618923364000068],[120.92066712400003,12.618502824000075],[120.92216111000005,12.620010906000061],[120.92805587100008,12.614858393000077],[120.93432766600006,12.590575453000042],[120.93794010600004,12.583479713000031],[120.93874404900009,12.577034250000054],[120.93621483800007,12.562109511000074],[120.9343025170001,12.558834822000051],[120.92388567400008,12.550479579000068],[120.91986152900006,12.537890336000032],[120.93376609800009,12.534900891000063],[120.94061369200006,12.534895520000077],[120.94910021300007,12.526351341000066],[120.95645865800009,12.526657142000033],[120.96858914900008,12.523951606000026],[120.97990130000005,12.523485065000045],[120.98837641000011,12.52492268900005],[121.00036899700001,12.522416262000036],[121.00418013,12.524908760000073],[121.00982801600003,12.532074218000048],[121.01683518900006,12.553114522000044],[121.0260419660001,12.561274578000052],[121.03403313000001,12.564615232000051],[121.0439160200001,12.571345380000025],[121.04933900700007,12.578440765000039],[121.05341649900004,12.587343988000043],[121.05374007900002,12.596929542000055],[121.05802709400007,12.609304399000052],[121.063405482,12.613261629000021],[121.06580436900003,12.61738181800007],[121.06823510400011,12.625936654000043],[121.067392229,12.63778635600005],[121.06944741400002,12.640321330000063],[121.07557482400011,12.64577812300007],[121.08129999200003,12.647121285000026],[121.08901267200008,12.64598006600005],[121.09684203300003,12.647051356000077],[121.11224016900007,12.644223146000058],[121.1148419000001,12.648639833000061],[121.1272371880001,12.657793015000038],[121.12994213400009,12.667740941000034],[121.12766340900009,12.670228038000062],[121.12974514200005,12.674366280000072],[121.12860259800004,12.676831950000064],[121.12402387000009,12.678881655000055],[121.1243828900001,12.683814532000042],[121.11869798900011,12.684993003000045],[121.12065881,12.688989942000035]]]}},{"type":"Feature","properties":{"shapeName":"Looc","shapeISO":"","shapeID":"30758251B31470126644095","shapeGroup":"PHL","shapeType":"ADM3","psgc_code":"1705103000","legacy_psgc_code":"175103000","province":"Occidental Mindoro"},"geometry":{"type":"MultiPolygon","coordinates":[[[[120.304607916,13.682234509000068],[120.30445797800007,13.68053425200003],[120.31251718600004,13.676127332000021],[120.3167100500001,13.670348141000034],[120.32481895900003,13.666906288000064],[120.3294577900001,13.662520781000069],[120.33608889800007,13.662182772000051],[120.33736827500002,13.663873446000025],[120.34038002400007,13.664034153000046],[120.34751554000002,13.660693293000065],[120.35234344300011,13.65483002700006],[120.35728146000008,13.651300757000058],[120.3588950300001,13.651628655000025],[120.35946766400002,13.649954525000055],[120.36713159700003,13.650033939000025],[120.3766818900001,13.644847912000046],[120.37690103900002,13.64354110100004],[120.38146840500008,13.642905447000032],[120.38490260600008,13.64019410000003],[120.383795329,13.63537472400003],[120.38709535100008,13.635281890000044],[120.38723526100011,13.633182030000057],[120.39144962800003,13.63354208100003],[120.39535520000004,13.632125467000037],[120.39849718200003,13.633112391000054],[120.40458088100002,13.630180291000045],[120.40495954100004,13.628716264000047],[120.4107201810001,13.626786787000071],[120.41397665400007,13.627780511000026],[120.42042636800011,13.625426753000056],[120.42254968300006,13.626808940000046],[120.42386817800002,13.633579689000044],[120.42287584700011,13.641684618000056],[120.41877643700002,13.647378294000077],[120.41283705400008,13.651648759000068],[120.41162492700005,13.654637181000055],[120.40329021200012,13.65408383700003],[120.40024824500006,13.655801717000031],[120.39195038000003,13.653898226000024],[120.38744800600011,13.655007586000067],[120.38271344000009,13.65290082200005],[120.37688981000008,13.657539274000044],[120.3743383530001,13.661793617000058],[120.37516076000009,13.663236296000036],[120.37228880900011,13.66624921500005],[120.36870071800001,13.664972822000038],[120.36058557600006,13.668300079000062],[120.35853706500006,13.666309257000023],[120.35570933000008,13.666261250000048],[120.345174186,13.67043102100007],[120.3399154540001,13.675561894000055],[120.32664755400003,13.675153249000061],[120.304607916,13.682234509000068]]],[[[120.29670111400003,13.706248213000038],[120.29429707600002,13.705395852000038],[120.29774586500002,13.704274723000026],[120.29670111400003,13.706248213000038]]],[[[120.18497931200011,13.740818825000076],[120.18932721400006,13.739902796000024],[120.19337889100007,13.73685819900004],[120.20413596300011,13.734105947000046],[120.20385176200011,13.73176247400005],[120.20582856200008,13.729453549000027],[120.20993811200003,13.728143658000022],[120.21013165400007,13.724710670000036],[120.21336714000006,13.722702390000052],[120.21503082400011,13.713449456000035],[120.21957930500002,13.713646451000045],[120.22199089100002,13.709526123000046],[120.22375528000009,13.712082895000037],[120.23413653900002,13.71160105100006],[120.23719196500008,13.708673001000022],[120.2452275280001,13.705102933000035],[120.24841123500005,13.705548821000036],[120.2549918090001,13.70157626100007],[120.25593524100009,13.698503019000043],[120.25346456000011,13.69593525700003],[120.25695501500002,13.69210312000007],[120.2559505690001,13.690726569000049],[120.2592068140001,13.690266123000072],[120.26014618700003,13.683708634000027],[120.2625292670001,13.682525181000074],[120.26398523000012,13.678328699000076],[120.26227688300003,13.675236187000053],[120.26591141300003,13.673974948000023],[120.26708657300003,13.671099663000064],[120.27059583000005,13.67070103900005],[120.27211619700006,13.674243791000038],[120.27462089300002,13.675097613000048],[120.27460918500003,13.678602331000036],[120.27765300100009,13.682312191000051],[120.27704843800007,13.684622706000027],[120.27907549400004,13.68725445900003],[120.2863168240001,13.686472221000031],[120.28751174600006,13.68451385000003],[120.29122187000007,13.683135712000023],[120.29532209900003,13.685745874000077],[120.29475437200006,13.688498116000062],[120.29212351700005,13.689008953000041],[120.28779861700002,13.694321511000055],[120.28750393900009,13.701401679000071],[120.28960509500007,13.704531796000026],[120.29341300300007,13.70593784700003],[120.28785465400006,13.711133658000051],[120.28208833000008,13.708164163000049],[120.27980972400007,13.70862960200003],[120.279079023,13.706418230000054],[120.27588580400004,13.704417572000068],[120.27252736700007,13.705546222000066],[120.27121065300003,13.70444764900003],[120.2608620310001,13.710675724000055],[120.25082891500006,13.719084735000024],[120.2505487300001,13.725436528000046],[120.251627428,13.726553336000052],[120.25046472300005,13.72659193000004],[120.25267634700003,13.728057948000071],[120.25026493400003,13.728807245000041],[120.2522907770001,13.729139299000053],[120.25350050200007,13.731711250000046],[120.25830052800006,13.734810288000062],[120.26794881700005,13.736756146000062],[120.27464660100009,13.736267330000032],[120.276620309,13.734466542000064],[120.28255125600003,13.736401125000043],[120.28410986800009,13.73497155900003],[120.28829886200003,13.734642876000066],[120.27702034100002,13.742323258000056],[120.27675467900008,13.747900134000076],[120.28012150600011,13.752706442000033],[120.27843473300004,13.755628456000068],[120.27669953200007,13.755291554000053],[120.27336381200007,13.749724438000044],[120.26768471800005,13.751825024000027],[120.26290458500011,13.765964462000056],[120.26374374800002,13.77732966700006],[120.25877495100008,13.779675540000028],[120.25696709200008,13.782480829000065],[120.25430249500005,13.792374621000022],[120.25195195700007,13.792853708000052],[120.24226443200007,13.790111010000032],[120.23592161200008,13.79205096000004],[120.23609951200001,13.795799449000071],[120.2386552690001,13.797736741000051],[120.2399901660001,13.801525368000057],[120.23532256200008,13.810009728000068],[120.2247864520001,13.816908088000048],[120.22310947800008,13.812309587000072],[120.21181069200009,13.799466795000058],[120.18825297,13.757595914000035],[120.19071412700009,13.75526635500006],[120.18497931200011,13.740818825000076]]],[[[120.2902480140001,13.836559649000037],[120.2873261530001,13.835220168000035],[120.28654412800006,13.836144584000067],[120.28458976900004,13.832499374000065],[120.28846550800006,13.825842118000025],[120.28812204200005,13.822000823000053],[120.28398496000011,13.814848723000068],[120.27671140900009,13.813413615000059],[120.27320832300006,13.815580515000022],[120.27048077600011,13.811874666000051],[120.261882936,13.812342598000043],[120.26060910400008,13.813673057000074],[120.25999405400012,13.811589532000028],[120.26204349600005,13.808847037000021],[120.261212483,13.807032394000032],[120.26369926100006,13.804611393000073],[120.26860196300004,13.807858229000033],[120.27467291300002,13.806195365000065],[120.27563179700007,13.79833480600007],[120.27414649100001,13.794306364000022],[120.27718342900005,13.787995054000078],[120.28432945000009,13.784505955000043],[120.29010948300004,13.783810413000026],[120.29639256100006,13.779387279000048],[120.30480040400005,13.77941988200007],[120.31214326200006,13.774025810000069],[120.31179442400003,13.778671229000054],[120.31472989500003,13.782627141000034],[120.32450498600008,13.786547288000065],[120.32930215600004,13.786110302000054],[120.33428463900009,13.788460607000047],[120.33381025000006,13.789782599000034],[120.33114662500009,13.789553329000057],[120.33019239400005,13.792915840000035],[120.33516137700008,13.798093398000049],[120.33167532300001,13.801907800000038],[120.33423485800006,13.803055078000057],[120.33647043400003,13.80727299800003],[120.32707639500006,13.807789725000077],[120.32439166800009,13.814653546000045],[120.32664773500005,13.820362381000052],[120.32561754000005,13.821218755000075],[120.32290272000012,13.819158711000057],[120.31959861000007,13.821397451000053],[120.32029858600004,13.82574388100005],[120.31877626100004,13.826156949000051],[120.31687904000012,13.823924029000068],[120.31294793400002,13.825660019000054],[120.3121627910001,13.823809378000021],[120.30884914300009,13.823301508000043],[120.30633679100004,13.825857065000037],[120.30523502100004,13.831948794000027],[120.30069570300009,13.834178465000036],[120.29875159000005,13.833788506000076],[120.29671871900007,13.835864352000044],[120.2914985330001,13.83473099300005],[120.2902480140001,13.836559649000037]]],[[[120.3298783030001,13.84046002100007],[120.32871936900005,13.838758421000023],[120.32884805000003,13.831628375000037],[120.33244413000011,13.837612467000042],[120.3298783030001,13.84046002100007]]],[[[120.34464391900008,13.864409826000042],[120.3445737290001,13.861423084000023],[120.34586789600007,13.86076296300007],[120.34679500200002,13.862953828000059],[120.34464391900008,13.864409826000042]]]]}},{"type":"Feature","properties":{"shapeName":"Lubang","shapeISO":"","shapeID":"30758251B11611856867349","shapeGroup":"PHL","shapeType":"ADM3","psgc_code":"1705104000","legacy_psgc_code":"175104000","province":"Occidental Mindoro"},"geometry":{"type":"MultiPolygon","coordinates":[[[[120.2247864520001,13.816908088000048],[120.22207693900009,13.821573491000038],[120.21158271500008,13.822793041000068],[120.20872955200002,13.818938279000065],[120.21070316100008,13.817245420000063],[120.2104790410001,13.812067893000062],[120.20841285600011,13.80989575600006],[120.20540091300006,13.809480526000073],[120.20054895400006,13.812940979000075],[120.20142748100011,13.81750141200007],[120.19489288700004,13.824485253000034],[120.18944763700006,13.826638134000063],[120.18438957900003,13.82514771700005],[120.177956042,13.827748517000032],[120.1736913310001,13.825850957000057],[120.16827461900004,13.82716857400004],[120.16348111500008,13.830452488000049],[120.16036268200003,13.836104707000061],[120.15584703700006,13.840302267000027],[120.15529760700008,13.843593981000026],[120.14823032700008,13.849835583000072],[120.13259740900003,13.857751888000053],[120.12210036300007,13.860732002000077],[120.11559366900008,13.860741122000036],[120.1122895950001,13.862123702000076],[120.11257705500009,13.863226033000046],[120.11173764800003,13.862197684000023],[120.0902792170001,13.864614833000076],[120.07711262900011,13.850776186000076],[120.07684035600005,13.845404646000077],[120.07989996600008,13.84187832300006],[120.08468640800004,13.839152030000037],[120.09258497600001,13.837487926000051],[120.09427551300007,13.835650970000074],[120.09072300300011,13.810386177000055],[120.092001191,13.802651973000025],[120.09678247300008,13.797419151000042],[120.09662230200001,13.789996606000045],[120.09868432400003,13.789004996000074],[120.10028788000011,13.784845913000026],[120.10430234800003,13.782610340000076],[120.11188507500003,13.781686774000036],[120.11345779700002,13.778093578000039],[120.11483100900011,13.77876608400004],[120.11711634000005,13.775699203000045],[120.12205660500001,13.774420084000042],[120.1229640680001,13.772616198000037],[120.12119734300006,13.769867473000033],[120.126621397,13.767994878000025],[120.12903624300009,13.764673038000069],[120.12829461800004,13.762670606000029],[120.130145276,13.761349481000025],[120.1323996000001,13.76504364300007],[120.13933648200009,13.765120702000047],[120.14506267200011,13.760928238000076],[120.1534352220001,13.75931722000007],[120.15520256600007,13.754105551000066],[120.15440783600002,13.750744911000027],[120.1560685070001,13.749362129000076],[120.15679698600002,13.745397664000052],[120.1683247310001,13.742148192000059],[120.1746195290001,13.736256448000063],[120.18497931200011,13.740818825000076],[120.19071412700009,13.75526635500006],[120.18825297,13.757595914000035],[120.21181069200009,13.799466795000058],[120.22310947800008,13.812309587000072],[120.2247864520001,13.816908088000048]]],[[[120.03979579400004,13.899117207000074],[120.03147699500005,13.898817097000062],[120.02518291500007,13.896967060000065],[120.01838927400001,13.889864201000023],[120.01836228200011,13.886675443000058],[120.021993113,13.881564211000068],[120.03139180300002,13.877626889000055],[120.04058442100006,13.868874462000065],[120.04642129600006,13.866545960000053],[120.05723200600005,13.872174157000075],[120.0586515330001,13.87663815600007],[120.05479034600012,13.885160261000067],[120.05371431800006,13.884815609000043],[120.04754403600009,13.891017110000064],[120.04827498700001,13.89373856900005],[120.0463651450001,13.896241564000036],[120.03979579400004,13.899117207000074]]]]}},{"type":"Feature","properties":{"shapeName":"Magsaysay","shapeISO":"","shapeID":"30758251B37919333607414","shapeGroup":"PHL","shapeType":"ADM3","psgc_code":"1705105000","legacy_psgc_code":"175105000","province":"Occidental Mindoro"},"geometry":{"type":"MultiPolygon","coordinates":[[[[121.20463157300003,12.211387025000022],[121.2059203340001,12.212742417000072],[121.2045891140001,12.216882114000043],[121.20365321700001,12.21422953900003],[121.20463157300003,12.211387025000022]]],[[[121.11373655400007,12.319609671000023],[121.1115479880001,12.318274580000036],[121.11460786000009,12.318881606000048],[121.11373655400007,12.319609671000023]]],[[[121.23222803800002,12.440650479000055],[121.23510219400009,12.48842621700004],[121.1985701320001,12.48230075500004],[121.18590385900006,12.470839243000057],[121.1520676020001,12.392044504000069],[121.16648082900008,12.361858468000037],[121.1572084290001,12.327642131000061],[121.15826209000011,12.316973433000044],[121.15716490300008,12.315853465000032],[121.15228978000005,12.317294009000022],[121.14786345400012,12.315295158000026],[121.14619854400007,12.316553493000072],[121.1396969870001,12.313070201000073],[121.11786880600005,12.319905807000055],[121.11780258500005,12.319822173000034],[121.11764746300003,12.31981046900006],[121.114480404,12.314010501000041],[121.10820620800007,12.309369884000034],[121.11104089900005,12.305140169000026],[121.1137205660001,12.306249034000075],[121.11259165600006,12.304303567000034],[121.11358619700002,12.300460169000075],[121.10781575300007,12.298542420000047],[121.1104423490001,12.302924019000045],[121.11188993500002,12.302650560000075],[121.10827577900011,12.304784956000049],[121.10856783300005,12.306905494000034],[121.10519915500004,12.307034998000063],[121.09290208900006,12.287719307000032],[121.09547604500005,12.281537325000045],[121.09460087700006,12.275798606000023],[121.09647634100008,12.273954210000056],[121.0947450110001,12.273027992000038],[121.09482275800008,12.270025366000027],[121.0982211060001,12.269193058000042],[121.09905749300003,12.272493003000022],[121.10387608600001,12.275532566000038],[121.10846319600012,12.27227664000003],[121.11128538500009,12.268071441000075],[121.11357755200004,12.26756416400002],[121.11216118300001,12.267457553000042],[121.11364820300003,12.262031118000039],[121.11073754000006,12.254135929000029],[121.11289794700008,12.24587082100004],[121.10900363600001,12.24275218300005],[121.11745763500005,12.244371907000072],[121.12849789500001,12.240826479000077],[121.13323998500005,12.24377798200004],[121.13277575000006,12.24263507300003],[121.15077491500006,12.245456787000023],[121.15209151600004,12.246144410000056],[121.15161670000009,12.247453317000065],[121.15406427500011,12.24594931300004],[121.15231199800007,12.245895449000045],[121.15325980300008,12.244796336000036],[121.19121232500004,12.244788823000022],[121.1914052300001,12.243630804000077],[121.20644395800002,12.239285598000038],[121.20834506900007,12.23995608100006],[121.21159868500001,12.237278745000026],[121.21366877900005,12.232854882000026],[121.21758136800008,12.229305630000056],[121.21963796400007,12.229238415000054],[121.21974278000005,12.227247694000027],[121.22919379000007,12.22684324100004],[121.23143291000008,12.223571762000063],[121.23477928200009,12.221755588000065],[121.24350371600008,12.207783105000033],[121.24089554400007,12.243143603000021],[121.24686917500003,12.291886716000022],[121.23585117000005,12.319666766000068],[121.2294951020001,12.411468316000025],[121.23222803800002,12.440650479000055]]]]}},{"type":"Feature","properties":{"shapeName":"Mamburao","shapeISO":"","shapeID":"30758251B70283159165752","shapeGroup":"PHL","shapeType":"ADM3","psgc_code":"1705106000","legacy_psgc_code":"175106000","province":"Occidental Mindoro"},"geometry":{"type":"Polygon","coordinates":[[[120.60042746600004,13.29402516700003],[120.57401165600004,13.278630536000037],[120.54884783300008,13.259174513000062],[120.54716563700003,13.259070897000072],[120.54475438500003,13.255064272000027],[120.5414137350001,13.256211131000043],[120.53721430500002,13.252760323000075],[120.53714707100005,13.24951380300007],[120.53016350500002,13.250998024000069],[120.52914700600002,13.249934936000045],[120.52999459400007,13.247949722000044],[120.52503087900004,13.233158893000052],[120.52597273900005,13.226554959000055],[120.52337178900007,13.22360586700006],[120.52532202000009,13.222930188000078],[120.53047005600001,13.227262382000049],[120.54228768900009,13.230639928000073],[120.54698978200008,13.230600511000034],[120.5563484170001,13.226182963000042],[120.56051368600004,13.225713083000073],[120.56760476000011,13.226682941000035],[120.5677478130001,13.228438905000075],[120.57129952000003,13.228813528000046],[120.57296093200011,13.226907856000025],[120.5719900260001,13.21954729600003],[120.573384787,13.221271053000066],[120.57926358000009,13.222108546000072],[120.58548345500003,13.222355634000053],[120.58747819100006,13.220877414000029],[120.58713791000002,13.222634361000075],[120.593907381,13.220949448000056],[120.5997063740001,13.214178102000062],[120.6065348620001,13.201189702000022],[120.61033694900004,13.19833535500004],[120.6223659960001,13.198054054000067],[120.6281554840001,13.195139367000024],[120.63351232700006,13.196269445000041],[120.63483873000007,13.193208540000057],[120.64685173400005,13.192184823000048],[120.65108245500005,13.190487605000044],[120.6539222670001,13.188131331000022],[120.65739810600007,13.180329510000035],[120.65560893300005,13.176576499000078],[120.658754541,13.174166100000036],[120.66235313300001,13.168209165000064],[120.66790449300004,13.164967365000052],[120.67000336900003,13.157303335000051],[120.67778793700006,13.150658236000027],[120.68241733200011,13.141473134000023],[120.68360580400008,13.133606069000052],[120.69073161200004,13.139462184000024],[120.6952246940001,13.136612195000055],[120.697606844,13.136806742000033],[120.71136034000006,13.142546426000024],[120.71763531400006,13.149463394000065],[120.7213474890001,13.150717936000035],[120.72484221500008,13.160223588000065],[120.7346274460001,13.164460943000051],[120.73651459700011,13.167213039000046],[120.73854153800005,13.17930478900007],[120.74105774000009,13.18454687700006],[120.74888592500008,13.187831919000075],[120.74986444800004,13.194541791000063],[120.75629474200002,13.19964409000005],[120.75552590300003,13.204886178000038],[120.76992417100007,13.215020882000033],[120.77348879200008,13.22152107100004],[120.77411784200001,13.224456641000074],[120.77069301200004,13.23193535300004],[120.76925466900002,13.240825807000022],[120.77178299400009,13.245186980000028],[120.77306325000006,13.246856060000027],[120.78083910400005,13.241777952000064],[120.7860759020001,13.242254025000022],[120.79369306400008,13.246221297000034],[120.798897355,13.256377362000023],[120.81444697300003,13.269328914000027],[120.81010235300005,13.27581519100005],[120.80067606600005,13.280248262000043],[120.7455228990001,13.309727688000066],[120.73872710700005,13.316104231000054],[120.73292936900009,13.315596179000067],[120.7318315650001,13.312795109000035],[120.72718279000003,13.314248703000032],[120.72142900500012,13.309251671000027],[120.71970712100006,13.311952339000072],[120.72031705100005,13.315504340000075],[120.71196325200003,13.314650270000072],[120.7066798400001,13.320440273000031],[120.70286650600008,13.319061990000023],[120.7017084370001,13.323687377000056],[120.6953981040001,13.323748038000076],[120.69029623900008,13.326132914000027],[120.68820929100002,13.329869840000072],[120.68516502200009,13.329325793000066],[120.68222840600004,13.32635613900004],[120.67855092500008,13.326489708000054],[120.67838536200009,13.321512703000053],[120.67641559800006,13.319119061000038],[120.67362929900003,13.321340810000038],[120.66999821400009,13.319455867000045],[120.67119217100003,13.315349510000033],[120.66795131200001,13.312127166000039],[120.65199931300003,13.276601154000048],[120.60042746600004,13.29402516700003]]]}},{"type":"Feature","properties":{"shapeName":"Paluan","shapeISO":"","shapeID":"30758251B4069170927747","shapeGroup":"PHL","shapeType":"ADM3","psgc_code":"1705107000","legacy_psgc_code":"175107000","province":"Occidental Mindoro"},"geometry":{"type":"Polygon","coordinates":[[[120.58269026500011,13.501818267000033],[120.56672431600009,13.504993816000024],[120.55998730600004,13.508352606000074],[120.55162686300002,13.504378651000025],[120.53880405900009,13.504004809000037],[120.53309740700001,13.50533847500003],[120.52854477800008,13.502986902000032],[120.52485549000005,13.505213300000037],[120.5054261680001,13.510003055000027],[120.5012979820001,13.507987274000072],[120.49611524700003,13.509326336000072],[120.4953322,13.507686340000078],[120.49068963200011,13.505857459000026],[120.48342886400008,13.506200063000051],[120.47793358000001,13.503883372000075],[120.47431847500002,13.505184258000043],[120.4717772890001,13.509341497000037],[120.46510354000009,13.508486740000023],[120.45856630900005,13.511226677000025],[120.45174343500003,13.51993034700007],[120.44286657200007,13.520920958000033],[120.43318624100004,13.525152882000043],[120.422910279,13.526243187000034],[120.41274964500008,13.530915978000053],[120.40919515200005,13.52654302700006],[120.3866082830001,13.522797011000023],[120.36402446700004,13.51465640300006],[120.34544126500009,13.505214643000045],[120.34171620400002,13.497021631000052],[120.335384481,13.49277815000005],[120.32719859300005,13.491132975000028],[120.32494522900004,13.485799387000043],[120.32204259500008,13.48461155800004],[120.31876310900009,13.477913453000042],[120.31261066600007,13.476705190000075],[120.31349534500009,13.46903665800005],[120.311618629,13.46784683800007],[120.31029111400005,13.45470750000004],[120.30594517800012,13.449167683000042],[120.29928155200002,13.446756207000021],[120.3022393550001,13.438605676000066],[120.30919437400007,13.431479728000056],[120.30956407100007,13.420212028000037],[120.31543071800002,13.418465967000031],[120.31853994800008,13.411451279000062],[120.32502572800001,13.405728942000053],[120.33093330400004,13.398106210000037],[120.33174792700004,13.39488852200003],[120.3422911030001,13.385057050000057],[120.34481752300007,13.384300153000027],[120.34559246600008,13.381862458000057],[120.34842716700007,13.383059575000061],[120.35396446000004,13.381102158000033],[120.3552407520001,13.383183232000022],[120.36109817400006,13.384414676000063],[120.3722261050001,13.377688311000043],[120.38160631800008,13.37510701900004],[120.38700379200009,13.375101338000036],[120.39466162000008,13.38603263500005],[120.39309083900002,13.394352089000051],[120.38852602800011,13.404482373000064],[120.38937606200011,13.409027696000066],[120.39411259500002,13.41183318700007],[120.40221072700001,13.412188939000032],[120.4057469490001,13.41485072200004],[120.41395534500009,13.415368491000038],[120.42517102600004,13.424515154000062],[120.43568731500011,13.42713589300007],[120.43985494800006,13.426487545000043],[120.45209060200011,13.421226033000039],[120.46329581000009,13.413886590000061],[120.47036105100005,13.400500652000062],[120.47418123700004,13.39780528500006],[120.47254156000008,13.389572459000021],[120.46750182900007,13.384212211000033],[120.46639033400004,13.374637866000057],[120.46789144500008,13.367425926000067],[120.47403321400009,13.356905287000075],[120.48663054700012,13.319597059000046],[120.48875499300004,13.30671632700006],[120.48571309600004,13.302444527000034],[120.48068363700008,13.299727845000064],[120.48228119100008,13.292569581000066],[120.48803051300001,13.287244305000058],[120.4896380030001,13.281460347000063],[120.4917069280001,13.281666932000064],[120.49509703600006,13.27840959100007],[120.50419068800011,13.265551714000026],[120.50627108300012,13.264743377000059],[120.51174535500002,13.266229224000028],[120.51531074900004,13.269863797000028],[120.52284642300003,13.266820934000066],[120.52914700600002,13.249934936000045],[120.53016350500002,13.250998024000069],[120.53714707100005,13.24951380300007],[120.53721430500002,13.252760323000075],[120.5414137350001,13.256211131000043],[120.54475438500003,13.255064272000027],[120.54716563700003,13.259070897000072],[120.54884783300008,13.259174513000062],[120.57401165600004,13.278630536000037],[120.60042746600004,13.29402516700003],[120.58608251900012,13.379492422000055],[120.5844000510001,13.398428280000076],[120.58124550900004,13.456996359000073],[120.58269026500011,13.501818267000033]]]}},{"type":"Feature","properties":{"shapeName":"Rizal","shapeISO":"","shapeID":"30758251B74613815178222","shapeGroup":"PHL","shapeType":"ADM3","psgc_code":"1705108000","legacy_psgc_code":"175108000","province":"Occidental Mindoro"},"geometry":{"type":"Polygon","coordinates":[[[120.91986152900006,12.537890336000032],[120.9207628470001,12.524058939000042],[120.92569419300003,12.51408574800007],[120.9245929980001,12.505685946000028],[120.92585587400004,12.503053],[120.93361782400007,12.49381229000005],[120.9437958630001,12.48767554400007],[120.94762645500009,12.482329578000076],[120.95968710000011,12.456844500000045],[120.9719081290001,12.440205459000026],[120.97339518500007,12.431996219000041],[120.97374214000001,12.432889836000072],[120.97463833200004,12.438756272000035],[120.976831134,12.440404946000058],[120.98293181400004,12.437634917000025],[120.98492983200003,12.433685487000048],[120.9882864650001,12.433321222000075],[120.9932717800001,12.435204056000032],[120.99910248300012,12.434687592000046],[120.99898858200004,12.437997732000042],[121.00195717100007,12.43876904900003],[121.00077501700002,12.442996085000061],[121.00159993800003,12.444696708000038],[121.00697019900008,12.442886697000063],[121.00981787100011,12.446976999000071],[121.01155242100003,12.44732605200005],[121.01765774300009,12.444273918000022],[121.02066869900011,12.451115610000045],[121.02652959900001,12.452218690000052],[121.02426571400008,12.456967871000074],[121.02521779200003,12.458983880000062],[121.03262734400005,12.463674595000043],[121.03620513600004,12.464166804000058],[121.04070020900008,12.470380891000048],[121.04929997600004,12.471869735000041],[121.051632476,12.474047252000048],[121.05186253800002,12.477347165000026],[121.05546098400009,12.482592659000034],[121.06643974200006,12.492116615000043],[121.08059706800009,12.491323497000053],[121.0871617150001,12.494778267000072],[121.0884438700001,12.497715629000027],[121.09610152500011,12.49862054600004],[121.09612680200007,12.50049614300002],[121.10075418300005,12.503079994000075],[121.10030683500008,12.509620784000049],[121.10580314700007,12.512382436000053],[121.10575964400005,12.515434415000072],[121.10779817800005,12.518600723000077],[121.106875123,12.525535580000053],[121.11194964600008,12.53028292600004],[121.11076649600011,12.533447691000049],[121.11219838600005,12.539288869000075],[121.11912757900006,12.541522024000074],[121.12781843900007,12.558918210000058],[121.13198800400005,12.56412234000004],[121.13380365100011,12.570125368000049],[121.13985606000006,12.573230428000045],[121.17237571900012,12.630108243000052],[121.19789160200003,12.687733387000037],[121.12065881,12.688989942000035],[121.11869798900011,12.684993003000045],[121.1243828900001,12.683814532000042],[121.12402387000009,12.678881655000055],[121.12860259800004,12.676831950000064],[121.12974514200005,12.674366280000072],[121.12766340900009,12.670228038000062],[121.12994213400009,12.667740941000034],[121.1272371880001,12.657793015000038],[121.1148419000001,12.648639833000061],[121.11224016900007,12.644223146000058],[121.09684203300003,12.647051356000077],[121.08901267200008,12.64598006600005],[121.08129999200003,12.647121285000026],[121.07557482400011,12.64577812300007],[121.06944741400002,12.640321330000063],[121.067392229,12.63778635600005],[121.06823510400011,12.625936654000043],[121.06580436900003,12.61738181800007],[121.063405482,12.613261629000021],[121.05802709400007,12.609304399000052],[121.05374007900002,12.596929542000055],[121.05341649900004,12.587343988000043],[121.04933900700007,12.578440765000039],[121.0439160200001,12.571345380000025],[121.03403313000001,12.564615232000051],[121.0260419660001,12.561274578000052],[121.01683518900006,12.553114522000044],[121.00982801600003,12.532074218000048],[121.00418013,12.524908760000073],[121.00036899700001,12.522416262000036],[120.98837641000011,12.52492268900005],[120.97990130000005,12.523485065000045],[120.96858914900008,12.523951606000026],[120.95645865800009,12.526657142000033],[120.94910021300007,12.526351341000066],[120.94061369200006,12.534895520000077],[120.93376609800009,12.534900891000063],[120.91986152900006,12.537890336000032]]]}},{"type":"Feature","properties":{"shapeName":"Sablayan","shapeISO":"","shapeID":"30758251B34022252316389","shapeGroup":"PHL","shapeType":"ADM3","psgc_code":"1705109000","legacy_psgc_code":"175109000","province":"Occidental Mindoro"},"geometry":{"type":"MultiPolygon","coordinates":[[[[120.75237555900003,12.844840603000023],[120.74966473900008,12.84219498400006],[120.756141479,12.837722346000021],[120.75753847600004,12.83887134300005],[120.75237555900003,12.844840603000023]]],[[[120.74747541800002,12.860013030000061],[120.74589546900006,12.858074257000055],[120.74742660700008,12.854872664000027],[120.75495637600011,12.857817369000031],[120.74747541800002,12.860013030000061]]],[[[121.24354899100001,12.899506232000022],[121.24529862100007,12.923056417000055],[121.24308735500006,12.978253805000065],[121.23957866800004,13.010270545000026],[121.24088143300003,13.065091710000047],[121.18545674800009,13.081633324000052],[121.16962748800006,13.093317855000066],[121.11848852900005,13.105488950000051],[121.00383125200005,13.180538426000055],[120.94712192000009,13.09784445400004],[120.9270112270001,13.03794220800006],[120.9270112270001,13.034141008000063],[120.92067589600003,13.034141008000063],[120.92181625600006,13.028565916000048],[120.92042248300004,13.027045437000027],[120.91611445800004,13.026665317000038],[120.91586104400005,13.025144838000074],[120.91902871000002,13.020963519000077],[120.91864859000009,13.016782200000023],[120.91560763100006,13.010826989000066],[120.91814176300011,13.004111538000075],[120.91712811000002,12.997015967000038],[120.90952571300011,12.98649931600005],[120.91167972500011,12.982824824000033],[120.9162411640001,12.98029069200004],[120.91750823000007,12.976236080000035],[120.89964259600004,12.964959190000059],[120.89485520500011,12.955727917000047],[120.89124814200011,12.952771884000072],[120.88279661700005,12.952571243000023],[120.87212403100011,12.965387874000044],[120.86950009200007,12.970837594000045],[120.86384852900005,12.972250485000075],[120.85780801300007,12.971749588000023],[120.85271390100002,12.97416258800007],[120.84606474300006,12.974001721000036],[120.84161409900003,12.981884190000073],[120.83845038600009,12.983385613000053],[120.82526960900009,12.980072447000055],[120.81796277800004,12.981174271000043],[120.81416132400011,12.979496290000043],[120.81052101400007,12.980937677000043],[120.80541041200001,12.978456785000049],[120.80115696900009,12.980632789000026],[120.79960231200005,12.97855159200003],[120.7967015800001,12.978454352000028],[120.79251668300003,12.979495737000036],[120.79197756100007,12.981397467000022],[120.789916048,12.979169285000069],[120.7844576230001,12.980382507000058],[120.78075114100011,12.97821678500003],[120.77753446100007,12.978572201000077],[120.77648268100006,12.976146923000044],[120.77483634600003,12.979063676000067],[120.77251824100006,12.977137682000034],[120.7723868060001,12.972010324000053],[120.76838196000006,12.966085669000051],[120.77223474100003,12.942930415000035],[120.77417490800008,12.944753474000038],[120.77533148400005,12.943653492000067],[120.77394830700007,12.937496746000022],[120.77249351500006,12.93962491700006],[120.77305431700006,12.935901750000028],[120.77317958700007,12.937021827000024],[120.77594818700004,12.935395558000039],[120.7749844220001,12.936543595000046],[120.776223705,12.937492247000023],[120.77894759900005,12.936437148000039],[120.78436963100012,12.930068756000026],[120.78281708700001,12.928766277000022],[120.77987019800003,12.933296209000048],[120.77616807900006,12.933322475000068],[120.77417807900008,12.934943161000035],[120.77931185400007,12.919708903000071],[120.78019173100006,12.900267523000025],[120.78156070900002,12.902473633000056],[120.78381172000002,12.901088686000037],[120.78331000800006,12.898256184000047],[120.78238481000005,12.900187396000035],[120.7815034670001,12.897266401000024],[120.78378531800001,12.89263349600003],[120.78327109000008,12.87647875600004],[120.78003156900002,12.860459114000037],[120.77280026100004,12.844940938000036],[120.76611124300007,12.83976186500007],[120.76821033100009,12.839663018000067],[120.76045061100001,12.839184104000026],[120.7656022650001,12.834265808000055],[120.76518514000009,12.82902567800005],[120.76744807600005,12.829291620000049],[120.76875513300001,12.832265178000057],[120.76992768600007,12.83189074300003],[120.76892530600003,12.833597345000044],[120.77138870400006,12.836127357000066],[120.77578603000006,12.835246042000051],[120.77920085200003,12.831310506000023],[120.77847892400007,12.830723781000074],[120.78125066000007,12.82966252600005],[120.78448260900007,12.82229021300003],[120.7865835340001,12.810955741000043],[120.78552509400004,12.806180900000072],[120.78813619300001,12.801681405000068],[120.78867630800005,12.790410476000034],[120.78831395500004,12.788558368000054],[120.78480911400004,12.785909356000047],[120.78506378200007,12.780931562000035],[120.78795324600003,12.771573643000067],[120.78741944,12.766543758000068],[120.79231141200012,12.759639746000062],[120.79216030400005,12.750893992000044],[120.78854842900012,12.737816537000072],[120.7902676540001,12.735175262000041],[120.78832760900002,12.73726029900007],[120.78896243300005,12.734491472000059],[120.79711800500002,12.723310742000024],[120.80423164600006,12.72022516800007],[120.81841232900001,12.721007805000056],[120.83458966400008,12.727750465000042],[120.83842047200005,12.726924054000051],[120.85382750400004,12.718548574000067],[120.85872614300001,12.714000854000062],[120.86141921700005,12.708659170000033],[120.86133061800001,12.704552333000038],[120.86480440500009,12.695491700000048],[120.86508334400003,12.688914861000057],[120.87019753900006,12.682701278000025],[120.87947818100008,12.677859105000039],[120.88309714800005,12.671412537000037],[120.8851740550001,12.673062911000045],[120.88390890200003,12.675167593000026],[120.88671545000011,12.67516826900004],[120.88955060400008,12.678237326000044],[120.93691449900007,12.696189784000069],[120.95959823800001,12.697421984000073],[121.11544194100009,12.691622320000022],[121.11589684800003,12.690561216000049],[121.11847868200005,12.692008380000061],[121.12065881,12.688989942000035],[121.19789160200003,12.687733387000037],[121.26094981900007,12.686051228000053],[121.261273361,12.694725695000045],[121.25628676000008,12.728058734000058],[121.2587411290001,12.756897567000067],[121.2470242930001,12.826554369000064],[121.24354899100001,12.899506232000022]]]]}},{"type":"Feature","properties":{"shapeName":"San Jose","shapeISO":"","shapeID":"30758251B733109742349","shapeGroup":"PHL","shapeType":"ADM3","psgc_code":"1705110000","legacy_psgc_code":"175110000","province":"Occidental Mindoro"},"geometry":{"type":"MultiPolygon","coordinates":[[[[121.02915557500012,12.19554643600003],[121.02753294900003,12.196078966000073],[121.02787705500009,12.19429390700003],[121.02915557500012,12.19554643600003]]],[[[121.01358447700011,12.235024072000044],[121.00688528500007,12.231475515000056],[121.0035458210001,12.221182333000058],[121.00108608900007,12.220239613000047],[121.0012611730001,12.217543050000074],[121.00386655000011,12.21309422400003],[121.00660109700004,12.20145190200003],[121.01107190000005,12.203020853000055],[121.01260285100011,12.206062272000054],[121.01939782500006,12.20721035400004],[121.01997161200006,12.20128459700004],[121.01267855700007,12.201577408000048],[121.01025209500006,12.199820316000057],[121.01278960700006,12.198171753000054],[121.01238168800012,12.19601773100004],[121.01733121500001,12.196672056000068],[121.0163608690001,12.195395889000054],[121.02115869600004,12.191186028000061],[121.02096065400008,12.189406839000071],[121.02527569000006,12.187960953000072],[121.02782300800004,12.185429627000076],[121.0289984740001,12.186446581000041],[121.02526847900003,12.19243593300007],[121.02020211900003,12.194238952000035],[121.01911488100006,12.196009985000046],[121.02443091600003,12.205275019000055],[121.02793439100003,12.20264228800005],[121.02920529900007,12.199607892000074],[121.03451616400002,12.197942559000069],[121.03784191400007,12.200322242000027],[121.03773352100006,12.204252925000048],[121.03254150900011,12.212123890000044],[121.02958621300002,12.212994716000026],[121.02727784300009,12.211736518000066],[121.0280937660001,12.21446708600007],[121.02195323900003,12.229165153000054],[121.01727592300006,12.233798534000073],[121.01358447700011,12.235024072000044]]],[[[121.07428948900008,12.297352560000036],[121.07371434200002,12.295797922000077],[121.07002255600003,12.297579264000035],[121.0622042330001,12.296295688000043],[121.0619944550001,12.294902964000073],[121.05969553500006,12.294334092000042],[121.05937831000006,12.295667091000041],[121.05829105200007,12.294426744000077],[121.05779859200004,12.295810285000073],[121.05304966100005,12.294985151000049],[121.04279715100006,12.289825490000055],[121.04130068400002,12.281362751000074],[121.03485981200004,12.272431160000053],[121.03526836500009,12.270272160000047],[121.03329600400002,12.26660105600007],[121.0348656970001,12.258652526000049],[121.03255693900007,12.255884335000076],[121.03300884600003,12.250297360000047],[121.03428438800006,12.249215961000061],[121.03304556700004,12.248777457000074],[121.0330144620001,12.244579284000054],[121.0376515480001,12.241184115000067],[121.04142321000006,12.240318494000064],[121.03587825600005,12.233770978000052],[121.03844993300004,12.227019386000052],[121.03784844000006,12.224856591000048],[121.0391818270001,12.22330299600003],[121.0438888220001,12.223726855000052],[121.04800472900001,12.221378894000054],[121.0537459300001,12.220760613000039],[121.05593770400003,12.216591724000068],[121.06490406600005,12.214611039000033],[121.06873986200003,12.215370587000052],[121.07520944700002,12.211740945000031],[121.080613018,12.206512774000032],[121.08114904600006,12.202173095000035],[121.08812690600007,12.189978247000056],[121.08871009900008,12.184935797000037],[121.08596295900008,12.176526608000074],[121.08650516300008,12.17369714800003],[121.0918470900001,12.171570362000068],[121.09432852400005,12.173122671000044],[121.0989974690001,12.17013133100005],[121.09935915200003,12.168363020000072],[121.10506177000002,12.172800945000063],[121.10693603900006,12.165307212000073],[121.11209366300011,12.159695901000077],[121.1164758760001,12.157699703000048],[121.11784377800006,12.15508310100006],[121.1161449650001,12.154372856000066],[121.11925019900002,12.15307449900007],[121.1233632950001,12.154569503000062],[121.12355234800009,12.156255895000072],[121.12595719500007,12.15752279000003],[121.1276599790001,12.156604843000025],[121.13224764800009,12.159656446000042],[121.13524377400006,12.15948284600006],[121.13579909400005,12.165787373000057],[121.12237025000002,12.183824035000043],[121.11554188500008,12.199069829000052],[121.11200233700004,12.200723021000044],[121.11045411400005,12.198444816000062],[121.11096360500005,12.200452143000064],[121.107795355,12.200632590000055],[121.10770948800007,12.202980227000069],[121.10469991100001,12.199659412000074],[121.10141013600003,12.200965851000035],[121.10427441000002,12.210595124000065],[121.10294804900002,12.210986598000034],[121.10405596700002,12.215314799000055],[121.10203893900007,12.22061810300005],[121.10624864300007,12.224819258000025],[121.10461871500002,12.232923628000037],[121.10356360600008,12.232878245000052],[121.10452362700005,12.233910853000054],[121.10225602300011,12.236205118000044],[121.10408318600003,12.237117106000028],[121.10214366600007,12.237718542000039],[121.10025595200011,12.243639963000021],[121.09872882600007,12.243625284000075],[121.09694519800007,12.248800871000071],[121.09593475600002,12.248714884000037],[121.09671163000007,12.249289815000054],[121.09358116700002,12.253541322000046],[121.09460500000012,12.254780229000062],[121.09349403700003,12.254290630000071],[121.09125480800003,12.258076327000026],[121.08860656700006,12.258328083000038],[121.09050339400005,12.263507244000039],[121.08630105100008,12.273938189000035],[121.08628247100012,12.277320802000077],[121.08301023800004,12.278069222000056],[121.08504246700011,12.27933738400003],[121.08024803300009,12.28805611000007],[121.07907207700009,12.287480446000075],[121.07837441700008,12.292196493000063],[121.07583686100008,12.29245362000006],[121.07704035200004,12.293188421000025],[121.07428948900008,12.297352560000036]]],[[[121.26094981900007,12.686051228000053],[121.19789160200003,12.687733387000037],[121.17237571900012,12.630108243000052],[121.13985606000006,12.573230428000045],[121.13380365100011,12.570125368000049],[121.13198800400005,12.56412234000004],[121.12781843900007,12.558918210000058],[121.11912757900006,12.541522024000074],[121.11219838600005,12.539288869000075],[121.11076649600011,12.533447691000049],[121.11194964600008,12.53028292600004],[121.106875123,12.525535580000053],[121.10779817800005,12.518600723000077],[121.10575964400005,12.515434415000072],[121.10580314700007,12.512382436000053],[121.10030683500008,12.509620784000049],[121.10075418300005,12.503079994000075],[121.09612680200007,12.50049614300002],[121.09610152500011,12.49862054600004],[121.0884438700001,12.497715629000027],[121.0871617150001,12.494778267000072],[121.08059706800009,12.491323497000053],[121.06643974200006,12.492116615000043],[121.05546098400009,12.482592659000034],[121.05186253800002,12.477347165000026],[121.051632476,12.474047252000048],[121.04929997600004,12.471869735000041],[121.04070020900008,12.470380891000048],[121.03620513600004,12.464166804000058],[121.03262734400005,12.463674595000043],[121.02521779200003,12.458983880000062],[121.02426571400008,12.456967871000074],[121.02652959900001,12.452218690000052],[121.02066869900011,12.451115610000045],[121.01765774300009,12.444273918000022],[121.01155242100003,12.44732605200005],[121.00981787100011,12.446976999000071],[121.00697019900008,12.442886697000063],[121.00159993800003,12.444696708000038],[121.00077501700002,12.442996085000061],[121.00195717100007,12.43876904900003],[120.99898858200004,12.437997732000042],[120.99910248300012,12.434687592000046],[120.9932717800001,12.435204056000032],[120.9882864650001,12.433321222000075],[120.98492983200003,12.433685487000048],[120.98293181400004,12.437634917000025],[120.976831134,12.440404946000058],[120.97463833200004,12.438756272000035],[120.97374214000001,12.432889836000072],[120.97514096000009,12.429213403000062],[120.9803462000001,12.423276736000048],[120.98444708400007,12.422173918000055],[120.98999790800008,12.417353786000035],[121.00085336300003,12.415818372000047],[121.00745252900003,12.411373962000027],[121.01687003400002,12.398448476000056],[121.03114090000008,12.371123916000045],[121.04140968500008,12.359575309000036],[121.06140482500007,12.350263110000071],[121.06749464300003,12.339855598000042],[121.08486549700001,12.327528291000021],[121.09093676000009,12.327684397000041],[121.08942640700002,12.328611070000022],[121.08972708800002,12.330144200000063],[121.08656856100004,12.331092002000048],[121.08647726800007,12.332435970000063],[121.08511590900002,12.331795270000043],[121.0815100100001,12.335006007000061],[121.08280719200002,12.337358132000077],[121.08570670800009,12.335652926000023],[121.08755456400002,12.337426447000041],[121.08479530400007,12.346342908000054],[121.08708824200005,12.34775051300005],[121.088714632,12.346402707000038],[121.08944747700002,12.34729558500004],[121.08879957300007,12.345294567000053],[121.08993992700005,12.344122729000048],[121.09062834100007,12.344969646000038],[121.09072022400005,12.342674948000024],[121.09168215200009,12.343399820000059],[121.09199232800006,12.341955131000077],[121.09289237100006,12.343031212000028],[121.09218363000002,12.340047507000065],[121.09675100900006,12.341727694000042],[121.09309326200002,12.335942269000043],[121.09380819400008,12.334171384000058],[121.09642,12.336227656000062],[121.09592856600011,12.33442585000006],[121.10119621900003,12.331372031000058],[121.10625984100011,12.323910926000053],[121.1059717070001,12.32707123800003],[121.1115608340001,12.330880958000023],[121.11129808300007,12.334636183000043],[121.11484050000001,12.334233489000042],[121.11355053900002,12.335671558000058],[121.11528525400001,12.335464341000034],[121.1150334670001,12.336519481000039],[121.11341143000004,12.337818131000063],[121.11630884300007,12.337174579000077],[121.11460991900003,12.339502082000024],[121.11799089200008,12.337393673000065],[121.11955820700007,12.331919711000069],[121.11786880600005,12.319905807000055],[121.1396969870001,12.313070201000073],[121.14619854400007,12.316553493000072],[121.14786345400012,12.315295158000026],[121.15228978000005,12.317294009000022],[121.15716490300008,12.315853465000032],[121.15826209000011,12.316973433000044],[121.1572084290001,12.327642131000061],[121.16648082900008,12.361858468000037],[121.1520676020001,12.392044504000069],[121.18590385900006,12.470839243000057],[121.1985701320001,12.48230075500004],[121.23510219400009,12.48842621700004],[121.23873678200005,12.522414437000066],[121.24943248000011,12.545303128000057],[121.2586164600001,12.650692021000054],[121.26094981900007,12.686051228000053]]]]}},{"type":"Feature","properties":{"shapeName":"Santa Cruz","shapeISO":"","shapeID":"30758251B4413725625416","shapeGroup":"PHL","shapeType":"ADM3","psgc_code":"1705111000","legacy_psgc_code":"175111000","province":"Occidental Mindoro"},"geometry":{"type":"Polygon","coordinates":[[[120.81010235300005,13.27581519100005],[120.81444697300003,13.269328914000027],[120.798897355,13.256377362000023],[120.79369306400008,13.246221297000034],[120.7860759020001,13.242254025000022],[120.78083910400005,13.241777952000064],[120.77306325000006,13.246856060000027],[120.77178299400009,13.245186980000028],[120.76925466900002,13.240825807000022],[120.77069301200004,13.23193535300004],[120.77411784200001,13.224456641000074],[120.77348879200008,13.22152107100004],[120.76992417100007,13.215020882000033],[120.75552590300003,13.204886178000038],[120.75629474200002,13.19964409000005],[120.74986444800004,13.194541791000063],[120.74888592500008,13.187831919000075],[120.74105774000009,13.18454687700006],[120.73854153800005,13.17930478900007],[120.73651459700011,13.167213039000046],[120.7346274460001,13.164460943000051],[120.72484221500008,13.160223588000065],[120.7213474890001,13.150717936000035],[120.71763531400006,13.149463394000065],[120.71136034000006,13.142546426000024],[120.697606844,13.136806742000033],[120.6952246940001,13.136612195000055],[120.69073161200004,13.139462184000024],[120.68360580400008,13.133606069000052],[120.70123824000007,13.111179519000075],[120.72291593800003,13.067315245000032],[120.72550833700006,13.064777252000056],[120.72981173200003,13.06442518800003],[120.73124282800006,13.066106836000074],[120.73188248500003,13.064324849000059],[120.73432188400011,13.063808938000022],[120.73226371800001,13.062499279000065],[120.73711475200002,13.05528457400004],[120.75730479200001,13.011100887000055],[120.76388840900006,12.989448561000074],[120.76571046900006,12.988720390000026],[120.76627562600004,12.986063265000041],[120.76517723800009,12.985779790000038],[120.76512437200006,12.988760396000032],[120.76471643400009,12.985817046000022],[120.76838196000006,12.966085669000051],[120.7723868060001,12.972010324000053],[120.77251824100006,12.977137682000034],[120.77483634600003,12.979063676000067],[120.77648268100006,12.976146923000044],[120.77753446100007,12.978572201000077],[120.78075114100011,12.97821678500003],[120.7844576230001,12.980382507000058],[120.789916048,12.979169285000069],[120.79197756100007,12.981397467000022],[120.79251668300003,12.979495737000036],[120.7967015800001,12.978454352000028],[120.79960231200005,12.97855159200003],[120.80115696900009,12.980632789000026],[120.80541041200001,12.978456785000049],[120.81052101400007,12.980937677000043],[120.81416132400011,12.979496290000043],[120.81796277800004,12.981174271000043],[120.82526960900009,12.980072447000055],[120.83845038600009,12.983385613000053],[120.84161409900003,12.981884190000073],[120.84606474300006,12.974001721000036],[120.85271390100002,12.97416258800007],[120.85780801300007,12.971749588000023],[120.86384852900005,12.972250485000075],[120.86950009200007,12.970837594000045],[120.87212403100011,12.965387874000044],[120.88279661700005,12.952571243000023],[120.89124814200011,12.952771884000072],[120.89485520500011,12.955727917000047],[120.89964259600004,12.964959190000059],[120.91750823000007,12.976236080000035],[120.9162411640001,12.98029069200004],[120.91167972500011,12.982824824000033],[120.90952571300011,12.98649931600005],[120.91712811000002,12.997015967000038],[120.91814176300011,13.004111538000075],[120.91560763100006,13.010826989000066],[120.91864859000009,13.016782200000023],[120.91902871000002,13.020963519000077],[120.91586104400005,13.025144838000074],[120.91611445800004,13.026665317000038],[120.92042248300004,13.027045437000027],[120.92181625600006,13.028565916000048],[120.92067589600003,13.034141008000063],[120.9270112270001,13.034141008000063],[120.9270112270001,13.03794220800006],[120.94712192000009,13.09784445400004],[121.00383125200005,13.180538426000055],[120.973278316,13.197198405000051],[120.86773544400012,13.24703289200005],[120.81010235300005,13.27581519100005]]]}}]}
