{"type":"FeatureCollection","source":{"dataset":"geoBoundaries gbOpen PHL ADM3","commit":"9469f09","license":"CC BY 3.0 IGO","boundary_year":2020,"url":"https://media.githubusercontent.com/media/wmgeolab/geoBoundaries/9469f09/releaseData/gbOpen/PHL/ADM3/geoBoundaries-PHL-ADM3_simplified.geojson","upstream_sources":["NAMRIA","PSA","OCHA Philippines"],"reference":"https://ulap-nga.georisk.gov.ph/arcgis/rest/services/PSA/Municipal/MapServer/0","psgc_reference":"https://psa.gov.ph/classification/psgc/citimuni/0300000000","notice":"Approximate planning/reference boundaries, not legal, cadastral, or survey-grade."},"features":[{"type":"Feature","properties":{"shapeName":"Olongapo City","shapeISO":"","shapeID":"30758251B1579745133837","shapeGroup":"PHL","shapeType":"ADM3","psgc_code":"0331400000","legacy_psgc_code":"037107000","province":"Olongapo City","geographic_province":"Zambales"},"geometry":{"type":"MultiPolygon","coordinates":[[[[120.22398855900008,14.775514972000053],[120.224058119,14.76838458800006],[120.225670637,14.767682705000027],[120.23025698000004,14.769814586000052],[120.22968052200008,14.774055774000033],[120.22638012900006,14.773608350000075],[120.22398855900008,14.775514972000053]]],[[[120.34618065900008,14.860527562000073],[120.34962467500009,14.891449152000064],[120.34549383100011,14.910387398000069],[120.3103299920001,14.911775680000062],[120.28122666100012,14.896660255000029],[120.27847917600002,14.882358383000053],[120.27314707100004,14.875622812000074],[120.27018469100005,14.868647686000031],[120.26462344600009,14.863219732000061],[120.25753738700007,14.859967362000077],[120.2581445620001,14.855812528000058],[120.25392351900007,14.850544888000059],[120.25219490000006,14.850260128000059],[120.25025097200012,14.852259355000058],[120.24586485400005,14.849855493000064],[120.24586865900005,14.848817194000048],[120.24959374100001,14.849226596000051],[120.25563687700003,14.847341143000051],[120.25654226200004,14.85025612000004],[120.26099660900002,14.850359624000077],[120.26701774500009,14.847227330000067],[120.26625029700006,14.841020534000052],[120.26893327100004,14.836183349000066],[120.26632735300007,14.830724220000036],[120.26757166900006,14.823096472000032],[120.2706267750001,14.825604369000075],[120.26939937700001,14.821627446000036],[120.27375304300006,14.820846948000053],[120.28788591400007,14.812634595000077],[120.28923866600007,14.812804639000035],[120.28924737300008,14.81550145600005],[120.28638640800011,14.815701689000036],[120.28648700700012,14.818635853000046],[120.2895522120001,14.818513369000073],[120.28665686900001,14.818795412000043],[120.28639497900008,14.81996887500003],[120.29051826400007,14.820138511000039],[120.28552277400001,14.820655927000075],[120.28640495800005,14.822648852000043],[120.28771695700004,14.821677014000045],[120.28798308300009,14.823157694000031],[120.2886364850001,14.821734779000053],[120.2886247130001,14.823351054000057],[120.28898598500007,14.821661584000026],[120.28920626400009,14.823519903000033],[120.28967595800009,14.82156825800007],[120.28928159700001,14.823554845000046],[120.29157526800009,14.823634187000039],[120.29048870600002,14.822993472000064],[120.29153857500012,14.82304591600007],[120.29150464500003,14.819876222000062],[120.29389378000008,14.81920487900004],[120.2933103150001,14.816806106000058],[120.29526421900005,14.818888812000068],[120.29613045400004,14.818345897000029],[120.29490874500004,14.816496923000045],[120.29687595900009,14.817863513000077],[120.29797932200006,14.816895736000049],[120.296643818,14.810889534000069],[120.29414698700009,14.810874441000067],[120.295816854,14.80971061200006],[120.2945109960001,14.808772222000073],[120.29622113000005,14.809118677000072],[120.29470800900003,14.80293739800004],[120.29752516300005,14.80214367800005],[120.29421376000005,14.80235956000007],[120.29528180000011,14.800617579000061],[120.2878949410001,14.793398145000026],[120.28654165000012,14.794716093000034],[120.28765154200005,14.796274330000074],[120.28650479700002,14.794760976000077],[120.28423577100011,14.800692982000044],[120.27060417200005,14.798023754000042],[120.26300949200004,14.80500181900004],[120.26029126500009,14.80162609000007],[120.26524510800004,14.797678911000048],[120.26534050900011,14.795274065000058],[120.25720691200002,14.791900429000066],[120.25834908200011,14.788418983000042],[120.26190639800006,14.788561746000028],[120.265259108,14.78547513600006],[120.26698742300005,14.786374231000025],[120.27089894800008,14.78357926600006],[120.27197063400001,14.784419297000056],[120.27842678400009,14.78308921100006],[120.28131415000007,14.779969424000058],[120.27699335900002,14.777552915000058],[120.27806586400004,14.77588275000005],[120.27538232300003,14.774801799000045],[120.26586971600011,14.775539041000059],[120.26792529400007,14.773241423000059],[120.26626795900006,14.770982717000038],[120.260276524,14.771514655000033],[120.25834302800001,14.774222859000076],[120.25627952900004,14.769726512000034],[120.26052463400003,14.769069198000068],[120.26254017200006,14.76640840500005],[120.25815212300006,14.764471280000066],[120.25641742800008,14.765750609000065],[120.25521659200001,14.764521311000067],[120.2508738460001,14.765599640000062],[120.2455835080001,14.764316160000021],[120.24182201800011,14.761394883000037],[120.24613468900009,14.758614958000067],[120.24923767700011,14.75420342600006],[120.24651837200008,14.750246731000061],[120.24885340000003,14.748493902000064],[120.25366298100005,14.749585371000023],[120.25668235400008,14.74634167000005],[120.2646504060001,14.743546508000065],[120.26841447100003,14.745212137000067],[120.27772036700003,14.744421647000024],[120.2782164140001,14.738910109000074],[120.28547257700006,14.742079258000047],[120.29095037600007,14.748161783000057],[120.28333285300005,14.74887743100004],[120.28055611200011,14.752839710000046],[120.28272873100002,14.754998184000044],[120.28873995300012,14.754790104000051],[120.29692446500007,14.749611204000075],[120.30568697800004,14.751137130000075],[120.32043759400005,14.756940272000065],[120.3254777730001,14.763737578000075],[120.33130403500002,14.767899193000062],[120.33851750300005,14.769633200000044],[120.34251727800006,14.772638812000025],[120.36058266300006,14.777602718000026],[120.36257157200009,14.790855687000033],[120.35649408400002,14.79727710000003],[120.35377077200008,14.797284324000032],[120.3554033150001,14.798216173000071],[120.35409583600006,14.799054115000047],[120.35536719600009,14.800166555000033],[120.35314953900001,14.805819454000073],[120.35157298000001,14.807087202000048],[120.34635313800004,14.804289126000072],[120.34134914300012,14.80509065700005],[120.34228809300009,14.805675577000045],[120.341456891,14.813171784000076],[120.33947124300005,14.812756183000033],[120.33833218900008,14.817343184000038],[120.34483813700001,14.816957798000033],[120.3435656800001,14.820492401000024],[120.3460683610001,14.822194684000067],[120.34463300900006,14.824102039000024],[120.345824622,14.825631533000035],[120.34312543900012,14.827158448000034],[120.34424776300011,14.829856962000065],[120.34170311800005,14.832349371000078],[120.34273443300003,14.834179996000046],[120.33925053200005,14.836686803000077],[120.3390555960001,14.841486584000052],[120.33630120900011,14.842825056000038],[120.33743560100004,14.846588094000026],[120.33981070700008,14.847071166000035],[120.339448403,14.84953181700007],[120.34341963500003,14.851802405000058],[120.33957911200002,14.854293436000034],[120.3445825550001,14.86074308600007],[120.34618065900008,14.860527562000073]]]]}}]}
