{"type":"FeatureCollection","source":{"dataset":"geoBoundaries gbOpen PHL ADM3","commit":"9469f09","license":"CC BY 3.0 IGO","boundary_year":2020,"url":"https://media.githubusercontent.com/media/wmgeolab/geoBoundaries/9469f09/releaseData/gbOpen/PHL/ADM3/geoBoundaries-PHL-ADM3_simplified.geojson","upstream_sources":["NAMRIA","PSA","OCHA Philippines"],"reference":"https://ulap-nga.georisk.gov.ph/arcgis/rest/services/PSA/Municipal/MapServer/0","psgc_reference":"https://psa.gov.ph/classification/psgc/provinces/1700000000","area_notes":"Four provinces use GeoRiskPH published polygon area; Palawan and Puerto Princesa use OCHA COD-AB v03 area_sqkm. These are polygon checks, not PSA LMB land-area totals. See MIMAROPA_BOUNDARY_SOURCES.md.","additional_reference":"https://data.humdata.org/dataset/cod-ab-phl","full_source_url":"https://media.githubusercontent.com/media/wmgeolab/geoBoundaries/9469f09/releaseData/gbOpen/PHL/ADM3/geoBoundaries-PHL-ADM3.geojson","notice":"Approximate planning/reference boundaries, not legal, cadastral, or survey-grade."},"features":[{"type":"Feature","properties":{"shapeName":"Baco","shapeISO":"","shapeID":"30758251B69479050195003","shapeGroup":"PHL","shapeType":"ADM3","psgc_code":"1705201000","legacy_psgc_code":"175201000","province":"Oriental Mindoro"},"geometry":{"type":"Polygon","coordinates":[[[120.80067606600005,13.280248262000043],[120.81010235300005,13.27581519100005],[120.86773544400012,13.24703289200005],[120.973278316,13.197198405000051],[121.01307165100002,13.229543980000074],[121.0262206110001,13.243218628000022],[121.05859345400006,13.258122619000062],[121.06353294700011,13.266020727000068],[121.0659669900001,13.266286325000067],[121.06725195000001,13.268136199000025],[121.07621684000003,13.26673831100004],[121.08114786400006,13.268014687000061],[121.08208717800005,13.269460037000044],[121.08045463000008,13.274176234000038],[121.08257711600004,13.278098450000073],[121.0812916110001,13.281459221000034],[121.08278596100001,13.28595563400006],[121.08432541900004,13.287263408000058],[121.08578328200008,13.28667753700006],[121.08652611800005,13.288309728000058],[121.08877697300011,13.288068643000031],[121.09718762600005,13.29601483500005],[121.09694197600004,13.29826868200007],[121.10097383900006,13.297819766000032],[121.10570779600005,13.301461002000053],[121.10036758600006,13.30248599600003],[121.10048713900005,13.308486347000041],[121.10245938000003,13.310763162000057],[121.10156176900011,13.314105781000023],[121.10458483500008,13.316791482000042],[121.10708611700011,13.317009429000052],[121.10371820600005,13.312553754000021],[121.10882031000006,13.311538615000075],[121.10745447400006,13.314828915000021],[121.11112019100005,13.317203946000063],[121.10812590700004,13.321904479000068],[121.11281341500012,13.323997602000077],[121.10973402700006,13.327038059000074],[121.11571679800011,13.330054221000069],[121.1142920210001,13.336454227000047],[121.1123638040001,13.336356969000065],[121.11124724800004,13.33950006300006],[121.11482017100002,13.340354512000033],[121.11500910900008,13.337809665000066],[121.11635518600008,13.340940566000029],[121.11129449700002,13.351071986000022],[121.112552778,13.351646540000047],[121.11527325300005,13.349651227000038],[121.11628119900001,13.352348789000075],[121.1199355230001,13.353524124000046],[121.11996671500003,13.357201966000048],[121.12487123100004,13.358071228000028],[121.12007433800011,13.36484936900007],[121.11681761300008,13.373437547000037],[121.11801030200002,13.38484453600006],[121.12241,13.38592],[121.12804,13.39419],[121.1354394650001,13.398576651000042],[121.13634839500003,13.404406283000071],[121.14015826900004,13.406096588000025],[121.13707733800004,13.410655531000032],[121.10271970100007,13.41832148900005],[121.09647838900003,13.416013268000029],[121.09337901300012,13.416875729000026],[121.0921377090001,13.415298303000043],[121.09017722300007,13.416432353000062],[121.08367568800008,13.410530683000047],[121.07461565200003,13.406536900000049],[121.06792787800009,13.39090150100003],[121.06265728000005,13.383053085000029],[121.05476082200005,13.378669500000058],[121.02714670400007,13.385463947000062],[121.02073829900007,13.385664598000062],[121.0187926430001,13.38463904200006],[121.02157413500004,13.380094198000052],[121.01564451800004,13.380457958000022],[121.00755165100009,13.377207524000028],[121.00011948100007,13.376734734000024],[120.98897515100009,13.37372817000005],[120.97867265800005,13.374489833000041],[120.9691439180001,13.361727640000026],[120.96122734900007,13.356136621000076],[120.90647762300011,13.341991565000058],[120.82005116900007,13.312005979000048],[120.80067606600005,13.280248262000043]]]}},{"type":"Feature","properties":{"shapeName":"Bansud","shapeISO":"","shapeID":"30758251B27476294786678","shapeGroup":"PHL","shapeType":"ADM3","psgc_code":"1705202000","legacy_psgc_code":"175202000","province":"Oriental Mindoro"},"geometry":{"type":"Polygon","coordinates":[[[121.48484223500009,12.879410870000072],[121.48204071500004,12.87851041600004],[121.47278879500004,12.87960692200005],[121.466725472,12.876855054000032],[121.46645811300004,12.879061828000033],[121.46468227700007,12.879607190000058],[121.46240622200003,12.877786332000028],[121.45372305400008,12.879291324000064],[121.45226080100008,12.882424521000075],[121.44925444800003,12.879779361000033],[121.44411939200006,12.879860506000057],[121.37967152700003,12.890841641000065],[121.33580831900008,12.891476499000078],[121.24354899100001,12.899506232000022],[121.2470242930001,12.826554369000064],[121.2587411290001,12.756897567000067],[121.28690727000003,12.760934359000032],[121.42689762200007,12.760043085000063],[121.428189427,12.772859012000026],[121.42579462700007,12.776854533000062],[121.42664370000011,12.784123916000055],[121.42901692500004,12.786481991000073],[121.43255578500009,12.787032060000058],[121.44201677400008,12.784887500000025],[121.44504996500007,12.787254892000021],[121.4477984990001,12.792504878000045],[121.45122591300003,12.792790266000054],[121.45378454000002,12.790175584000053],[121.45951953800011,12.789433701000064],[121.47217996400002,12.792740267000056],[121.47662404400012,12.791595181000048],[121.48217510800009,12.794695252000054],[121.4789595100001,12.806901313000026],[121.48092674400004,12.812280160000057],[121.48409087200002,12.81454016300006],[121.48301398100011,12.821696816000042],[121.48428630300009,12.829061591000027],[121.48816308500011,12.837915355000064],[121.49386161300004,12.845853135000027],[121.49464660700005,12.850049200000058],[121.49028592700006,12.862171229000069],[121.4859299950001,12.869091121000054],[121.48484223500009,12.879410870000072]]]}},{"type":"Feature","properties":{"shapeName":"Bongabong","shapeISO":"","shapeID":"30758251B15501509529895","shapeGroup":"PHL","shapeType":"ADM3","psgc_code":"1705203000","legacy_psgc_code":"175203000","province":"Oriental Mindoro"},"geometry":{"type":"Polygon","coordinates":[[[121.2587411290001,12.756897567000067],[121.25628676000008,12.728058734000058],[121.261273361,12.694725695000045],[121.26094981900007,12.686051228000053],[121.2586164600001,12.650692021000054],[121.3168686680001,12.644389149000062],[121.35622238700012,12.629995647000044],[121.36378577500011,12.63275077700007],[121.36435056200003,12.635762973000055],[121.36642144600012,12.637080808000064],[121.37329301800003,12.63689254600007],[121.37658760700003,12.638869300000067],[121.37809370500008,12.64103431500007],[121.3770582630001,12.64395237900004],[121.37809370500008,12.648282411000025],[121.38158783000006,12.65205992600005],[121.38729204900005,12.654135008000026],[121.38844854900003,12.660245559000032],[121.39200222300008,12.66161179900007],[121.41300410200006,12.66247104100006],[121.41538575700008,12.664407217000075],[121.42029830000001,12.665190867000035],[121.42605086100002,12.670092619000059],[121.43002604000003,12.654043277000028],[121.43779189000009,12.65584655500004],[121.4521676390001,12.647750211000073],[121.46254663800005,12.64641473200004],[121.4681392220001,12.647969682000053],[121.47141634900004,12.64430464700007],[121.48504620000006,12.639937108000026],[121.50659274000009,12.62603550700004],[121.51418761700006,12.628516513000022],[121.51704464400007,12.627445127000044],[121.52475897800002,12.629439131000026],[121.52642768200008,12.623101553000026],[121.53397890000008,12.62035000800006],[121.5462188360001,12.621297997000056],[121.54957028100011,12.620057641000074],[121.55482300100005,12.62265945200005],[121.54810628900009,12.643459205000056],[121.54873006500009,12.668619311000043],[121.53872542600004,12.684850512000025],[121.53920480400006,12.693697697000061],[121.53755994200003,12.698017206000031],[121.51703579800005,12.72493060100004],[121.516484923,12.728504506000036],[121.51791443000002,12.729090025000062],[121.5179995740001,12.731623488000025],[121.51582164400008,12.737688121000076],[121.51398893200007,12.739209565000067],[121.51468412400004,12.73730101700005],[121.51141270700009,12.737167477000071],[121.51057886000001,12.738402243000053],[121.51093250600002,12.730157822000024],[121.50975066,12.72903978100004],[121.5076336410001,12.734844096000074],[121.5049538620001,12.737576077000028],[121.50271844800011,12.738306284000032],[121.503854294,12.736579908000067],[121.49818312100001,12.74008946300006],[121.48373512900002,12.756633674000057],[121.47813127900008,12.765188815000045],[121.479433491,12.765048324000077],[121.47667622600011,12.770698846000073],[121.47579928800008,12.77726178100005],[121.47772341600012,12.783614876000058],[121.48267430700002,12.788788563000026],[121.48217510800009,12.794695252000054],[121.47662404400012,12.791595181000048],[121.47217996400002,12.792740267000056],[121.45951953800011,12.789433701000064],[121.45378454000002,12.790175584000053],[121.45122591300003,12.792790266000054],[121.4477984990001,12.792504878000045],[121.44504996500007,12.787254892000021],[121.44201677400008,12.784887500000025],[121.43255578500009,12.787032060000058],[121.42901692500004,12.786481991000073],[121.42664370000011,12.784123916000055],[121.42579462700007,12.776854533000062],[121.428189427,12.772859012000026],[121.42689762200007,12.760043085000063],[121.28690727000003,12.760934359000032],[121.2587411290001,12.756897567000067]]]}},{"type":"Feature","properties":{"shapeName":"Bulalacao","shapeISO":"","shapeID":"30758251B89806252080387","shapeGroup":"PHL","shapeType":"ADM3","psgc_code":"1705204000","legacy_psgc_code":"175204000","province":"Oriental Mindoro"},"geometry":{"type":"MultiPolygon","coordinates":[[[[121.28303334700001,12.216735138000047],[121.27982976100009,12.216776132000064],[121.27960730000007,12.215668693000055],[121.28020733800008,12.213417614000036],[121.28255912000009,12.212257899000065],[121.28303334700001,12.216735138000047]]],[[[121.38488283600009,12.26402868300005],[121.37954843700004,12.259718385000042],[121.37992243800011,12.258470957000043],[121.38435367800002,12.257222342000034],[121.38025119600002,12.251311696000073],[121.38235005500007,12.249670109000022],[121.38573408900004,12.251556816000061],[121.38787791000004,12.254874174000065],[121.38709448500003,12.262364448000028],[121.38488283600009,12.26402868300005]]],[[[121.27622042400003,12.267164253000033],[121.27499872500005,12.268995603000064],[121.27815992700005,12.260363558000051],[121.27795635100006,12.266701956000077],[121.27622042400003,12.267164253000033]]],[[[121.38200935500004,12.27981346000007],[121.37886878800009,12.282906518000061],[121.37781393700004,12.27979282800004],[121.37316050900006,12.278118989000063],[121.36902668100004,12.278522004000024],[121.37043488600011,12.274074727000027],[121.37450487300009,12.27349360900007],[121.373274809,12.270563204000041],[121.37725923900007,12.268923047000044],[121.37610686000005,12.267072733000077],[121.3777162,12.263547217000053],[121.38224976300012,12.264805498000044],[121.38629617200002,12.269105806000027],[121.38200935500004,12.27981346000007]]],[[[121.400526807,12.35387227700005],[121.39704243100005,12.349398864000023],[121.39754392100008,12.34050998600003],[121.40044422900007,12.336542037000072],[121.4016038420001,12.339510892000021],[121.39989743700005,12.34507056700005],[121.400526807,12.35387227700005]]],[[[121.44418680900003,12.383747792000065],[121.4458544370001,12.37769146900007],[121.44457528400005,12.374580581000032],[121.44519298500006,12.369236957000055],[121.45119129800003,12.367543097000066],[121.45640068000012,12.362571651000053],[121.46060233700007,12.361953392000032],[121.45900445500001,12.363635884000075],[121.45992509100006,12.364854575000038],[121.45519577100004,12.369883740000034],[121.45758452000007,12.371876844000042],[121.45871491300011,12.375340831000074],[121.4616813880001,12.37635335400006],[121.4511707580001,12.382404508000036],[121.45091476000005,12.384268459000054],[121.44706292500007,12.382587514000022],[121.44418680900003,12.383747792000065]]],[[[121.4153825520001,12.40720762500007],[121.3989972380001,12.411682617000054],[121.38990680400002,12.420331530000055],[121.38294202800012,12.436745237000025],[121.37619391200008,12.443500383000071],[121.36317165000003,12.443092542000045],[121.36368235900011,12.449030084000071],[121.34207912300008,12.46688094500007],[121.34020017300008,12.478132059000075],[121.33595774200012,12.489702677000025],[121.33126713700005,12.489708733000043],[121.3285522860001,12.488073342000064],[121.31976883100003,12.491958964000048],[121.31600785600006,12.492172693000043],[121.31157245700001,12.485651693000023],[121.30457753300004,12.480634997000038],[121.30390934700006,12.478243922000047],[121.29845507700009,12.475730573000021],[121.29712202900009,12.47006366000005],[121.29522808100012,12.468009041000073],[121.29043864100004,12.466920951000077],[121.28831856600004,12.464722445000064],[121.28533216900007,12.465771541000038],[121.28029299900004,12.463268495000023],[121.27684306600008,12.459560428000032],[121.26813820000007,12.455515855000044],[121.25830501900009,12.455505445000028],[121.25685280000005,12.450373983000077],[121.2536898080001,12.448144614000057],[121.25353122800004,12.444179183000074],[121.24918334300003,12.43905462400005],[121.24577494900007,12.440088015000072],[121.24511134700003,12.438018034000038],[121.24358474100006,12.437833478000073],[121.23222803800002,12.440650479000055],[121.2294951020001,12.411468316000025],[121.23585117000005,12.319666766000068],[121.24686917500003,12.291886716000022],[121.24089554400007,12.243143603000021],[121.24350371600008,12.207783105000033],[121.2447659400001,12.207209070000033],[121.2479229270001,12.210063691000073],[121.25024487600001,12.216350011000031],[121.25469432900002,12.221168030000058],[121.25513595900009,12.224867720000077],[121.25730286300006,12.227533812000047],[121.25617802200009,12.232206298000051],[121.2591628350001,12.232802353000068],[121.26170940000009,12.235490120000065],[121.26361554100004,12.245846407000045],[121.26249500100005,12.24915863700005],[121.26391320300002,12.252984425000022],[121.26390930800005,12.256318959000055],[121.26236020800002,12.257171904000074],[121.2632547390001,12.265519439000059],[121.2639210860001,12.267622298000049],[121.26528810900004,12.267334701000038],[121.26592299200001,12.270568136000065],[121.26762325900006,12.269527328000038],[121.26910334900003,12.263718360000041],[121.26768810400006,12.274556416000053],[121.26875304000009,12.275726719000033],[121.27293228400003,12.27254126500003],[121.27226282200002,12.275212765000049],[121.27437901000008,12.275868741000068],[121.27579744000002,12.281960321000042],[121.27484551500004,12.279430626000021],[121.27420473300003,12.280111066000075],[121.27607736400012,12.28497247000007],[121.2825594630001,12.288613637000026],[121.29703841600008,12.28633605300007],[121.30134420600007,12.289588011000035],[121.30204870800003,12.292416847000027],[121.30755235200002,12.294412713000042],[121.32755680800005,12.293012223000062],[121.333374,12.294916948000036],[121.33714970000005,12.309916599000076],[121.3399841590001,12.313521206000075],[121.34211439,12.313571944000046],[121.3391019290001,12.314533850000032],[121.34126695500004,12.319190094000021],[121.34284363400002,12.31873097500005],[121.34137689900001,12.319285947000026],[121.34149609200006,12.321721180000054],[121.34478311200007,12.326277619000052],[121.35346511700004,12.32621443000005],[121.36178671100004,12.324090474000059],[121.36433714300006,12.305430546000025],[121.36716933500009,12.30459662100003],[121.36991104700007,12.301565135000033],[121.36821603900012,12.298330185000054],[121.37295007800003,12.296624612000073],[121.37549986800002,12.297194708000063],[121.37737116800008,12.302456136000046],[121.37949585100012,12.298926148000021],[121.38193489600008,12.298238121000054],[121.38188205300003,12.296392512000068],[121.37952105400007,12.295286771000065],[121.38041891300009,12.29309276400005],[121.37773453400007,12.295821014000069],[121.37665722800011,12.29432513100005],[121.37250739500007,12.29402471700007],[121.37168019900002,12.29130462300003],[121.37034293700003,12.291191948000062],[121.36962548400004,12.288917512000069],[121.37296861800007,12.285046657000066],[121.37228485300011,12.282491382000046],[121.3763698140001,12.28157099200007],[121.3784191530001,12.283786258000077],[121.38064098900009,12.292859673000066],[121.38324929900011,12.29552637200004],[121.39658539400011,12.285951252000075],[121.40135235100001,12.295732368000074],[121.39442505200009,12.301182014000062],[121.39364767000006,12.30446825100006],[121.39474728200003,12.307825098000023],[121.39330523500007,12.308398383000053],[121.39068439300002,12.306580354000062],[121.38831318100006,12.308562744000028],[121.38738997200005,12.312343616000021],[121.3894187190001,12.315016205000063],[121.38577364800005,12.31570755100006],[121.38529193200009,12.317600714000037],[121.38808007400007,12.321789184000068],[121.38792162400011,12.326170412000067],[121.38452406800002,12.334564231000058],[121.38376692800011,12.35083975200007],[121.38031100300009,12.35175590700004],[121.38147140400008,12.353292418000024],[121.37994408400004,12.354477576000022],[121.3826116570001,12.357350480000036],[121.38388504200009,12.362762088000068],[121.38854560900006,12.364062830000023],[121.39131387300006,12.367544806000069],[121.39856327000007,12.36512125400003],[121.40903115600008,12.368236052000043],[121.41452741000012,12.366709358000037],[121.41715529700002,12.363216049000073],[121.42517835600006,12.35985064700003],[121.43374951500004,12.358787523000046],[121.44162325900004,12.355278757000065],[121.4486440610001,12.35669954900004],[121.45257716300011,12.359377641000037],[121.44538934500008,12.365606034000052],[121.44139290300006,12.366805525000075],[121.4346727200001,12.37700191500005],[121.42929196800003,12.37833431000007],[121.42855874000008,12.385048640000036],[121.42475842100009,12.38936854700006],[121.42176137600006,12.388394967000067],[121.41914771300003,12.390686427000048],[121.4176188780001,12.390088513000023],[121.4137662600001,12.391822130000037],[121.41330498400009,12.398959235000063],[121.41762334100008,12.400047244000064],[121.4172690790001,12.402723111000057],[121.41507530000001,12.404915019000043],[121.4153825520001,12.40720762500007]]]]}},{"type":"Feature","properties":{"shapeName":"City of Calapan","shapeISO":"","shapeID":"30758251B77350797414463","shapeGroup":"PHL","shapeType":"ADM3","psgc_code":"1705205000","legacy_psgc_code":"175205000","province":"Oriental Mindoro"},"geometry":{"type":"MultiPolygon","coordinates":[[[[121.21663643200009,13.429560517000027],[121.21462888400004,13.426935985000057],[121.21632021300002,13.426083334000054],[121.21663643200009,13.429560517000027]]],[[[121.10570779600005,13.301461002000053],[121.11122000000012,13.29993],[121.12234234700009,13.299806671000056],[121.13202393900008,13.301178942000035],[121.13382228800003,13.298915699000077],[121.15572,13.29807],[121.16814000000011,13.30007],[121.17333,13.30272],[121.19870064300005,13.296270203000063],[121.20673803300008,13.303065840000045],[121.2331304920001,13.308580797000047],[121.24051978300008,13.311785790000044],[121.24204097000006,13.315510231000076],[121.25833922400011,13.326993386000026],[121.26459104000003,13.329857273000073],[121.27054660600004,13.330101877000061],[121.27511289800009,13.332587991000025],[121.27576552100004,13.334538878000046],[121.2742332570001,13.335606819000077],[121.27845858900002,13.340064311000049],[121.27769323700011,13.341973712000026],[121.28920787700008,13.353563133000023],[121.27657659200008,13.361431020000055],[121.27713141100003,13.36027210800006],[121.2653557220001,13.366538310000067],[121.26256446600007,13.366117790000033],[121.25125935000005,13.37265196900006],[121.24096502900011,13.385443172000066],[121.23554355300007,13.394971087000044],[121.23089912400008,13.395453643000053],[121.228185026,13.388872065000044],[121.22594396500006,13.388872892000052],[121.22807773900001,13.403705133000074],[121.22594269600006,13.407454532000031],[121.22470109800008,13.406774859000052],[121.22131150200005,13.408415485000035],[121.20892174700009,13.41780985400004],[121.20197648700002,13.42897279600004],[121.20111545500004,13.431857753000031],[121.20218680500011,13.434960620000027],[121.19990517800011,13.437631364000026],[121.1973501540001,13.435961060000068],[121.19616634800002,13.430823714000041],[121.1934128260001,13.42749754700003],[121.19464551300007,13.425825091000036],[121.19389097300007,13.423944155000072],[121.18505021400006,13.417821262000075],[121.17146889100002,13.414353794000021],[121.15993416600008,13.417165724000029],[121.1564663910001,13.41504284000007],[121.15670080000007,13.41096058900007],[121.14597023500005,13.41027147400007],[121.1430544970001,13.408495242000072],[121.14139719700006,13.405304542000067],[121.14015826900004,13.406096588000025],[121.13634839500003,13.404406283000071],[121.1354394650001,13.398576651000042],[121.12804,13.39419],[121.12241,13.38592],[121.11801030200002,13.38484453600006],[121.11681761300008,13.373437547000037],[121.12007433800011,13.36484936900007],[121.12487123100004,13.358071228000028],[121.11996671500003,13.357201966000048],[121.1199355230001,13.353524124000046],[121.11628119900001,13.352348789000075],[121.11527325300005,13.349651227000038],[121.112552778,13.351646540000047],[121.11129449700002,13.351071986000022],[121.11635518600008,13.340940566000029],[121.11500910900008,13.337809665000066],[121.11482017100002,13.340354512000033],[121.11124724800004,13.33950006300006],[121.1123638040001,13.336356969000065],[121.1142920210001,13.336454227000047],[121.11571679800011,13.330054221000069],[121.10973402700006,13.327038059000074],[121.11281341500012,13.323997602000077],[121.10812590700004,13.321904479000068],[121.11112019100005,13.317203946000063],[121.10745447400006,13.314828915000021],[121.10882031000006,13.311538615000075],[121.10371820600005,13.312553754000021],[121.10708611700011,13.317009429000052],[121.10458483500008,13.316791482000042],[121.10156176900011,13.314105781000023],[121.10245938000003,13.310763162000057],[121.10048713900005,13.308486347000041],[121.10036758600006,13.30248599600003],[121.10570779600005,13.301461002000053]]],[[[121.22132131900003,13.447282106000046],[121.21902168200006,13.445235288000049],[121.21721752600001,13.438538677000054],[121.2222725370001,13.444709207000074],[121.22132131900003,13.447282106000046]]],[[[121.16404374700005,13.467073836000054],[121.16051813000001,13.46312281300004],[121.1631121260001,13.46426899200003],[121.16404374700005,13.467073836000054]]]]}},{"type":"Feature","properties":{"shapeName":"Gloria","shapeISO":"","shapeID":"30758251B4033826093725","shapeGroup":"PHL","shapeType":"ADM3","psgc_code":"1705206000","legacy_psgc_code":"175206000","province":"Oriental Mindoro"},"geometry":{"type":"MultiPolygon","coordinates":[[[[121.48918714100012,12.987890019000076],[121.49070584900005,12.983541567000032],[121.48922979500003,12.98791187300003],[121.48918714100012,12.987890019000076]]],[[[121.48484223500009,12.879410870000072],[121.48229679200006,12.895958066000048],[121.48302260000003,12.90474150700004],[121.48459718400011,12.909598542000026],[121.48750354700007,12.914296241000045],[121.4880482960001,12.913399648000052],[121.49162579500012,12.923324966000052],[121.49740590400006,12.930988225000021],[121.49512133400003,12.929565269000022],[121.49216368500004,12.929951888000062],[121.49672645100009,12.931411393000076],[121.49835774500002,12.938472268000055],[121.49125167000011,12.983782036000036],[121.49076470000011,12.98328023700003],[121.48918714100012,12.987890019000076],[121.48933823000004,12.983807625000054],[121.488045327,12.985533404000023],[121.48523806300011,12.983914793000054],[121.48398944300004,12.986376766000035],[121.48526321500003,12.98731852900005],[121.48388380800009,12.987845180000022],[121.48282453000002,12.985893521000037],[121.4771415560001,12.984673716000032],[121.47546047500009,12.982576503000075],[121.47012179400008,12.98241189600003],[121.46688953500006,12.97550043700005],[121.45627195700001,12.976954402000047],[121.45399113400003,12.982070458000067],[121.44636439800001,12.981018177000067],[121.43979347600009,12.978746802000046],[121.44176798300009,12.975351947000036],[121.440373539,12.973310881000032],[121.42289475500002,12.972481177000077],[121.42114505900008,12.968668354000044],[121.42472209300001,12.96743493300005],[121.42426812500003,12.965751192000027],[121.4172361950001,12.967465725000068],[121.40771281900004,12.966968517000055],[121.40423757100007,12.968884501000048],[121.39788201600004,12.967234147000056],[121.3903426280001,12.967895592000048],[121.3816149810001,12.974416011000073],[121.37601279700004,12.970287239000072],[121.3662749560001,12.975327523000033],[121.34714787200005,12.973823615000072],[121.24308735500006,12.978253805000065],[121.24529862100007,12.923056417000055],[121.24354899100001,12.899506232000022],[121.33580831900008,12.891476499000078],[121.37967152700003,12.890841641000065],[121.44411939200006,12.879860506000057],[121.44925444800003,12.879779361000033],[121.45226080100008,12.882424521000075],[121.45372305400008,12.879291324000064],[121.46240622200003,12.877786332000028],[121.46468227700007,12.879607190000058],[121.46645811300004,12.879061828000033],[121.466725472,12.876855054000032],[121.47278879500004,12.87960692200005],[121.48204071500004,12.87851041600004],[121.48484223500009,12.879410870000072]]]]}},{"type":"Feature","properties":{"shapeName":"Mansalay","shapeISO":"","shapeID":"30758251B13685654422788","shapeGroup":"PHL","shapeType":"ADM3","psgc_code":"1705207000","legacy_psgc_code":"175207000","province":"Oriental Mindoro"},"geometry":{"type":"Polygon","coordinates":[[[121.2586164600001,12.650692021000054],[121.24943248000011,12.545303128000057],[121.23873678200005,12.522414437000066],[121.23510219400009,12.48842621700004],[121.23222803800002,12.440650479000055],[121.24358474100006,12.437833478000073],[121.24511134700003,12.438018034000038],[121.24577494900007,12.440088015000072],[121.24918334300003,12.43905462400005],[121.25353122800004,12.444179183000074],[121.2536898080001,12.448144614000057],[121.25685280000005,12.450373983000077],[121.25830501900009,12.455505445000028],[121.26813820000007,12.455515855000044],[121.27684306600008,12.459560428000032],[121.28029299900004,12.463268495000023],[121.28533216900007,12.465771541000038],[121.28831856600004,12.464722445000064],[121.29043864100004,12.466920951000077],[121.29522808100012,12.468009041000073],[121.29712202900009,12.47006366000005],[121.29845507700009,12.475730573000021],[121.30390934700006,12.478243922000047],[121.30457753300004,12.480634997000038],[121.31157245700001,12.485651693000023],[121.31600785600006,12.492172693000043],[121.31976883100003,12.491958964000048],[121.3285522860001,12.488073342000064],[121.33126713700005,12.489708733000043],[121.33595774200012,12.489702677000025],[121.34020017300008,12.478132059000075],[121.34207912300008,12.46688094500007],[121.36368235900011,12.449030084000071],[121.36317165000003,12.443092542000045],[121.37619391200008,12.443500383000071],[121.38294202800012,12.436745237000025],[121.38990680400002,12.420331530000055],[121.3989972380001,12.411682617000054],[121.4153825520001,12.40720762500007],[121.41462231800006,12.410348960000022],[121.41628518800007,12.410765673000071],[121.4147432210001,12.411569893000035],[121.4134920030001,12.418802305000042],[121.41460605200007,12.421915855000066],[121.41265528600002,12.425465875000043],[121.41313713800002,12.433187173000022],[121.41036017600004,12.434816347000037],[121.40989755600003,12.445151958000054],[121.41546573300002,12.450352765000048],[121.42125649500008,12.447952494000049],[121.42267627700005,12.45225180500006],[121.42531616600002,12.453453609000064],[121.42609978400003,12.454901758000062],[121.4238227080001,12.456654309000044],[121.42167109400009,12.463296840000055],[121.42281830600007,12.466486959000065],[121.4253911610001,12.46703281200007],[121.42622142000005,12.470276855000066],[121.43144826900004,12.474702856000022],[121.43578077300003,12.47582692100002],[121.44109962300001,12.472170430000062],[121.44481124100002,12.47626782900005],[121.44291439900007,12.479805081000052],[121.43969974400011,12.481864376000033],[121.43745732000002,12.490686531000051],[121.43815021500006,12.492995029000042],[121.44228898500012,12.495917850000069],[121.44135049500005,12.49955792000003],[121.44332722100012,12.503449506000038],[121.43909554700008,12.506472036000048],[121.43675349300008,12.50446140400004],[121.43436599200004,12.504717590000041],[121.43610487100011,12.50637473100005],[121.43480492700007,12.509147970000072],[121.43761185400001,12.516190148000021],[121.44318040100006,12.521818888000041],[121.44929769600003,12.522660693000034],[121.45169918700003,12.522053468000024],[121.45063038800004,12.519636354000056],[121.45164027200008,12.521690548000038],[121.4524125690001,12.519292396000026],[121.45475504700005,12.518026145000022],[121.4627182270001,12.518003430000022],[121.46501886300007,12.519474666000065],[121.46751121800003,12.525379469000029],[121.48832360400002,12.536053913000046],[121.49766651000004,12.543636496000033],[121.50394156000004,12.546949454000071],[121.50705360500001,12.546905657000025],[121.50578762500004,12.549723280000023],[121.50801248000005,12.551129630000048],[121.50880461000008,12.557801851000022],[121.51191000300003,12.560905191000074],[121.5118514610001,12.565703123000048],[121.50596568800006,12.56642449900005],[121.49723160200006,12.576187321000077],[121.49304833500003,12.577026361000037],[121.48811052300005,12.581717165000043],[121.48067829600006,12.580823081000062],[121.47865953000007,12.583032358000025],[121.47476930700009,12.584212790000038],[121.47377616000006,12.586398710000026],[121.47600829800001,12.588190972000064],[121.47277489400005,12.590535985000031],[121.4737664050001,12.594145059000027],[121.46847397400006,12.599950619000026],[121.4663331270001,12.606646788000035],[121.46069698400004,12.607877836000057],[121.45620442800009,12.611227043000042],[121.45446283500007,12.615546364000068],[121.45076881500006,12.618064017000052],[121.45168853300004,12.62239706500003],[121.44884480100006,12.623449268000059],[121.44711994500005,12.626103257000068],[121.4437874250001,12.62479894300003],[121.43923531900009,12.628109636000033],[121.43244826000011,12.628070872000023],[121.42935781500012,12.625516093000044],[121.41571240000007,12.626009235000026],[121.41900125900008,12.622791869000025],[121.41803045300003,12.61735535400004],[121.413758905,12.613083808000056],[121.41006984100011,12.606288163000045],[121.40832799100008,12.594446272000027],[121.40521581100006,12.590561103000027],[121.398614328,12.592308554000056],[121.39045955600011,12.59172607000005],[121.38769170600006,12.59378013600002],[121.38005652700008,12.592954711000061],[121.36767515600002,12.604717013000027],[121.36561159400003,12.60977274000004],[121.35797641500005,12.61575706900004],[121.35529378500007,12.626281235000022],[121.35622238700012,12.629995647000044],[121.3168686680001,12.644389149000062],[121.2586164600001,12.650692021000054]]]}},{"type":"Feature","properties":{"shapeName":"Naujan","shapeISO":"","shapeID":"30758251B73486212842201","shapeGroup":"PHL","shapeType":"ADM3","psgc_code":"1705208000","legacy_psgc_code":"175208000","province":"Oriental Mindoro"},"geometry":{"type":"MultiPolygon","coordinates":[[[[121.36467075000007,13.218589411000039],[121.36474651000003,13.221345189000033],[121.3628619750001,13.218721992000042],[121.36557987300012,13.217007916000057],[121.36467075000007,13.218589411000039]]],[[[120.973278316,13.197198405000051],[121.00383125200005,13.180538426000055],[121.11848852900005,13.105488950000051],[121.16962748800006,13.093317855000066],[121.18545674800009,13.081633324000052],[121.17248166600007,13.098202891000028],[121.16544274500006,13.110997410000039],[121.16408834600009,13.119752677000065],[121.16508170300006,13.130647131000046],[121.16905363400008,13.147710861000064],[121.18007611900009,13.169222090000062],[121.18955677500003,13.199070186000029],[121.20859930900008,13.205173458000047],[121.21555608200003,13.201231286000052],[121.22358445700002,13.202550546000055],[121.22772539900006,13.19941284500004],[121.244495948,13.199141416000032],[121.25251591100005,13.19705779800006],[121.25520507800002,13.194885505000059],[121.2570814720001,13.201644373000022],[121.26179481200006,13.202438199000028],[121.26412667500006,13.201297074000024],[121.26733016800006,13.20434791300005],[121.2688221410001,13.203528378000044],[121.2764443000001,13.205769330000066],[121.28197879000004,13.211896840000065],[121.28910565000001,13.206148812000038],[121.29770705800001,13.208574850000048],[121.29869952800004,13.210063556000023],[121.3044337980001,13.21089061400005],[121.31099512900005,13.214474533000043],[121.31981708400008,13.21502590600005],[121.3231820520001,13.216561075000072],[121.32391028100005,13.224739577000037],[121.32243557700008,13.225374423000062],[121.3245899310001,13.225501176000023],[121.32408472200007,13.229095938000057],[121.32560689400009,13.229378118000056],[121.32397115200001,13.235229319000041],[121.32671088600011,13.238435223000067],[121.33177222200004,13.236055761000046],[121.33201094200001,13.234088708000058],[121.33394934700004,13.23453750300007],[121.33253612500005,13.231176326000025],[121.33443633600007,13.230670240000052],[121.33491258300012,13.224976769000023],[121.33658839600002,13.228092064000066],[121.33987904700007,13.226543392000053],[121.34275179000008,13.230799309000076],[121.34220396300009,13.232428741000035],[121.34473413100011,13.234404682000047],[121.34432448400003,13.23582639500006],[121.34699923300002,13.237585464000063],[121.34883059300012,13.237296302000061],[121.34902336800008,13.234452875000045],[121.35167402000002,13.23295887100005],[121.35254150600008,13.237272205000068],[121.35526444900006,13.237537270000075],[121.35593916000005,13.235248070000068],[121.3574331640001,13.235151684000073],[121.35870317800004,13.237142409000057],[121.36394137800005,13.23326245800007],[121.36467272900006,13.230498239000042],[121.36178114000006,13.229914957000062],[121.36294770400002,13.227321215000075],[121.36572760000001,13.226837215000046],[121.36528083100006,13.224901216000035],[121.36905354800001,13.226229112000055],[121.3723211460001,13.221455134000053],[121.37445562500011,13.22243037000004],[121.3760987070001,13.219607439000072],[121.37730212000008,13.206575205000036],[121.37437599600003,13.204172699000026],[121.3753344910001,13.20353897700005],[121.37442922000002,13.200900110000077],[121.37750311600007,13.200377488000072],[121.37857776900012,13.19812414300003],[121.37794272400004,13.192840029000024],[121.38320523200002,13.184407819000057],[121.39649939900005,13.188561850000042],[121.40464514300004,13.194375753000031],[121.40363876900005,13.202329443000053],[121.40052206200005,13.203559722000023],[121.40126022900006,13.207332577000045],[121.40348735200007,13.20817293500005],[121.40308780600003,13.211935324000024],[121.40075712300006,13.215231574000029],[121.40995327100006,13.220040726000036],[121.42022821500007,13.22097212400007],[121.42308154400007,13.223721965000038],[121.42277880200004,13.227570039000057],[121.42547882100007,13.228793822000057],[121.43217695100009,13.23175416500004],[121.43324256400001,13.233488885000043],[121.42317949300002,13.234469298000022],[121.42178879800008,13.237362705000066],[121.41788014800011,13.239324001000057],[121.4155564780001,13.236846963000062],[121.41445141300005,13.242211282000028],[121.4067033770001,13.237580664000063],[121.40492438900003,13.237880412000038],[121.4042911140001,13.240012448000073],[121.40163331300005,13.240008268000054],[121.40137232000006,13.23721869600007],[121.39976480500002,13.23619454900006],[121.39547333000007,13.236799928000039],[121.39430037200009,13.238210323000033],[121.39747292800007,13.240342272000078],[121.39761046800004,13.24316830400005],[121.39622952400009,13.244019282000068],[121.38988102300004,13.24079209000007],[121.38570455900003,13.243780177000076],[121.3862414670001,13.241488244000038],[121.38447964600005,13.240581268000028],[121.383583197,13.237471048000032],[121.38195329200005,13.239629455000056],[121.37910162000003,13.239409770000066],[121.37792823000007,13.244063419000042],[121.37870787600002,13.24647477800005],[121.38131047600007,13.247748340000044],[121.370585935,13.257500579000066],[121.36863838900001,13.264595626000073],[121.35661253400008,13.281970369000021],[121.35311947800005,13.282826340000042],[121.35565953300011,13.284249235000061],[121.35434124400001,13.286422208000033],[121.33491552200007,13.308426901000075],[121.31605870500005,13.324499427000035],[121.30746846500006,13.336366866000049],[121.30430381300005,13.343787134000024],[121.28920787700008,13.353563133000023],[121.27769323700011,13.341973712000026],[121.27845858900002,13.340064311000049],[121.2742332570001,13.335606819000077],[121.27576552100004,13.334538878000046],[121.27511289800009,13.332587991000025],[121.27054660600004,13.330101877000061],[121.26459104000003,13.329857273000073],[121.25833922400011,13.326993386000026],[121.24204097000006,13.315510231000076],[121.24051978300008,13.311785790000044],[121.2331304920001,13.308580797000047],[121.20673803300008,13.303065840000045],[121.19870064300005,13.296270203000063],[121.17333,13.30272],[121.16814000000011,13.30007],[121.15572,13.29807],[121.13382228800003,13.298915699000077],[121.13202393900008,13.301178942000035],[121.12234234700009,13.299806671000056],[121.11122000000012,13.29993],[121.10570779600005,13.301461002000053],[121.10097383900006,13.297819766000032],[121.09694197600004,13.29826868200007],[121.09718762600005,13.29601483500005],[121.08877697300011,13.288068643000031],[121.08652611800005,13.288309728000058],[121.08578328200008,13.28667753700006],[121.08432541900004,13.287263408000058],[121.08278596100001,13.28595563400006],[121.0812916110001,13.281459221000034],[121.08257711600004,13.278098450000073],[121.08045463000008,13.274176234000038],[121.08208717800005,13.269460037000044],[121.08114786400006,13.268014687000061],[121.07621684000003,13.26673831100004],[121.06725195000001,13.268136199000025],[121.0659669900001,13.266286325000067],[121.06353294700011,13.266020727000068],[121.05859345400006,13.258122619000062],[121.0262206110001,13.243218628000022],[121.01307165100002,13.229543980000074],[120.973278316,13.197198405000051]]]]}},{"type":"Feature","properties":{"shapeName":"Pinamalayan","shapeISO":"","shapeID":"30758251B9076432182480","shapeGroup":"PHL","shapeType":"ADM3","psgc_code":"1705209000","legacy_psgc_code":"175209000","province":"Oriental Mindoro"},"geometry":{"type":"Polygon","coordinates":[[[121.48922979500003,12.98791187300003],[121.48568134900006,13.000622558000032],[121.48542732500005,13.012373513000057],[121.48830739300001,13.025456346000055],[121.49582329000009,13.040265829000077],[121.49478921600007,13.040188774000057],[121.49496324100005,13.042200989000037],[121.4964746600001,13.04209580500003],[121.49662253500003,13.040764897000031],[121.50115670800005,13.049881948000063],[121.50978038500011,13.058931331000053],[121.51935326700004,13.065036367000062],[121.5220520690001,13.064663850000045],[121.52627268100002,13.066942781000023],[121.526686433,13.069331737000027],[121.52882559900002,13.07067009900004],[121.54405073600003,13.075828433000027],[121.54544464700007,13.080137672000035],[121.5563849770001,13.088469178000025],[121.55835379500002,13.095955837000076],[121.55642977000002,13.100112997000053],[121.55640101600011,13.10673554400006],[121.55349351200005,13.11304189200007],[121.55444139100007,13.115796380000063],[121.5532697220001,13.116676880000057],[121.54450235400009,13.110378971000046],[121.53851013000008,13.108627812000066],[121.54240749400003,13.098705564000056],[121.5311788250001,13.08725232100005],[121.52739960500003,13.086045093000052],[121.52300656300008,13.088318603000062],[121.5153464010001,13.073216484000056],[121.50714947300003,13.075125357000047],[121.49819547000004,13.069792297000049],[121.49058985300007,13.071299070000066],[121.48901132900005,13.074599621000061],[121.48552100900008,13.076403424000034],[121.48542377400008,13.082850997000037],[121.48737799600008,13.087382228000024],[121.48329872600004,13.089831397000069],[121.47891486100002,13.089306967000027],[121.47791892400005,13.087190603000067],[121.47505560700006,13.086070174000042],[121.4682835750001,13.086615957000049],[121.45909076700002,13.082199419000062],[121.45684503300004,13.08287314000006],[121.45403786500003,13.08040283300005],[121.45048920400006,13.080192418000024],[121.44767275200002,13.078315387000032],[121.44647534500007,13.075541981000072],[121.4445453290001,13.077193202000046],[121.4432253650001,13.075865040000053],[121.43760899400002,13.076028152000049],[121.43745844400007,13.072774200000026],[121.43973744000004,13.07138565400004],[121.4383489280001,13.063980256000036],[121.43714555000008,13.06314714900003],[121.435433052,13.064581945000043],[121.43015692200004,13.06463455100004],[121.42876549800008,13.064349398000047],[121.42706578100001,13.067515030000038],[121.42845340000008,13.061031763000074],[121.4256836510001,13.06016429400006],[121.42633222100005,13.05705417200005],[121.42384603200003,13.056352459000038],[121.42596538100008,13.055035572000065],[121.42563394400008,13.053243080000072],[121.4278292030001,13.049909153000044],[121.4194618350001,13.048375560000068],[121.41865720800001,13.051047157000028],[121.41659782900001,13.050665564000042],[121.41600198200001,13.047812762000035],[121.4124918010001,13.047911380000073],[121.40785159200004,13.043449788000032],[121.40731139200011,13.041247364000071],[121.40970698500007,13.037861275000068],[121.409610154,13.03503573100005],[121.4085316180001,13.03352471900007],[121.40493017500012,13.032829389000028],[121.40435721000006,13.026877197000033],[121.41005176500005,13.023234763000062],[121.4102644940001,13.021704443000033],[121.40474936900011,13.019130782000047],[121.40374569300002,13.016280727000037],[121.39995834700005,13.014037479000024],[121.40004569200005,13.012508407000041],[121.40389376200005,13.011613535000038],[121.40251760900003,13.007055380000054],[121.39799726400008,13.002834519000032],[121.38717140300002,12.99827791000007],[121.37858164500005,13.004203967000024],[121.37378234300002,12.99741831600005],[121.37162158300009,12.999025661000076],[121.37014261500008,13.003059455000027],[121.366951104,13.00052538500006],[121.35342564200005,13.002486359000045],[121.35258605700005,13.000546679000024],[121.35379106300002,12.998095618000036],[121.35201111100002,12.996307209000065],[121.34981676000007,12.996204093000074],[121.34839534500009,12.998859927000069],[121.31148529100005,13.003238317000068],[121.29548917200009,12.997938636000072],[121.28858881400004,12.999080804000073],[121.28844179900011,13.005739],[121.23957866800004,13.010270545000026],[121.24308735500006,12.978253805000065],[121.34714787200005,12.973823615000072],[121.3662749560001,12.975327523000033],[121.37601279700004,12.970287239000072],[121.3816149810001,12.974416011000073],[121.3903426280001,12.967895592000048],[121.39788201600004,12.967234147000056],[121.40423757100007,12.968884501000048],[121.40771281900004,12.966968517000055],[121.4172361950001,12.967465725000068],[121.42426812500003,12.965751192000027],[121.42472209300001,12.96743493300005],[121.42114505900008,12.968668354000044],[121.42289475500002,12.972481177000077],[121.440373539,12.973310881000032],[121.44176798300009,12.975351947000036],[121.43979347600009,12.978746802000046],[121.44636439800001,12.981018177000067],[121.45399113400003,12.982070458000067],[121.45627195700001,12.976954402000047],[121.46688953500006,12.97550043700005],[121.47012179400008,12.98241189600003],[121.47546047500009,12.982576503000075],[121.4771415560001,12.984673716000032],[121.48282453000002,12.985893521000037],[121.48388380800009,12.987845180000022],[121.48526321500003,12.98731852900005],[121.48398944300004,12.986376766000035],[121.48523806300011,12.983914793000054],[121.488045327,12.985533404000023],[121.48933823000004,12.983807625000054],[121.48918714100012,12.987890019000076],[121.48922979500003,12.98791187300003]]]}},{"type":"Feature","properties":{"shapeName":"Pola","shapeISO":"","shapeID":"30758251B5257459344407","shapeGroup":"PHL","shapeType":"ADM3","psgc_code":"1705210000","legacy_psgc_code":"175210000","province":"Oriental Mindoro"},"geometry":{"type":"Polygon","coordinates":[[[121.38320523200002,13.184407819000057],[121.38352185300005,13.175764870000023],[121.38549429700004,13.171349472000031],[121.38819885600003,13.171848241000077],[121.38904665100006,13.169771169000057],[121.38770285700002,13.163401974000067],[121.38840477500003,13.159237462000021],[121.37311155300006,13.145176488000061],[121.37216307300002,13.14089130800005],[121.36859945300012,13.140159679000021],[121.3709848740001,13.138428979000025],[121.37200489700001,13.133775611000033],[121.36678527600009,13.131844191000027],[121.36671100600006,13.128684637000049],[121.36528725700009,13.129335438000055],[121.36488727100004,13.128068460000065],[121.3706292490001,13.124389716000053],[121.37249274100009,13.121352536000074],[121.37840134500004,13.120861146000038],[121.38084654300008,13.106379426000046],[121.38348489200007,13.110255026000061],[121.38616017200002,13.110702467000067],[121.39201083400008,13.107145905000039],[121.39778907000004,13.10044612200005],[121.39615292000008,13.09566856400005],[121.3914408070001,13.093770629000062],[121.39523667500009,13.08729147300005],[121.39649515000008,13.081884227000046],[121.42440710400001,13.081914217000076],[121.42611602000011,13.082768675000068],[121.42721460900009,13.08598306500005],[121.42990004800004,13.085576180000032],[121.43124276800006,13.084070707000024],[121.43010349100007,13.08040874300002],[121.42764194100005,13.078328121000027],[121.43369725000002,13.073647479000044],[121.4303182000001,13.069305841000073],[121.42872808900006,13.070259799000041],[121.43015692200004,13.06463455100004],[121.435433052,13.064581945000043],[121.43714555000008,13.06314714900003],[121.4383489280001,13.063980256000036],[121.43973744000004,13.07138565400004],[121.43745844400007,13.072774200000026],[121.43760899400002,13.076028152000049],[121.4432253650001,13.075865040000053],[121.4445453290001,13.077193202000046],[121.44647534500007,13.075541981000072],[121.44767275200002,13.078315387000032],[121.45048920400006,13.080192418000024],[121.45403786500003,13.08040283300005],[121.45684503300004,13.08287314000006],[121.45909076700002,13.082199419000062],[121.4682835750001,13.086615957000049],[121.47505560700006,13.086070174000042],[121.47791892400005,13.087190603000067],[121.47891486100002,13.089306967000027],[121.48329872600004,13.089831397000069],[121.48737799600008,13.087382228000024],[121.48542377400008,13.082850997000037],[121.48552100900008,13.076403424000034],[121.48901132900005,13.074599621000061],[121.49058985300007,13.071299070000066],[121.49819547000004,13.069792297000049],[121.50714947300003,13.075125357000047],[121.5153464010001,13.073216484000056],[121.52300656300008,13.088318603000062],[121.52739960500003,13.086045093000052],[121.5311788250001,13.08725232100005],[121.54240749400003,13.098705564000056],[121.53851013000008,13.108627812000066],[121.54450235400009,13.110378971000046],[121.5532697220001,13.116676880000057],[121.55444139100007,13.115796380000063],[121.556622962,13.117149926000025],[121.55728390100012,13.119831068000053],[121.54861709300008,13.122553225000047],[121.54541647200006,13.127884121000022],[121.53800803500008,13.133331627000075],[121.53581576300007,13.139812367000047],[121.53197943000009,13.139489651000076],[121.5207084760001,13.145295281000074],[121.50998311,13.145810889000074],[121.50941928500004,13.151373617000047],[121.50605759200005,13.149992062000024],[121.5033804200001,13.146273353000026],[121.49771885900009,13.145149481000033],[121.49505110100006,13.146042186000045],[121.4971717410001,13.149823906000051],[121.49625612700004,13.150899055000025],[121.49327957000003,13.146603824000067],[121.49164719500004,13.147087665000072],[121.49060092400009,13.145473350000032],[121.48768042000006,13.146934396000063],[121.48567891000005,13.144131748000063],[121.48562230000005,13.140433539000071],[121.48143952200007,13.141985990000023],[121.47761229800005,13.139130888000068],[121.4767777400001,13.136364055000058],[121.46927222300008,13.135102720000077],[121.46858765500008,13.137880566000035],[121.45983146000003,13.138916272000074],[121.44542619600008,13.144716692000031],[121.44198713000003,13.14350403900005],[121.43900480800005,13.151955561000022],[121.44204042000001,13.154203184000039],[121.43316811800003,13.163017358000047],[121.43891974700011,13.161854253000058],[121.4365913360001,13.166884108000033],[121.44084845400005,13.168622023000069],[121.44377605200009,13.178474806000054],[121.4424358220001,13.17999530700007],[121.44586606100006,13.182888673000036],[121.4454217760001,13.185800993000043],[121.44763707300001,13.186377514000071],[121.44965166800012,13.189883405000046],[121.44516360600005,13.197195043000022],[121.44556531700005,13.200041127000077],[121.44714019500009,13.200305582000055],[121.44507020100002,13.206026171000076],[121.44628026300006,13.208423312000036],[121.44401534200006,13.208458763000067],[121.44271824900011,13.211213504000057],[121.43848945800005,13.212450666000052],[121.44465520000006,13.214948195000034],[121.44048075500007,13.219422131000044],[121.4415272550001,13.221855444000028],[121.44076327500011,13.22805635900005],[121.43916328000012,13.228414101000055],[121.43713834100004,13.22507366800005],[121.43560020100006,13.22483806100007],[121.42547882100007,13.228793822000057],[121.42277880200004,13.227570039000057],[121.42308154400007,13.223721965000038],[121.42022821500007,13.22097212400007],[121.40995327100006,13.220040726000036],[121.40075712300006,13.215231574000029],[121.40308780600003,13.211935324000024],[121.40348735200007,13.20817293500005],[121.40126022900006,13.207332577000045],[121.40052206200005,13.203559722000023],[121.40363876900005,13.202329443000053],[121.40464514300004,13.194375753000031],[121.39649939900005,13.188561850000042],[121.38320523200002,13.184407819000057]]]}},{"type":"Feature","properties":{"shapeName":"Puerto Galera","shapeISO":"","shapeID":"30758251B54215534625427","shapeGroup":"PHL","shapeType":"ADM3","psgc_code":"1705211000","legacy_psgc_code":"175211000","province":"Oriental Mindoro"},"geometry":{"type":"MultiPolygon","coordinates":[[[[120.88162226100008,13.413462412000058],[120.93092834700008,13.408275513000035],[120.94885675400008,13.415719705000072],[120.95724565000012,13.414770819000069],[120.96907995300012,13.419997662000071],[120.9793724110001,13.426749320000056],[120.9820934380001,13.432344982000075],[120.98592944000006,13.435959479000076],[120.98953237700005,13.437084837000043],[120.99001514000008,13.439410877000057],[120.99223146100007,13.440442235000035],[120.99833183100009,13.440881110000078],[121.00372719300003,13.444895159000055],[121.00680653400002,13.450091221000037],[121.00447005,13.44986128000005],[120.99746212100001,13.459646988000031],[120.99373025300008,13.459821582000075],[120.9925000820001,13.462593674000061],[120.99012562000007,13.462643606000029],[120.98899337700004,13.465480999000022],[120.99016004600003,13.46680006300005],[120.98642819400004,13.469016082000053],[120.98633922700003,13.470611877000067],[120.98297934800007,13.471463158000063],[120.97835903000009,13.468073540000034],[120.97472568500007,13.468592520000072],[120.97132860500005,13.476124532000028],[120.97174473900009,13.478502849000051],[120.96869600500008,13.478652393000061],[120.96876204400007,13.481725094000069],[120.9710340900001,13.48176477000004],[120.96762894200003,13.483799486000066],[120.96489492900002,13.482819950000021],[120.962922778,13.487039323000033],[120.960945809,13.487379564000037],[120.96007578000001,13.493151710000063],[120.95706611900005,13.493553405000057],[120.9552063210001,13.496221814000023],[120.95763298000008,13.502550386000053],[120.96015278000004,13.501621362000037],[120.96569529700002,13.503184129000033],[120.9681317620001,13.501486184000044],[120.96778875400003,13.498362331000067],[120.96992648900004,13.500935672000026],[120.97271569700001,13.501526245000036],[120.97354964600004,13.502586153000038],[120.97065479200012,13.507059258000027],[120.97169863500005,13.508808160000058],[120.97796136000011,13.507635449000077],[120.9798797300001,13.510743176000062],[120.98242674700009,13.510421552000025],[120.98252985600004,13.512623808000058],[120.97900486100002,13.51196525100005],[120.97826463700005,13.513462708000077],[120.98138644200003,13.513298602000077],[120.98603568200008,13.51643367400004],[120.99024457000007,13.516538352000055],[120.99269827900002,13.522802884000043],[120.98818863000008,13.52169513900003],[120.97858491000011,13.522751076000077],[120.97631253700001,13.52055063000006],[120.96661021800003,13.526543282000034],[120.96126372900005,13.524963282000044],[120.96312815300007,13.517227967000053],[120.96792913000002,13.517832227000042],[120.97201435500006,13.515016063000076],[120.96958893900012,13.513507687000072],[120.96737575500003,13.515012127000034],[120.96876421500008,13.511845999000059],[120.96779789700008,13.510671047000073],[120.96564240100008,13.512827231000074],[120.96232872700011,13.51237328700006],[120.96235230500008,13.51499747300005],[120.96095186200012,13.511410540000043],[120.96399820600004,13.508756141000049],[120.9638183940001,13.506892160000064],[120.95937482000011,13.50816399300004],[120.96035385200003,13.505457103000026],[120.95867174000011,13.504924068000037],[120.95545649100006,13.507489718000045],[120.9540995970001,13.502742779000073],[120.9493129440001,13.502910749000023],[120.95190433900007,13.506404803000066],[120.94876633500007,13.506392499000071],[120.94702414800008,13.510818994000033],[120.95065673400006,13.514315765000049],[120.95156571000007,13.517656932000023],[120.945735979,13.521187010000062],[120.94107230500003,13.514812298000038],[120.946785212,13.509178040000052],[120.94391919800012,13.503545630000076],[120.94187312200006,13.504061232000026],[120.9406258140001,13.508060650000061],[120.93399540400003,13.505636536000054],[120.92894154900011,13.509214795000048],[120.92905195900005,13.511389895000036],[120.9266617940001,13.510988944000076],[120.92562996000004,13.51236847000007],[120.9204777860001,13.512093882000045],[120.92009072200005,13.506579707000071],[120.91522527000006,13.505246875000068],[120.91437536500007,13.50636664600006],[120.91589145600005,13.51048436900004],[120.91465008700004,13.51249843000005],[120.91049968000004,13.509758397000041],[120.90836839600001,13.511422805000052],[120.90682947300002,13.510889960000043],[120.90322996800012,13.505791385000066],[120.90005511900006,13.504732013000023],[120.89351510900008,13.498669403000065],[120.8837778190001,13.500751612000045],[120.88823823500002,13.477842442000053],[120.88741930700007,13.437486766000063],[120.88701512500006,13.422209404000057],[120.88162226100008,13.413462412000058]]],[[[120.9513962420001,13.53151060600004],[120.94692682900006,13.524640431000023],[120.9490582950001,13.522683092000022],[120.95071831900009,13.523248384000055],[120.95617254100011,13.520665142000041],[120.9589445250001,13.516376897000043],[120.96008462200007,13.519258829000023],[120.95753465900009,13.525375675000078],[120.9513962420001,13.53151060600004]]]]}},{"type":"Feature","properties":{"shapeName":"Roxas","shapeISO":"","shapeID":"30758251B86973741519598","shapeGroup":"PHL","shapeType":"ADM3","psgc_code":"1705212000","legacy_psgc_code":"175212000","province":"Oriental Mindoro"},"geometry":{"type":"Polygon","coordinates":[[[121.35622238700012,12.629995647000044],[121.35529378500007,12.626281235000022],[121.35797641500005,12.61575706900004],[121.36561159400003,12.60977274000004],[121.36767515600002,12.604717013000027],[121.38005652700008,12.592954711000061],[121.38769170600006,12.59378013600002],[121.39045955600011,12.59172607000005],[121.398614328,12.592308554000056],[121.40521581100006,12.590561103000027],[121.40832799100008,12.594446272000027],[121.41006984100011,12.606288163000045],[121.413758905,12.613083808000056],[121.41803045300003,12.61735535400004],[121.41900125900008,12.622791869000025],[121.41571240000007,12.626009235000026],[121.42935781500012,12.625516093000044],[121.43244826000011,12.628070872000023],[121.43923531900009,12.628109636000033],[121.4437874250001,12.62479894300003],[121.44711994500005,12.626103257000068],[121.44884480100006,12.623449268000059],[121.45168853300004,12.62239706500003],[121.45076881500006,12.618064017000052],[121.45446283500007,12.615546364000068],[121.45620442800009,12.611227043000042],[121.46069698400004,12.607877836000057],[121.4663331270001,12.606646788000035],[121.46847397400006,12.599950619000026],[121.4737664050001,12.594145059000027],[121.47277489400005,12.590535985000031],[121.47600829800001,12.588190972000064],[121.47377616000006,12.586398710000026],[121.47476930700009,12.584212790000038],[121.47865953000007,12.583032358000025],[121.48067829600006,12.580823081000062],[121.48811052300005,12.581717165000043],[121.49304833500003,12.577026361000037],[121.49723160200006,12.576187321000077],[121.50596568800006,12.56642449900005],[121.5118514610001,12.565703123000048],[121.51816627500011,12.580751558000031],[121.529642437,12.593200471000046],[121.53198097200004,12.593091601000026],[121.53027836800004,12.59367684600005],[121.53245732500011,12.596555686000045],[121.54105594200007,12.600462828000047],[121.55695189700009,12.604407211000023],[121.55482300100005,12.62265945200005],[121.54957028100011,12.620057641000074],[121.5462188360001,12.621297997000056],[121.53397890000008,12.62035000800006],[121.52642768200008,12.623101553000026],[121.52475897800002,12.629439131000026],[121.51704464400007,12.627445127000044],[121.51418761700006,12.628516513000022],[121.50659274000009,12.62603550700004],[121.48504620000006,12.639937108000026],[121.47141634900004,12.64430464700007],[121.4681392220001,12.647969682000053],[121.46254663800005,12.64641473200004],[121.4521676390001,12.647750211000073],[121.43779189000009,12.65584655500004],[121.43002604000003,12.654043277000028],[121.42605086100002,12.670092619000059],[121.42029830000001,12.665190867000035],[121.41538575700008,12.664407217000075],[121.41300410200006,12.66247104100006],[121.39200222300008,12.66161179900007],[121.38844854900003,12.660245559000032],[121.38729204900005,12.654135008000026],[121.38158783000006,12.65205992600005],[121.37809370500008,12.648282411000025],[121.3770582630001,12.64395237900004],[121.37809370500008,12.64103431500007],[121.37658760700003,12.638869300000067],[121.37329301800003,12.63689254600007],[121.36642144600012,12.637080808000064],[121.36435056200003,12.635762973000055],[121.36378577500011,12.63275077700007],[121.35622238700012,12.629995647000044]]]}},{"type":"Feature","properties":{"shapeName":"San Teodoro","shapeISO":"","shapeID":"30758251B90204819305655","shapeGroup":"PHL","shapeType":"ADM3","psgc_code":"1705213000","legacy_psgc_code":"175213000","province":"Oriental Mindoro"},"geometry":{"type":"Polygon","coordinates":[[[120.82005116900007,13.312005979000048],[120.90647762300011,13.341991565000058],[120.96122734900007,13.356136621000076],[120.9691439180001,13.361727640000026],[120.97867265800005,13.374489833000041],[120.98897515100009,13.37372817000005],[121.00011948100007,13.376734734000024],[121.00755165100009,13.377207524000028],[121.01564451800004,13.380457958000022],[121.02157413500004,13.380094198000052],[121.0187926430001,13.38463904200006],[121.02073829900007,13.385664598000062],[121.02714670400007,13.385463947000062],[121.05476082200005,13.378669500000058],[121.06265728000005,13.383053085000029],[121.06792787800009,13.39090150100003],[121.07461565200003,13.406536900000049],[121.06544691500005,13.404033273000039],[121.05942490100006,13.404576999000028],[121.05471668500002,13.40705913100004],[121.04684073900012,13.415008336000028],[121.04191810600003,13.415335368000058],[121.03637056900004,13.418544620000034],[121.0272516330001,13.427397195000026],[121.01778969100008,13.442880297000045],[121.01048005300004,13.445348903000024],[121.00680653400002,13.450091221000037],[121.00372719300003,13.444895159000055],[120.99833183100009,13.440881110000078],[120.99223146100007,13.440442235000035],[120.99001514000008,13.439410877000057],[120.98953237700005,13.437084837000043],[120.98592944000006,13.435959479000076],[120.9820934380001,13.432344982000075],[120.9793724110001,13.426749320000056],[120.96907995300012,13.419997662000071],[120.95724565000012,13.414770819000069],[120.94885675400008,13.415719705000072],[120.93092834700008,13.408275513000035],[120.88162226100008,13.413462412000058],[120.82005116900007,13.312005979000048]]]}},{"type":"Feature","properties":{"shapeName":"Socorro","shapeISO":"","shapeID":"30758251B49339662744818","shapeGroup":"PHL","shapeType":"ADM3","psgc_code":"1705214000","legacy_psgc_code":"175214000","province":"Oriental Mindoro"},"geometry":{"type":"Polygon","coordinates":[[[121.43015692200004,13.06463455100004],[121.42872808900006,13.070259799000041],[121.4303182000001,13.069305841000073],[121.43369725000002,13.073647479000044],[121.42764194100005,13.078328121000027],[121.43010349100007,13.08040874300002],[121.43124276800006,13.084070707000024],[121.42990004800004,13.085576180000032],[121.42721460900009,13.08598306500005],[121.42611602000011,13.082768675000068],[121.42440710400001,13.081914217000076],[121.39649515000008,13.081884227000046],[121.39523667500009,13.08729147300005],[121.3914408070001,13.093770629000062],[121.39615292000008,13.09566856400005],[121.39778907000004,13.10044612200005],[121.39201083400008,13.107145905000039],[121.38616017200002,13.110702467000067],[121.38348489200007,13.110255026000061],[121.38084654300008,13.106379426000046],[121.37840134500004,13.120861146000038],[121.37249274100009,13.121352536000074],[121.3706292490001,13.124389716000053],[121.36488727100004,13.128068460000065],[121.36528725700009,13.129335438000055],[121.36059155400005,13.130660291000027],[121.36097601400002,13.12695754300006],[121.35825256900011,13.126441813000042],[121.3430689380001,13.109563767000054],[121.33854953900004,13.110617156000046],[121.33365449100006,13.108290629000066],[121.32532051300007,13.108181503000026],[121.32144994600003,13.10943026600006],[121.31920926600003,13.112087407000047],[121.31537554300007,13.112393389000033],[121.31214965200002,13.11512037500006],[121.3026435050001,13.102714878000029],[121.29698698900006,13.100002159000042],[121.28314482400003,13.09979564300005],[121.27449434700009,13.085900494000043],[121.24088143300003,13.065091710000047],[121.23957866800004,13.010270545000026],[121.28844179900011,13.005739],[121.28858881400004,12.999080804000073],[121.29548917200009,12.997938636000072],[121.31148529100005,13.003238317000068],[121.34839534500009,12.998859927000069],[121.34981676000007,12.996204093000074],[121.35201111100002,12.996307209000065],[121.35379106300002,12.998095618000036],[121.35258605700005,13.000546679000024],[121.35342564200005,13.002486359000045],[121.366951104,13.00052538500006],[121.37014261500008,13.003059455000027],[121.37162158300009,12.999025661000076],[121.37378234300002,12.99741831600005],[121.37858164500005,13.004203967000024],[121.38717140300002,12.99827791000007],[121.39799726400008,13.002834519000032],[121.40251760900003,13.007055380000054],[121.40389376200005,13.011613535000038],[121.40004569200005,13.012508407000041],[121.39995834700005,13.014037479000024],[121.40374569300002,13.016280727000037],[121.40474936900011,13.019130782000047],[121.4102644940001,13.021704443000033],[121.41005176500005,13.023234763000062],[121.40435721000006,13.026877197000033],[121.40493017500012,13.032829389000028],[121.4085316180001,13.03352471900007],[121.409610154,13.03503573100005],[121.40970698500007,13.037861275000068],[121.40731139200011,13.041247364000071],[121.40785159200004,13.043449788000032],[121.4124918010001,13.047911380000073],[121.41600198200001,13.047812762000035],[121.41659782900001,13.050665564000042],[121.41865720800001,13.051047157000028],[121.4194618350001,13.048375560000068],[121.4278292030001,13.049909153000044],[121.42563394400008,13.053243080000072],[121.42596538100008,13.055035572000065],[121.42384603200003,13.056352459000038],[121.42633222100005,13.05705417200005],[121.4256836510001,13.06016429400006],[121.42845340000008,13.061031763000074],[121.42706578100001,13.067515030000038],[121.42876549800008,13.064349398000047],[121.43015692200004,13.06463455100004]]]}},{"type":"Feature","properties":{"shapeName":"Victoria","shapeISO":"","shapeID":"30758251B49564856626223","shapeGroup":"PHL","shapeType":"ADM3","psgc_code":"1705215000","legacy_psgc_code":"175215000","province":"Oriental Mindoro"},"geometry":{"type":"Polygon","coordinates":[[[121.18545674800009,13.081633324000052],[121.24088143300003,13.065091710000047],[121.27449434700009,13.085900494000043],[121.28314482400003,13.09979564300005],[121.29698698900006,13.100002159000042],[121.3026435050001,13.102714878000029],[121.31214965200002,13.11512037500006],[121.30968533100008,13.118981714000029],[121.30670544600002,13.119020884000065],[121.3038878540001,13.121200369000064],[121.306096636,13.125248197000076],[121.30540033800003,13.128381779000051],[121.30891965800004,13.132388717000026],[121.30698837000011,13.137225881000063],[121.30982529700009,13.141244106000045],[121.30924110600006,13.146506067000075],[121.31792721800002,13.153988275000074],[121.31262872000002,13.154553486000054],[121.31209879300002,13.15687766600007],[121.31541022600004,13.162571405000051],[121.31775141600008,13.163394004000054],[121.31800655800009,13.165798061000032],[121.32262335400003,13.166431774000046],[121.32418331300005,13.16801375600005],[121.32080479400008,13.17067017200003],[121.32091875200001,13.176295528000026],[121.3227941880001,13.179267682000045],[121.32636968000008,13.181415946000072],[121.33169639900007,13.18065824000007],[121.3349421580001,13.185715465000044],[121.33227929700001,13.187737544000072],[121.33422716600012,13.189318197000034],[121.33221383000011,13.190961125000058],[121.32844801400006,13.188747933000059],[121.32487496400006,13.190453134000052],[121.32461415800003,13.195951536000052],[121.32734261600001,13.19860797900003],[121.32513143800008,13.198984492000022],[121.32451163600001,13.201102641000034],[121.32670942900006,13.204557673000068],[121.3315581920001,13.206855172000076],[121.32616253600008,13.209051049000038],[121.3231820520001,13.216561075000072],[121.31981708400008,13.21502590600005],[121.31099512900005,13.214474533000043],[121.3044337980001,13.21089061400005],[121.29869952800004,13.210063556000023],[121.29770705800001,13.208574850000048],[121.28910565000001,13.206148812000038],[121.28197879000004,13.211896840000065],[121.2764443000001,13.205769330000066],[121.2688221410001,13.203528378000044],[121.26733016800006,13.20434791300005],[121.26412667500006,13.201297074000024],[121.26179481200006,13.202438199000028],[121.2570814720001,13.201644373000022],[121.25520507800002,13.194885505000059],[121.25251591100005,13.19705779800006],[121.244495948,13.199141416000032],[121.22772539900006,13.19941284500004],[121.22358445700002,13.202550546000055],[121.21555608200003,13.201231286000052],[121.20859930900008,13.205173458000047],[121.18955677500003,13.199070186000029],[121.18007611900009,13.169222090000062],[121.16905363400008,13.147710861000064],[121.16508170300006,13.130647131000046],[121.16408834600009,13.119752677000065],[121.16544274500006,13.110997410000039],[121.17248166600007,13.098202891000028],[121.18545674800009,13.081633324000052]]]}}]}
