{"type":"FeatureCollection","source":{"dataset":"geoBoundaries gbOpen PHL ADM3","commit":"9469f09","license":"CC BY 3.0 IGO","boundary_year":2020,"url":"https://media.githubusercontent.com/media/wmgeolab/geoBoundaries/9469f09/releaseData/gbOpen/PHL/ADM3/geoBoundaries-PHL-ADM3_simplified.geojson","upstream_sources":["NAMRIA","PSA","OCHA Philippines"],"reference":"https://ulap-nga.georisk.gov.ph/arcgis/rest/services/PSA/Municipal/MapServer/0","psgc_reference":"https://psa.gov.ph/classification/psgc/provinces/1700000000","area_notes":"Four provinces use GeoRiskPH published polygon area; Palawan and Puerto Princesa use OCHA COD-AB v03 area_sqkm. These are polygon checks, not PSA LMB land-area totals. See MIMAROPA_BOUNDARY_SOURCES.md.","additional_reference":"https://data.humdata.org/dataset/cod-ab-phl","full_source_url":"https://media.githubusercontent.com/media/wmgeolab/geoBoundaries/9469f09/releaseData/gbOpen/PHL/ADM3/geoBoundaries-PHL-ADM3.geojson","notice":"Approximate planning/reference boundaries, not legal, cadastral, or survey-grade."},"features":[{"type":"Feature","properties":{"shapeName":"Puerto Princesa City","shapeISO":"","shapeID":"30758251B64178272348738","shapeGroup":"PHL","shapeType":"ADM3","psgc_code":"1731500000","legacy_psgc_code":"175316000","province":"Puerto Princesa City","geographic_province":"Palawan"},"geometry":{"type":"MultiPolygon","coordinates":[[[[118.77300938100007,9.84030199600005],[118.77181935100009,9.83912933800002],[118.76786795700002,9.839886613000033],[118.77373152000007,9.835030507000056],[118.77256808600009,9.838794022000059],[118.77502540600005,9.835568254000066],[118.77464401700001,9.833441533000041],[118.77628787900005,9.833092057000044],[118.77525989700007,9.83485193100006],[118.77696432700009,9.837182411000072],[118.77524382400009,9.837560869000072],[118.77682650500003,9.83893265200004],[118.77468706500008,9.838105572000075],[118.77300938100007,9.84030199600005]]],[[[118.76455804300008,9.855318877000059],[118.75750041100002,9.852855264000027],[118.76395352400004,9.84886244300003],[118.765852289,9.851245429000073],[118.76596520500004,9.85400224700004],[118.76455804300008,9.855318877000059]]],[[[118.7678600700001,9.87463914600005],[118.76655513300011,9.874221091000038],[118.76709281700005,9.87219944800006],[118.7704076340001,9.86911498400002],[118.76922653600002,9.871494834000032],[118.77091633400005,9.87192480400006],[118.76873807400011,9.873911176000036],[118.76899256800004,9.871945984000035],[118.76795712300009,9.872355365000033],[118.76675246800005,9.874198179000075],[118.7678600700001,9.87463914600005]]],[[[118.81545065300008,9.877525088000027],[118.813909351,9.87855526900006],[118.81272806000004,9.87744000500004],[118.81391493700005,9.873106493000023],[118.81758755200008,9.872580966000044],[118.81545065300008,9.877525088000027]]],[[[118.76944034200005,9.880506624000077],[118.7680688590001,9.879360961000032],[118.76906581700007,9.877809548000073],[118.77030314800004,9.87918049600006],[118.77146578500003,9.877948609000043],[118.76944034200005,9.880506624000077]]],[[[118.77991811200002,9.889163598000039],[118.77585204400009,9.887756411000055],[118.77801375500007,9.881088728000066],[118.78331666200006,9.88094323000007],[118.78457559700007,9.884890135000035],[118.78556927000011,9.882954471000062],[118.79110612800002,9.881173458000035],[118.79101579700011,9.877886944000068],[118.79479974100002,9.878922982000063],[118.79328916800011,9.881352198000059],[118.78532417600002,9.886079339000048],[118.787534993,9.888987367000027],[118.78398447900008,9.887321378000024],[118.77991811200002,9.889163598000039]]],[[[118.79790404700009,9.903856971000039],[118.79639112200005,9.901558264000073],[118.7977877400001,9.899556291000067],[118.79790404700009,9.903856971000039]]],[[[118.83866018800006,9.913740346000054],[118.8321474710001,9.906412148000072],[118.8287016380001,9.904111894000039],[118.82474136500002,9.903208543000062],[118.82015767000007,9.899794137000072],[118.81969454600005,9.898484605000021],[118.82525753900006,9.898236419000057],[118.82318258100008,9.901898837000033],[118.8269205580001,9.900778670000022],[118.827419426,9.903319574000022],[118.830260683,9.904812483000057],[118.83298238900011,9.90702901700007],[118.83866018800006,9.913740346000054]]],[[[118.87779339400004,9.915670515000045],[118.87831019300006,9.914372909000065],[118.87649027900011,9.915101166000056],[118.87606666300007,9.909811038000043],[118.8778743790001,9.908473016000073],[118.87775693200001,9.905476803000056],[118.87967578400003,9.904740834000052],[118.88242827800002,9.907695615000023],[118.88262002200008,9.91245374400006],[118.88415179900005,9.912330736000058],[118.87987898400002,9.912995694000074],[118.87779339400004,9.915670515000045]]],[[[118.84178703500004,9.92305471800006],[118.83935705500005,9.92104585100003],[118.84051876500007,9.919532158000038],[118.84443155000008,9.92084535400005],[118.84178703500004,9.92305471800006]]],[[[118.79273864200002,9.930316720000064],[118.79099695900004,9.929130323000038],[118.78796003800005,9.929904481000051],[118.78792199100008,9.92439405500005],[118.79007927900011,9.923745441000051],[118.7919222490001,9.92541084100003],[118.7943416170001,9.929186557000037],[118.79273864200002,9.930316720000064]]],[[[118.85463243900006,9.933722841000076],[118.85294389300009,9.927940742000033],[118.8539642180001,9.926718006000044],[118.85429299300006,9.927968670000041],[118.85836192400006,9.929259693000063],[118.85463243900006,9.933722841000076]]],[[[118.92196739200006,9.940244060000055],[118.91872068700002,9.93766340600007],[118.91659302500011,9.933018850000053],[118.92106011200008,9.931230872000071],[118.92109639000012,9.927525544000048],[118.92403506100004,9.925774432000026],[118.92946157000006,9.929027292000058],[118.93238642400001,9.933760454000037],[118.92954858300004,9.93858066100006],[118.92196739200006,9.940244060000055]]],[[[118.79004873500003,10.024342047000061],[118.78868329500006,10.024187742000038],[118.78878855800008,10.02249749200007],[118.79004873500003,10.024342047000061]]],[[[118.78323281300004,10.096590050000032],[118.78029521300004,10.080662921000055],[118.77996078900003,10.074759376000031],[118.781190175,10.072244549000061],[118.78323281300004,10.096590050000032]]],[[[118.62267345200007,9.489538854000045],[118.62185443400006,9.490831986000046],[118.62328566400004,9.496086576000039],[118.62108704900004,9.499386051000045],[118.62309520100007,9.501319421000062],[118.62156661000006,9.50358370500004],[118.62327736100008,9.505294543000048],[118.62255141800006,9.50784150000004],[118.62444148600002,9.50556569500003],[118.62536032000003,9.508030652000059],[118.62575503700009,9.506882140000073],[118.62784310000006,9.508922505000044],[118.631042868,9.508604792000028],[118.63068078100002,9.50702577100003],[118.6336225550001,9.505391419000034],[118.63243852100004,9.504912061000027],[118.63367975400001,9.503381389000026],[118.63282999600005,9.502022332000024],[118.63953355900003,9.506968359000041],[118.6399770920001,9.510429399000031],[118.6443643,9.514837279000062],[118.64563382400002,9.52817082100006],[118.65289294200011,9.538390159000073],[118.6550926650001,9.55040249600006],[118.65817650500003,9.557036121000067],[118.6634527870001,9.560757630000069],[118.66401502000008,9.562584792000052],[118.66545092400008,9.560074137000072],[118.66782645300009,9.561373166000067],[118.66995639900006,9.560149308000064],[118.6741100590001,9.561295405000067],[118.6791115630001,9.566606662000027],[118.67982290700002,9.568450102000043],[118.67782808100003,9.570591441000033],[118.67933302000006,9.57016075100006],[118.6855883820001,9.575272007000024],[118.68506558500007,9.578693460000068],[118.68763718200012,9.576241064000044],[118.68986264400007,9.579294308000044],[118.68853437300004,9.581754396000065],[118.6914927680001,9.580845511000064],[118.69531847500002,9.584766012000046],[118.69712966000009,9.588626328000032],[118.69524017100002,9.590759955000067],[118.69969407200006,9.597536794000064],[118.69896939900002,9.601350615000058],[118.70569122100005,9.612200098000073],[118.70498611100004,9.612861173000056],[118.709261921,9.614539901000057],[118.71576783300009,9.622291872000062],[118.72224421400006,9.62577606700006],[118.734788234,9.642140279000046],[118.73590484200008,9.650028402000032],[118.73195835500007,9.650168144000077],[118.72696382800007,9.646622710000031],[118.7210637820001,9.64829357800005],[118.72221143800004,9.651507074000051],[118.71854530200005,9.650749312000073],[118.71941203300003,9.653644463000035],[118.7246364020001,9.654701630000034],[118.72160065700007,9.658243233000064],[118.72422603100006,9.658733294000058],[118.7253796870001,9.656655284000067],[118.7300403800001,9.654290981000031],[118.73232894600005,9.659282054000073],[118.73277892800002,9.654404846000034],[118.7314956240001,9.65298391400006],[118.73385361300006,9.65193733600006],[118.73818708700003,9.65762145900004],[118.73883708700009,9.659209384000064],[118.73755771600008,9.660500452000065],[118.73973698000009,9.660646709000048],[118.73988754800007,9.662249803000066],[118.74389147700003,9.66070776500004],[118.74488018400007,9.657584419000045],[118.7477345740001,9.657253222000065],[118.75144049700009,9.659504131000062],[118.7521268050001,9.661795531000053],[118.75334938600008,9.661195349000025],[118.75650127200004,9.663906845000042],[118.75654842600011,9.662603906000072],[118.75846675600008,9.663658600000076],[118.76105422,9.667880214000036],[118.75957518300004,9.673191017000022],[118.7571948850001,9.673703896000063],[118.75972173700006,9.674870200000043],[118.76176813600011,9.68125866400004],[118.76131172200007,9.688360531000058],[118.75694258700003,9.69031527900006],[118.7538943190001,9.689963386000045],[118.75235977900002,9.68816133200005],[118.75062393300004,9.688792574000047],[118.75057774400011,9.686376499000062],[118.74507590700011,9.682561817000021],[118.74046505800004,9.684645566000029],[118.7365253590001,9.684498619000067],[118.73709077800004,9.681875689000037],[118.7354938100001,9.680360637000035],[118.73125360900008,9.68415047600007],[118.73120189400004,9.68618421900004],[118.734178197,9.692245255000046],[118.73878966100006,9.695718810000074],[118.73522664900008,9.697016792000056],[118.73459457800004,9.699191135000035],[118.7324973750001,9.698191044000055],[118.73124006300009,9.700104106000026],[118.72930395100002,9.69909776000003],[118.72933586200008,9.697163405000026],[118.72358592400008,9.69467120400003],[118.7228913560001,9.690922994000061],[118.72090700700005,9.691693394000026],[118.72067652100009,9.684459283000024],[118.71723566100002,9.684465570000043],[118.71366920500009,9.681469278000066],[118.713745044,9.685033041000054],[118.71201549400007,9.686447798000074],[118.70765101400002,9.680647040000053],[118.70478944000001,9.679573417000029],[118.70719664,9.690365482000061],[118.71129925100001,9.689667908000047],[118.71521643000005,9.693654301000038],[118.7141130220001,9.695569800000044],[118.71491376400002,9.694502711000041],[118.71869636200006,9.695486562000042],[118.71838739400005,9.697697344000062],[118.7213242900001,9.699710824000022],[118.7209025620001,9.703905517000067],[118.72393553300003,9.70603622300007],[118.7260112460001,9.70488569500003],[118.72920539800009,9.708542831000045],[118.72431090000009,9.708243596000045],[118.72242236900001,9.711772288000077],[118.71958739800004,9.712204366000037],[118.71771169100009,9.712118473000032],[118.71556536300011,9.708993046000046],[118.7121965230001,9.707219014000032],[118.71174804800012,9.710101604000045],[118.7078896590001,9.70814002000003],[118.70108343900006,9.707717672000058],[118.70103334100008,9.709357049000062],[118.69929532700007,9.708849494000049],[118.6962151240001,9.711724967000066],[118.69419113700008,9.711751187000061],[118.69700974000011,9.717155116000072],[118.69456104300002,9.720756597000047],[118.6950267420001,9.722394138000027],[118.69324141300001,9.723212267000065],[118.69898204100002,9.725932637000028],[118.70066477000012,9.72878375700003],[118.70004745000006,9.732739795000043],[118.6959713440001,9.736369947000071],[118.70011241400005,9.737013902000058],[118.6971604370001,9.743903008000075],[118.69317740500003,9.747599260000072],[118.693115454,9.75051260500004],[118.69101022400002,9.750553113000024],[118.69254265000006,9.75125672400003],[118.69271937100007,9.753961323000055],[118.6918633360001,9.75773618900007],[118.69016833800003,9.758360121000067],[118.69249051000008,9.759985774000029],[118.69243149600004,9.762404531000072],[118.69057981900005,9.763196059000052],[118.69128597400004,9.769978846000072],[118.69558018600003,9.773743747000026],[118.69520359700005,9.774883914000043],[118.69668569100008,9.774096300000053],[118.69787526400012,9.777325805000032],[118.70037349800009,9.772106703000077],[118.70227945400006,9.776777204000041],[118.70418612700007,9.77612455600007],[118.70558768300009,9.777537834000043],[118.70645529300009,9.775382530000059],[118.70755981500008,9.776335489000076],[118.70736858200007,9.774831111000026],[118.71289901300008,9.771414676000063],[118.716110146,9.771129767000048],[118.71525211900007,9.774171766000052],[118.71686488400007,9.774256655000045],[118.71945833600012,9.778505168000038],[118.71706735900011,9.782526062000045],[118.71756315800008,9.78702893700006],[118.71807837600011,9.788386670000023],[118.71889512700011,9.787551738000047],[118.72093831200004,9.788676294000027],[118.72174919100007,9.787917080000057],[118.7198694110001,9.786167156000033],[118.72091246100001,9.782463693000068],[118.72253401400008,9.782667005000064],[118.72255802300003,9.781274059000054],[118.7243925790001,9.783140704000061],[118.72546696500001,9.78223276400007],[118.72381083100004,9.781547068000066],[118.7234957280001,9.776367468000046],[118.7240269020001,9.775589662000073],[118.72424298300007,9.777553393000062],[118.72417695400009,9.776048064000065],[118.72560243400005,9.775706412000034],[118.7221881260001,9.772903180000071],[118.72541035900008,9.771820942000033],[118.725787276,9.770032698000023],[118.72445992500002,9.769379875000027],[118.72541520900006,9.766538851000064],[118.72594220300005,9.768792405000056],[118.72817551800006,9.768990385000052],[118.72751469200011,9.770258504000026],[118.73054497700002,9.77325255900007],[118.73062331200003,9.777302684000063],[118.73246228500011,9.776378199000021],[118.73288302000003,9.774199298000042],[118.73573964800005,9.774986646000059],[118.7347958790001,9.770006196000054],[118.73592517400004,9.765391003000047],[118.73369688900004,9.76436975100006],[118.73317181200002,9.762048661000051],[118.73546901300006,9.75726988100007],[118.73657095100009,9.75812070400002],[118.73889127000007,9.755073117000052],[118.73686245600004,9.75336317700004],[118.73961053900007,9.751728981000042],[118.73604154800012,9.748900496000033],[118.73714756400011,9.744583811000041],[118.72988541100005,9.744254935000072],[118.72888292200003,9.743112752000059],[118.72870328600004,9.744698293000056],[118.72626706000005,9.74170846000004],[118.72750089300007,9.74195489400006],[118.73172258400007,9.734943806000047],[118.73143202500012,9.73165571100003],[118.73339835800004,9.731237863000047],[118.73242269700006,9.73005992800006],[118.7358903270001,9.731002567000075],[118.7366623470001,9.729377882000051],[118.73735686900011,9.730324171000063],[118.73718126900008,9.729279071000065],[118.74035304000006,9.729661359000033],[118.74449714200011,9.727732581000055],[118.74779693000005,9.729436148000048],[118.75011308700005,9.727462627000023],[118.75467635400003,9.728566903000058],[118.75833416600005,9.724006080000038],[118.76292404300011,9.723459843000057],[118.76251613200009,9.722319266000056],[118.7634830390001,9.723416087000032],[118.7664430860001,9.721296652000035],[118.76995696000006,9.722490115000028],[118.76979485800007,9.724738972000068],[118.77268558100002,9.728742619000059],[118.7719472230001,9.730426306000027],[118.77368701300009,9.731995257000051],[118.77243275900003,9.732687782000028],[118.77221913500011,9.73838128500006],[118.77323889800005,9.75686674800005],[118.7719580800001,9.767996603000029],[118.77444012600006,9.774902290000057],[118.77392805300008,9.776869004000048],[118.77226754500009,9.776663454000072],[118.77399078600001,9.784149009000032],[118.77222249400006,9.79081020600006],[118.77461812900003,9.794146816000023],[118.77122967300011,9.805102606000048],[118.77197797400004,9.806018988000062],[118.7692833210001,9.811193080000066],[118.76688016700007,9.812624398000025],[118.76496379600007,9.811585176000051],[118.76585646900003,9.814093078000042],[118.76374184000008,9.816330797000035],[118.75912187200004,9.816630819000068],[118.75695255900007,9.814584480000065],[118.7548494020001,9.815081468000074],[118.75538943300012,9.816820514000028],[118.75394139000002,9.817299727000034],[118.75386271000002,9.819139720000067],[118.75695714900007,9.825136999000051],[118.75634218900007,9.827588673000037],[118.75125338300006,9.83088508000003],[118.74587926700008,9.837740631000031],[118.7427588060001,9.837949758000036],[118.74181240400003,9.841258672000038],[118.74649247500008,9.843779108000035],[118.74234041400007,9.843213332000062],[118.74174260400002,9.84434987700007],[118.74465326400002,9.849106211000048],[118.74383549100003,9.855678171000022],[118.74592465600006,9.858710689000077],[118.74360212200008,9.862286341000072],[118.74534404300005,9.863691558000028],[118.7431688800001,9.866325969000059],[118.74488634500005,9.869273397000029],[118.74820757700002,9.868522934000055],[118.744716702,9.869850333000045],[118.74612500300009,9.880985967000072],[118.74740731400004,9.88255158000004],[118.74488640100003,9.887840876000041],[118.74577676900003,9.895562296000037],[118.74104379200003,9.896529302000033],[118.74464075300011,9.903555521000044],[118.74581213700003,9.911967380000021],[118.75114454900006,9.920370381000055],[118.7515825260001,9.924512661000051],[118.74957583600008,9.928836549000039],[118.7524257550001,9.929110785000034],[118.75343918700003,9.930827048000026],[118.75527933300009,9.930366710000044],[118.75692270200011,9.93259996300003],[118.75837482600002,9.932083668000075],[118.75728510300007,9.927913060000037],[118.75851559600005,9.924042907000057],[118.76199858300004,9.92060901800005],[118.76167295200003,9.916226387000052],[118.764540484,9.912951973000077],[118.76549325200006,9.914978141000063],[118.76234673200008,9.924241781000035],[118.7638123380001,9.926154521000058],[118.76352201300006,9.93030374400007],[118.76488810900003,9.931463969000049],[118.76944096800003,9.92910598900005],[118.7719723350001,9.929691284000057],[118.773973049,9.93296457100007],[118.77263871500008,9.939514479000024],[118.77455706900002,9.937994953000043],[118.77476819000003,9.939197055000022],[118.77781075900009,9.93919603200004],[118.78500983900005,9.943154248000042],[118.7942103370001,9.945473838000055],[118.79807167100012,9.939605027000027],[118.80143816100008,9.938293711000028],[118.80252542200003,9.934850212000072],[118.80395544900011,9.936748092000073],[118.80817095000009,9.935884504000057],[118.80769453200003,9.937138375000075],[118.8098668350001,9.938387883000075],[118.8100981130001,9.937222621000046],[118.81312500400009,9.937795792000031],[118.81256911600008,9.93704778800003],[118.82248659900006,9.93805868100003],[118.82585499700008,9.944434986000033],[118.83074818000011,9.947904592000043],[118.82987689600009,9.950188475000061],[118.83288273200003,9.949737546000051],[118.83494493,9.953957283000022],[118.84467470000004,9.965051003000042],[118.85421953500008,9.972474374000058],[118.86617671700003,9.97749785700006],[118.88205636000009,9.981392730000039],[118.89151428700006,9.980025013000045],[118.89286092700002,9.97798726700006],[118.89423300100009,9.978541515000074],[118.8943541320001,9.981965768000066],[118.89512505400012,9.98005829300007],[118.89931695300004,9.977945581000029],[118.89828792500009,9.976792060000037],[118.8999007650001,9.974691517000053],[118.90061826700003,9.975676990000068],[118.91366709400006,9.97493141700005],[118.91432540500011,9.97626047700004],[118.91813921000005,9.976525035000066],[118.91932653000003,9.97918938500004],[118.92491849500004,9.98010173800003],[118.92876386800003,9.978254882000044],[118.93923265100011,9.977978755000038],[118.94414349700003,9.979291082000032],[118.95244100700006,9.98467058700004],[118.96224746200005,9.983203808000042],[118.96914851100007,9.985381536000034],[118.97184140800005,9.983906932000025],[118.98041068300006,9.986807026000065],[118.98383193200004,9.986247212000023],[118.98787662500001,9.991796391000037],[118.9926543680001,9.991384845000027],[119.0030664090001,9.997237615000074],[119.00524174100008,9.996484217000045],[119.00843788600002,9.998169813000061],[119.01350074900006,9.998087312000052],[119.01680182100006,9.995589473000052],[119.02335695800002,9.998553801000071],[119.03031758100008,10.004182091000075],[119.04956254500007,10.008936865000067],[119.06073220000007,10.00899527200005],[119.06684770900006,10.013000583000064],[119.07114876100002,10.012140277000071],[119.07356833000006,10.015974464000067],[119.078403008,10.018437106000022],[119.08522955100011,10.018499689000066],[119.09205106000002,10.021304543000042],[119.10062941500007,10.020587595000052],[119.10796221700002,10.023568210000064],[119.11598410800002,10.021685977000061],[119.12386189800009,10.026351336000062],[119.12439443500011,10.02492754800005],[119.12882791100003,10.025481871000068],[119.13176367900007,10.02417943100005],[119.13608534600007,10.025421768000058],[119.14084561100003,10.041213073000051],[119.15858181400006,10.120522504000064],[119.06620954000005,10.226487813000062],[119.0613520280001,10.232227755000054],[119.055288743,10.225280284000064],[118.97150500200007,10.31015095600003],[118.97411436800007,10.30728266400007],[118.97459277400003,10.30382469500006],[118.9774433880001,10.301967012000034],[118.9780512320001,10.298962306000021],[118.97367538000003,10.290892274000043],[118.96901523400004,10.287994595000043],[118.96730974700006,10.289744436000035],[118.96703032100004,10.28625951600003],[118.9635831700001,10.283888699000045],[118.95896522400005,10.283014308000077],[118.95863529300004,10.284347235000041],[118.95394378500009,10.285810317000028],[118.95107278000012,10.291437521000034],[118.95184952800003,10.293992522000053],[118.946821236,10.291997355000035],[118.94648748800012,10.295628903000022],[118.94294540400006,10.29623048600007],[118.94277405500009,10.29967401500005],[118.94077004300004,10.297456172000068],[118.93816424400006,10.297320960000036],[118.94169355200006,10.291615239000066],[118.94100144900005,10.289353479000056],[118.93902238800001,10.289360849000047],[118.93793898800004,10.287525132000042],[118.9323573900001,10.289478390000056],[118.93266253600007,10.285413981000033],[118.94780116600009,10.284365817000037],[118.94970278400001,10.28237600500006],[118.95086137600003,10.27713675700005],[118.9529568160001,10.27643592000004],[118.95199203400011,10.272935627000038],[118.95429187700006,10.27290301100004],[118.95589071900008,10.276026115000036],[118.958863833,10.275516724000056],[118.96262921200002,10.269639815000062],[118.96073498300007,10.266874145000031],[118.95477343000005,10.26422537700006],[118.9516759820001,10.265403842000069],[118.94293650700001,10.26275088500006],[118.940400081,10.264397576000022],[118.93888475000006,10.263714922000077],[118.93797123000002,10.265248565000036],[118.93710219900004,10.264305166000042],[118.93694618900008,10.262175617000025],[118.9416090090001,10.260519178000038],[118.94228038100005,10.258034223000038],[118.94497030700006,10.260267205000048],[118.95071290900012,10.256693819000077],[118.95270899000002,10.25107982000003],[118.9475123950001,10.245541002000039],[118.95080591300007,10.242054933000077],[118.94809573300006,10.235044539000057],[118.94570716500004,10.234713616000022],[118.9472577360001,10.23328602600003],[118.9455412530001,10.228827871000021],[118.94300710800007,10.22550736900007],[118.93873891600003,10.225545526000076],[118.94378809300008,10.219036869000035],[118.94256856400011,10.216733465000061],[118.94047813700001,10.216829612000026],[118.94038813300006,10.210393219000025],[118.93643915700011,10.205742152000028],[118.93122060300004,10.204641306000042],[118.92665992700006,10.200163924000037],[118.92407466400005,10.201150471000062],[118.92416257700006,10.204558046000045],[118.9188973360001,10.200041233000036],[118.91544034300011,10.20140189600005],[118.91063181200002,10.200347100000045],[118.9097339860001,10.202166628000043],[118.90724571700002,10.198031377000063],[118.90196831100002,10.19840429900006],[118.90063955800008,10.196889748000046],[118.89495927900009,10.196336605000056],[118.89238707400011,10.197287884000048],[118.8891884950001,10.20247613600003],[118.88067808100004,10.209062935000077],[118.86585949300002,10.210149025000021],[118.85949020800001,10.20852343200005],[118.85708797400002,10.20521367400005],[118.85445720500002,10.205620859000021],[118.85290090500007,10.203599004000068],[118.84972333600001,10.202951185000074],[118.85019406900005,10.20071437100006],[118.84771549700008,10.199711782000065],[118.84569098500003,10.19593057000003],[118.84518488100002,10.19084701600002],[118.83988983100005,10.187655429000074],[118.83114824100005,10.18636144800007],[118.82276637600012,10.190801977000035],[118.82307630600008,10.194434221000051],[118.8185837850001,10.197530146000076],[118.81610630600005,10.194557700000075],[118.81435345300008,10.19536660500006],[118.81055769400007,10.193273760000068],[118.80880013900003,10.19495224700006],[118.80824476400005,10.192787113000065],[118.80576419300007,10.192237022000029],[118.8082921670001,10.182525448000035],[118.80759582100006,10.17784778400005],[118.8063442560001,10.177887138000074],[118.80693371400002,10.176347920000069],[118.80477771200003,10.172921238000072],[118.80640700300012,10.168197604000056],[118.81248063700002,10.163954998000065],[118.81049798800007,10.160512405000077],[118.81176219800011,10.158646128000044],[118.8111024000001,10.154881628000055],[118.80923296700007,10.15249231200005],[118.80957082700002,10.149891224000044],[118.80842351100011,10.14979299600003],[118.81162683200012,10.143643558000065],[118.8118975540001,10.141131479000023],[118.81028410600004,10.13905728900005],[118.81364809100012,10.133911012000056],[118.81003572700001,10.127305145000037],[118.81034663600008,10.125423],[118.80481429200006,10.121161378000068],[118.80788701600011,10.119560684000021],[118.80663873900005,10.116810007000026],[118.81110540300006,10.110853260000056],[118.81715660400005,10.11228840800004],[118.822154651,10.109510059000058],[118.827790692,10.111802467000075],[118.83416459300008,10.107819168000049],[118.83855452400007,10.10814150400006],[118.84025191800004,10.10672446700005],[118.8384958260001,10.106795073000058],[118.84027118100005,10.104916280000054],[118.83873280400007,10.10362389200003],[118.83268289900002,10.103218980000065],[118.83146754000006,10.101461182000037],[118.829970838,10.102727560000062],[118.82729434900011,10.100613200000055],[118.82629771300003,10.09816737500006],[118.82723148800005,10.096870753000076],[118.82307130000004,10.094451424000056],[118.82660324200003,10.089656477000062],[118.821277,10.08657461100006],[118.82157899800006,10.08219260200002],[118.81931228300004,10.080273218000059],[118.82007659800001,10.078897538000035],[118.81767789700007,10.074708378000025],[118.8132917910001,10.070140971000058],[118.80996064300007,10.070029245000057],[118.81148827700008,10.06605877800007],[118.81021855000006,10.06557164800006],[118.81041868400007,10.063414653000052],[118.80888338500006,10.062030112000059],[118.80983829700006,10.060394933000055],[118.80634663300009,10.054882127000042],[118.80845463800006,10.046707242000025],[118.80779902000006,10.041944198000067],[118.8102579350001,10.034607876000052],[118.8091851690001,10.032888267000033],[118.80988997200006,10.029943237000055],[118.80728493700008,10.029395045000058],[118.80825265900012,10.027905920000023],[118.80318130300009,10.026941618000023],[118.80310635500007,10.030483952000054],[118.80110948100003,10.031796172000043],[118.80019567000011,10.034837680000066],[118.79947681100009,10.033445450000045],[118.79825273100005,10.035580048000043],[118.7958286490001,10.034819687000038],[118.79395578700007,10.036596016000033],[118.79337928000007,10.034964117000072],[118.79569194400005,10.03259207800005],[118.79646624800012,10.028404090000038],[118.79495084300004,10.025828076000039],[118.79632862500011,10.022569772000054],[118.79256511800008,10.022318313000028],[118.7915336740001,10.023439027000052],[118.79242281600011,10.022310365000067],[118.78873783200004,10.01999373800004],[118.78876272900004,10.022328096000024],[118.785784852,10.024546513000075],[118.7837238300001,10.023296452000068],[118.78411630300002,10.021560849000025],[118.77966154,10.024085103000061],[118.77658420900002,10.021698429000025],[118.77399386800005,10.02606395500004],[118.77209969400008,10.036544141000036],[118.77308261000007,10.038637222000034],[118.76915763200009,10.044116056000064],[118.77444466700001,10.044760943000028],[118.7759627260001,10.046739997000032],[118.77478388000009,10.048338215000058],[118.77661652900008,10.050565214000073],[118.7750286370001,10.053912366000077],[118.77702223900008,10.054975631000048],[118.77426075500011,10.056329767000022],[118.77522694200002,10.059876024000062],[118.77307409900004,10.061355475000028],[118.76800948300001,10.061353224000072],[118.76484989300002,10.05932281400004],[118.76343895800005,10.061796943000047],[118.7639523150001,10.064294123000025],[118.76211406000004,10.06553334800003],[118.75768884700005,10.063790084000061],[118.75699415400004,10.067842337000059],[118.75643942500005,10.066172970000025],[118.75215400500008,10.06484019000004],[118.74311699900011,10.072442782000053],[118.7412559170001,10.075792038000031],[118.7446826370001,10.076456102000066],[118.7456610800001,10.078773394000052],[118.74788599400006,10.079068364000022],[118.75194664300011,10.07559397600005],[118.75492875300006,10.074748260000035],[118.7572266200001,10.076885103000052],[118.75997248400006,10.073950323000076],[118.76169556100001,10.074878150000075],[118.76530776800007,10.072977730000048],[118.76766558400004,10.07383833700004],[118.77133494500004,10.069129050000072],[118.77362979300005,10.069989686000042],[118.77256688200009,10.073395030000029],[118.77405075000001,10.076308891000053],[118.77242764300001,10.079951903000051],[118.77350894300002,10.085787789000051],[118.76702159100012,10.087610850000033],[118.76366959300003,10.095916084000066],[118.77012159200001,10.094255029000067],[118.77160416000004,10.102864949000036],[118.77034493200006,10.10608400500007],[118.76338726100005,10.113492009000026],[118.76353117500003,10.116703765000068],[118.76688737600011,10.117017617000045],[118.7702948650001,10.114276011000072],[118.77159552100011,10.116164560000072],[118.76795287000004,10.121884220000027],[118.76603725000007,10.12908088100005],[118.76247334600009,10.13187944200007],[118.760223128,10.131333493000056],[118.75853538000001,10.127860127000076],[118.76112153000008,10.120923447000052],[118.75705019200007,10.119227808000062],[118.75761885000009,10.115690269000027],[118.75639772900001,10.113689291000071],[118.7520838150001,10.11331946100006],[118.75134574700007,10.109880554000028],[118.7475771500001,10.10931994200007],[118.74643857800004,10.107016702000067],[118.74672957500002,10.102234574000022],[118.74536852900007,10.100615314000038],[118.74748681500012,10.097901599000068],[118.74797480500001,10.093726479000054],[118.7430503490001,10.090268017000028],[118.74581273900003,10.083539827000038],[118.73967402800008,10.083057841000027],[118.7398314080001,10.081363063000026],[118.73706720400003,10.080879578000065],[118.73387039300007,10.078226810000046],[118.73390015200005,10.07603057700004],[118.73152119600002,10.075437607000026],[118.73189935900007,10.072159551000027],[118.7265823240001,10.07053111600004],[118.7282862510001,10.065618345000075],[118.72533128700002,10.059770963000062],[118.72497989700003,10.05490400900004],[118.72629090900011,10.05260185700007],[118.72508396900002,10.047607694000021],[118.72764019700003,10.042813541000044],[118.72492171500005,10.038546345000043],[118.72303239000007,10.038779906000059],[118.72295335600006,10.035735972000055],[118.71739537600001,10.036237414000027],[118.70962235200011,10.032821512000055],[118.707090289,10.038357774000076],[118.70394745700003,10.038407500000062],[118.698405406,10.03022183400003],[118.69522744800008,10.030406979000077],[118.69516406500009,10.032541921000075],[118.6936371590001,10.031807988000025],[118.69202217700001,10.02784673800005],[118.69476414600001,10.022692681000024],[118.69299036100006,10.019339074000072],[118.6882237000001,10.016792120000048],[118.6876437630001,10.014666388000023],[118.67879414000004,10.00986303700006],[118.673604522,10.012354841000047],[118.67114904800007,10.010105765000048],[118.6683585720001,10.009979240000064],[118.66792746600004,10.007327190000069],[118.66318333600009,10.005895873000043],[118.66346818200009,10.002406691000033],[118.66016499600005,9.998312178000049],[118.64979897700005,9.999359924000032],[118.64785450000011,10.003588114000024],[118.64474611500009,10.003200554000045],[118.64658518800002,10.000085026000022],[118.64500384100006,9.99605093200006],[118.64893315200004,9.995632885000077],[118.65227110800004,9.993327021000027],[118.65061441500006,9.99089518300002],[118.65218816900006,9.98638703100005],[118.65162365800006,9.982873875000053],[118.654899139,9.98217334700007],[118.65746130700006,9.983735950000039],[118.66049419600006,9.982804299000065],[118.6633495640001,9.975380849000032],[118.66183292500011,9.97240707100002],[118.65749928500009,9.97104046800007],[118.65720399500003,9.967133648000072],[118.65526009900009,9.964998801000036],[118.64715103000003,9.96438777800006],[118.64658828400002,9.96071120800002],[118.64304508700002,9.95960692500006],[118.64712582000004,9.957609047000062],[118.64827604400011,9.954350163000072],[118.64171776500007,9.948317979000024],[118.64654112700009,9.945728540000061],[118.6433762150001,9.943074939000041],[118.64543787000002,9.940955508000059],[118.64478682700008,9.938465567000037],[118.64606484900003,9.937456145000056],[118.64414987400005,9.933918155000072],[118.64085286000011,9.931931062000046],[118.63662114200008,9.934052780000059],[118.63678410300008,9.931740602000048],[118.63496738300012,9.930792275000044],[118.63550206600007,9.928419175000045],[118.63261913500003,9.926642573000038],[118.63106286000004,9.92776589400006],[118.62975426300011,9.925659951000057],[118.62451557500003,9.924959802000046],[118.62620746100004,9.920730381000055],[118.62369708400001,9.918171635000022],[118.6211758280001,9.918396243000075],[118.61925093500008,9.915818212000033],[118.61034228200003,9.916230288000065],[118.60490020300006,9.91482441900007],[118.60480847800011,9.912700767000047],[118.6076949290001,9.91149961900004],[118.60403542200004,9.905460684000047],[118.609713983,9.905833220000034],[118.61196370100004,9.904357381000068],[118.60961491800003,9.896995630000049],[118.61463047100005,9.891824276000023],[118.61404784100012,9.887898161000066],[118.611156305,9.885296683000036],[118.6109634930001,9.882047512000042],[118.60577155400006,9.878418003000036],[118.60783763800009,9.875534378000054],[118.60575098800007,9.870873646000064],[118.59990093800002,9.866335313000036],[118.59436820700012,9.867974158000038],[118.59018060000005,9.857377798000073],[118.5823161400001,9.85119000800006],[118.5762895680001,9.848202396000033],[118.57207043100004,9.84916206400004],[118.57164018100002,9.84707019900003],[118.56924403500011,9.847597323000059],[118.56715124100003,9.840716447000034],[118.56865223300008,9.836045373000047],[118.56605338000008,9.829596713000058],[118.56131952700002,9.824583966000034],[118.55651354100007,9.822943494000071],[118.55203838300008,9.814164553000069],[118.54598254000007,9.811787610000067],[118.54594171800011,9.810256609000021],[118.54526895200001,9.811059446000058],[118.54094667000004,9.806969844000037],[118.54082587000005,9.800395846000072],[118.53572667500009,9.796655722000025],[118.53442669900005,9.791113960000075],[118.530228512,9.787423200000035],[118.53099390600005,9.786406768000063],[118.52955720800003,9.783993274000068],[118.527965504,9.78398031000006],[118.52806189800003,9.782476426000073],[118.52122741900007,9.776877090000028],[118.51938389000009,9.77737232000004],[118.51809373900005,9.77522643900005],[118.51340979500003,9.774559699000065],[118.51778043000002,9.770692992000022],[118.51453374500011,9.764859279000063],[118.512383827,9.763542044000076],[118.51215168400006,9.760681867000073],[118.50887749300011,9.759149037000043],[118.5065042870001,9.759844857000076],[118.50634571100011,9.76163460600003],[118.50606560500012,9.759946102000072],[118.5024902780001,9.759274952000055],[118.50160342600009,9.757056479000028],[118.495676838,9.754068959000051],[118.4940401340001,9.751285597000049],[118.49103108700001,9.749992315000043],[118.48871198400002,9.741260436000061],[118.48174962700011,9.74093418800004],[118.48119032000011,9.73665833800004],[118.4779120070001,9.736608212000021],[118.4744815580001,9.731614212000068],[118.4675107280001,9.730617907000067],[118.46253698900011,9.733154444000036],[118.45692434600005,9.727385624000021],[118.45359401900009,9.726948875000062],[118.45145983300006,9.728602972000033],[118.44863683800008,9.727808350000032],[118.4438660300001,9.720746142000053],[118.4401202030001,9.719484587000068],[118.43797613700008,9.720320277000042],[118.43349319000004,9.716495144000021],[118.431452637,9.708714325000074],[118.42750399900001,9.704122917000063],[118.42268230200011,9.703311327000051],[118.41940098000009,9.704629989000068],[118.41903178400003,9.701556383000025],[118.42249921400003,9.700553318000061],[118.41942874200004,9.694304542000054],[118.41199607800002,9.689915550000023],[118.40976858800002,9.687599886000044],[118.41072433200009,9.68674229100003],[118.4090910430001,9.686886679000054],[118.40884239500008,9.684062503000064],[118.41033181500006,9.68221644600004],[118.40903103200003,9.681079130000057],[118.53302917300005,9.579528],[118.55056141900002,9.56317238400004],[118.58483468600002,9.525602129000049],[118.59598,9.510683],[118.62267345200007,9.489538854000045]]]]}}]}
