{"type":"FeatureCollection","source":{"dataset":"geoBoundaries gbOpen PHL ADM3","commit":"9469f09","license":"CC BY 3.0 IGO","boundary_year":2020,"url":"https://media.githubusercontent.com/media/wmgeolab/geoBoundaries/9469f09/releaseData/gbOpen/PHL/ADM3/geoBoundaries-PHL-ADM3_simplified.geojson","upstream_sources":["NAMRIA","PSA","OCHA Philippines"],"reference":"https://ulap-nga.georisk.gov.ph/arcgis/rest/services/PSA/Municipal/MapServer/0","psgc_reference":"https://psa.gov.ph/classification/psgc/provinces/0200000000","notice":"Approximate planning/reference boundaries, not legal, cadastral, or survey-grade."},"features":[{"type":"Feature","properties":{"shapeName":"Aglipay","shapeISO":"","shapeID":"30758251B83245264708562","shapeGroup":"PHL","shapeType":"ADM3","psgc_code":"0205701000","legacy_psgc_code":"025701000","province":"Quirino"},"geometry":{"type":"Polygon","coordinates":[[[121.68380586300009,16.47574939900005],[121.6662347460001,16.488944342000025],[121.66521889800003,16.491839411000058],[121.66378245200008,16.491155595000066],[121.66099118700004,16.493536595000023],[121.65903144000004,16.49300911200004],[121.64313825600004,16.523100139000064],[121.63801825100006,16.525068834000024],[121.63520337300008,16.522721869000065],[121.63119705500003,16.530774654000027],[121.62547554000002,16.549078374000032],[121.62301467600003,16.548898364000024],[121.61395958500009,16.547788998000044],[121.61055783000006,16.54310879600007],[121.60896622000007,16.53889302600004],[121.61392488500007,16.532243908000055],[121.61330351400011,16.53053028000005],[121.59174578400007,16.524579043000074],[121.59334057700005,16.51710194100002],[121.58624051100003,16.504543673000057],[121.58308060000002,16.505069689000038],[121.58145109000009,16.507177821000028],[121.57786638700009,16.504752737000047],[121.56920635800009,16.50726764600006],[121.5721199080001,16.494016964000025],[121.56007130700004,16.495079530000055],[121.54740588900006,16.490311854000026],[121.5420165050001,16.468407241000023],[121.55427378700006,16.463100620000034],[121.56059108300008,16.448943039000028],[121.56410485600009,16.44967431400005],[121.56496066200009,16.448348286000055],[121.56369106000011,16.443975214000034],[121.56174433800004,16.442367052000066],[121.55712675000007,16.44558337600006],[121.55420196500006,16.445677421000028],[121.54940640400002,16.44163457700006],[121.54265206700006,16.439072427000042],[121.53731313000003,16.429294859000038],[121.5355200140001,16.428561312000056],[121.52971524800012,16.43149735800006],[121.52462932300011,16.43004423600007],[121.52279946600004,16.42800582900003],[121.5238633990001,16.426334852000025],[121.53584392300002,16.42375410300002],[121.53744966600004,16.417728370000077],[121.53687668900011,16.41067558000003],[121.54140288400004,16.407176160000063],[121.54050723300008,16.40577606200003],[121.53648195100004,16.40557016500003],[121.52998590800007,16.39851820000007],[121.52993443300011,16.395234146000064],[121.5323640150001,16.393731100000025],[121.53309494900009,16.390776481000046],[121.52829226900008,16.384046781000052],[121.52592103600011,16.383893390000026],[121.52612286500005,16.375554091000026],[121.52207218,16.37009236800003],[121.52550997700007,16.36257825200005],[121.5216789970001,16.355355098000075],[121.52306336400011,16.34798948400004],[121.520757752,16.339014960000043],[121.51888230300005,16.334835833000056],[121.51307404700003,16.329815103000044],[121.51472631100012,16.324598336000065],[121.50990650300002,16.321016833000044],[121.50639002100002,16.316034303000038],[121.50003406400003,16.31419442200007],[121.49598258900005,16.310331203000032],[121.4948758160001,16.301749236000035],[121.49249199500002,16.29880253600004],[121.48319515300011,16.29348514900005],[121.47994756900005,16.29007652000007],[121.48071900200011,16.28747204900003],[121.47673908700006,16.283631867000054],[121.47093498200002,16.281227200000046],[121.472016585,16.278176337000048],[121.46681068100008,16.270629730000053],[121.45764799100004,16.266509120000023],[121.45368998700008,16.266388929000072],[121.45100416800005,16.264346443000022],[121.4459685060001,16.264881996000042],[121.44370747800008,16.26220938800003],[121.43811692400004,16.25979982700005],[121.432033595,16.254100451000056],[121.41985524200004,16.231628588000035],[121.4101432010001,16.221784153000044],[121.42154296500007,16.21681472800003],[121.42432188900011,16.219187705000024],[121.42959305300008,16.213634521000074],[121.43279301500002,16.213488893000033],[121.44316746100003,16.220322701000043],[121.44765259100006,16.221260501000074],[121.48382806500001,16.250868161000028],[121.48511223800006,16.25618651900004],[121.4900097630001,16.26110969700005],[121.49290789100007,16.267364232000034],[121.49325233400009,16.278289576000077],[121.49910407900006,16.287791596000034],[121.50614580600006,16.30376288900004],[121.51065925700004,16.309081958000036],[121.51135969100005,16.314461188000053],[121.52233869000008,16.320920186000023],[121.52314370500005,16.32260589400005],[121.52938525000002,16.344073206000076],[121.52945723200003,16.34687548900007],[121.52798204700002,16.34829176200003],[121.56417131,16.34752750000007],[121.56897783000011,16.35014534000004],[121.57788916400011,16.35853879800004],[121.61784815400006,16.374630567000054],[121.65551234100008,16.393557285000043],[121.6634248680001,16.39846506500004],[121.66332915900011,16.404087106000077],[121.67459863800002,16.414297633000047],[121.68416588100001,16.41593887600004],[121.68837611200001,16.419695836000074],[121.68686802000002,16.422874824000075],[121.68975263400011,16.422845804000076],[121.68989193200002,16.425109384000052],[121.69141839800011,16.424732121000034],[121.7018694520001,16.445344540000065],[121.69022134400007,16.459001794000073],[121.69108260900009,16.461195907000047],[121.68380586300009,16.47574939900005]]]}},{"type":"Feature","properties":{"shapeName":"Cabarroguis","shapeISO":"","shapeID":"30758251B72889341046868","shapeGroup":"PHL","shapeType":"ADM3","psgc_code":"0205702000","legacy_psgc_code":"025702000","province":"Quirino"},"geometry":{"type":"Polygon","coordinates":[[[121.56920635800009,16.50726764600006],[121.55349041900001,16.51153204900004],[121.55634332200009,16.522274952000032],[121.55010270900004,16.521625974000074],[121.55018027900007,16.531146410000076],[121.54477205800004,16.526800526000045],[121.53451757900007,16.527451545000076],[121.5284534000001,16.526007442000036],[121.52447245300004,16.536686058000043],[121.5257992820001,16.541431886000055],[121.50579026800006,16.54942565400006],[121.50188037700002,16.549585896000053],[121.51127100200006,16.539604675000078],[121.50204943000006,16.52716079000004],[121.493303319,16.522146760000055],[121.48285252800008,16.51201014800006],[121.4542844230001,16.46984470800004],[121.43739611600006,16.456200566000064],[121.43214309000007,16.444982262000053],[121.43613828800005,16.440184221000038],[121.42291650800007,16.428137504000063],[121.44860449300006,16.42811832900003],[121.43716017000008,16.383300146000067],[121.48150201400006,16.357183331000044],[121.47877953800003,16.350285926000026],[121.520757752,16.339014960000043],[121.52306336400011,16.34798948400004],[121.5216789970001,16.355355098000075],[121.52550997700007,16.36257825200005],[121.52207218,16.37009236800003],[121.52612286500005,16.375554091000026],[121.52592103600011,16.383893390000026],[121.52829226900008,16.384046781000052],[121.53309494900009,16.390776481000046],[121.5323640150001,16.393731100000025],[121.52993443300011,16.395234146000064],[121.52998590800007,16.39851820000007],[121.53648195100004,16.40557016500003],[121.54050723300008,16.40577606200003],[121.54140288400004,16.407176160000063],[121.53687668900011,16.41067558000003],[121.53744966600004,16.417728370000077],[121.53584392300002,16.42375410300002],[121.5238633990001,16.426334852000025],[121.52279946600004,16.42800582900003],[121.52462932300011,16.43004423600007],[121.52971524800012,16.43149735800006],[121.5355200140001,16.428561312000056],[121.53731313000003,16.429294859000038],[121.54265206700006,16.439072427000042],[121.54940640400002,16.44163457700006],[121.55420196500006,16.445677421000028],[121.55712675000007,16.44558337600006],[121.56174433800004,16.442367052000066],[121.56369106000011,16.443975214000034],[121.56496066200009,16.448348286000055],[121.56410485600009,16.44967431400005],[121.56059108300008,16.448943039000028],[121.55427378700006,16.463100620000034],[121.5420165050001,16.468407241000023],[121.54740588900006,16.490311854000026],[121.56007130700004,16.495079530000055],[121.5721199080001,16.494016964000025],[121.56920635800009,16.50726764600006]]]}},{"type":"Feature","properties":{"shapeName":"Diffun","shapeISO":"","shapeID":"30758251B78593014826051","shapeGroup":"PHL","shapeType":"ADM3","psgc_code":"0205703000","legacy_psgc_code":"025703000","province":"Quirino"},"geometry":{"type":"Polygon","coordinates":[[[121.55018027900007,16.531146410000076],[121.550413864,16.535319596000022],[121.55402591300003,16.542179572000066],[121.53345480300004,16.547785911000062],[121.55201303900003,16.569721292000054],[121.55272830600006,16.571406059000026],[121.55042076400002,16.574106724000046],[121.55712107600004,16.576354965000064],[121.56753495300006,16.598270988000024],[121.575892812,16.597860096000034],[121.57858267100005,16.598471049000068],[121.57384646800006,16.606030798000063],[121.57048577800003,16.610435594000023],[121.56701087600004,16.610498691000032],[121.56749450100006,16.613628085000073],[121.55481491400008,16.62891236200005],[121.53527233800003,16.63260553500004],[121.5232009120001,16.637130467000077],[121.52148660700004,16.63424570500007],[121.52278118700008,16.632328168000072],[121.52062412400005,16.631733116000078],[121.5088155630001,16.636439754000037],[121.50217951400009,16.635458957000026],[121.50205375300004,16.634093936000056],[121.49962784000002,16.634241367000072],[121.49844839100001,16.632445387000075],[121.49596941800007,16.63793083400003],[121.4925712910001,16.63711491300006],[121.48460389500008,16.638999684000055],[121.4830679580001,16.642962467000075],[121.46601437900006,16.641396523000026],[121.44575299200005,16.634300799000073],[121.43647493700007,16.623433001000024],[121.424899804,16.61928342500005],[121.41740695600004,16.620691883000063],[121.41383162800003,16.618890659000044],[121.41098123600011,16.613736247000077],[121.40832501300008,16.613597952000077],[121.39985675100002,16.607053096000072],[121.39264336400004,16.541548798000065],[121.38564717600002,16.51560742600003],[121.38468610900009,16.506486988000063],[121.3633466230001,16.507124376000036],[121.3577187190001,16.498419118000072],[121.37686570300002,16.451005424000073],[121.40003235000006,16.434969730000034],[121.42291650800007,16.428137504000063],[121.43613828800005,16.440184221000038],[121.43214309000007,16.444982262000053],[121.43739611600006,16.456200566000064],[121.4542844230001,16.46984470800004],[121.48285252800008,16.51201014800006],[121.493303319,16.522146760000055],[121.50204943000006,16.52716079000004],[121.51127100200006,16.539604675000078],[121.50188037700002,16.549585896000053],[121.50579026800006,16.54942565400006],[121.5257992820001,16.541431886000055],[121.52447245300004,16.536686058000043],[121.5284534000001,16.526007442000036],[121.53451757900007,16.527451545000076],[121.54477205800004,16.526800526000045],[121.55018027900007,16.531146410000076]]]}},{"type":"Feature","properties":{"shapeName":"Maddela","shapeISO":"","shapeID":"30758251B21617081206800","shapeGroup":"PHL","shapeType":"ADM3","psgc_code":"0205704000","legacy_psgc_code":"025704000","province":"Quirino"},"geometry":{"type":"Polygon","coordinates":[[[121.49910407900006,16.287791596000034],[121.59386003100008,16.280821127000024],[121.60143814800006,16.281218076000073],[121.60788915800003,16.28469078300003],[121.61535210900001,16.285672112000043],[121.61843463100001,16.284235973000023],[121.63663818100008,16.282711368000037],[121.63559349500008,16.27472490100007],[121.63865731700002,16.273064978000036],[121.646715233,16.273577440000054],[121.64712627200004,16.27192174100003],[121.65236480400006,16.268503985000052],[121.65289678600004,16.265970320000065],[121.66180805700003,16.262738558000024],[121.66812241800005,16.270372869000028],[121.68510396600004,16.265221378000035],[121.6917296150001,16.261329613000044],[121.70086563200005,16.25063113400006],[121.70489434900003,16.251080458000047],[121.70876725900007,16.249157705000073],[121.71103518400002,16.25292795100006],[121.71624996900005,16.25435804400007],[121.71742004600003,16.255975927000065],[121.72937158000002,16.252801770000076],[121.73467482100011,16.25472463400007],[121.73583269000005,16.25244856000006],[121.73428774000001,16.251268390000064],[121.74343065800008,16.244614003000038],[121.81960476300003,16.22622517800005],[121.84589590900009,16.249155589000054],[121.86282605800011,16.271396107000044],[121.89353425500008,16.301854026000058],[121.90289792400006,16.314322068000024],[121.9412106850001,16.36589176900003],[121.96723491500006,16.40023248400007],[122.024890346,16.465353099000026],[122.05880819100003,16.50925477800007],[122.0177337130001,16.517024527000046],[121.963870541,16.484835325000063],[121.88729434000004,16.44918003300006],[121.80059177500004,16.417749977000028],[121.79632309200008,16.41476179400007],[121.79286491500011,16.40878079500004],[121.74500357300008,16.393169809000028],[121.74555747300008,16.395818899000062],[121.74353453200001,16.401068914000064],[121.73977162000006,16.401935888000025],[121.73585852600002,16.406203659000028],[121.73400277200005,16.405350247000058],[121.73038909500008,16.409043109000038],[121.72461886600001,16.415500345000055],[121.71641132900004,16.430010378000077],[121.7018694520001,16.445344540000065],[121.69141839800011,16.424732121000034],[121.68989193200002,16.425109384000052],[121.68975263400011,16.422845804000076],[121.68686802000002,16.422874824000075],[121.68837611200001,16.419695836000074],[121.68416588100001,16.41593887600004],[121.67459863800002,16.414297633000047],[121.66332915900011,16.404087106000077],[121.6634248680001,16.39846506500004],[121.65551234100008,16.393557285000043],[121.61784815400006,16.374630567000054],[121.57788916400011,16.35853879800004],[121.56897783000011,16.35014534000004],[121.56417131,16.34752750000007],[121.52798204700002,16.34829176200003],[121.52945723200003,16.34687548900007],[121.52938525000002,16.344073206000076],[121.52314370500005,16.32260589400005],[121.52233869000008,16.320920186000023],[121.51135969100005,16.314461188000053],[121.51065925700004,16.309081958000036],[121.50614580600006,16.30376288900004],[121.49910407900006,16.287791596000034]]]}},{"type":"Feature","properties":{"shapeName":"Saguday","shapeISO":"","shapeID":"30758251B76917628973328","shapeGroup":"PHL","shapeType":"ADM3","psgc_code":"0205705000","legacy_psgc_code":"025705000","province":"Quirino"},"geometry":{"type":"Polygon","coordinates":[[[121.62301467600003,16.548898364000024],[121.60070759400003,16.570263699000066],[121.60077096000009,16.57351514800007],[121.59952867000004,16.57575489800007],[121.58379264000007,16.575755187000027],[121.57603639600006,16.594076955000048],[121.575892812,16.597860096000034],[121.56753495300006,16.598270988000024],[121.55712107600004,16.576354965000064],[121.55042076400002,16.574106724000046],[121.55272830600006,16.571406059000026],[121.55201303900003,16.569721292000054],[121.53345480300004,16.547785911000062],[121.55402591300003,16.542179572000066],[121.550413864,16.535319596000022],[121.55018027900007,16.531146410000076],[121.55010270900004,16.521625974000074],[121.55634332200009,16.522274952000032],[121.55349041900001,16.51153204900004],[121.56920635800009,16.50726764600006],[121.57786638700009,16.504752737000047],[121.58145109000009,16.507177821000028],[121.58308060000002,16.505069689000038],[121.58624051100003,16.504543673000057],[121.59334057700005,16.51710194100002],[121.59174578400007,16.524579043000074],[121.61330351400011,16.53053028000005],[121.61392488500007,16.532243908000055],[121.60896622000007,16.53889302600004],[121.61055783000006,16.54310879600007],[121.61395958500009,16.547788998000044],[121.62301467600003,16.548898364000024]]]}},{"type":"Feature","properties":{"shapeName":"Nagtipunan","shapeISO":"","shapeID":"30758251B72907275700967","shapeGroup":"PHL","shapeType":"ADM3","psgc_code":"0205706000","legacy_psgc_code":"025706000","province":"Quirino"},"geometry":{"type":"Polygon","coordinates":[[[121.4101432010001,16.221784153000044],[121.38376232500002,16.201110999000036],[121.34825628400006,16.196709424000062],[121.32918279100011,16.200524123000037],[121.29989098200008,16.209559719000026],[121.30075904500006,16.20114096900005],[121.31394964800006,16.17928840600007],[121.33554269800004,16.173060719000034],[121.32651811800008,16.157835947000024],[121.3070017770001,16.156876356000055],[121.28687355400007,16.16680192800004],[121.27740099100004,16.161854126000037],[121.28359984000008,16.157253586000024],[121.28310498200005,16.151274922000027],[121.2850929440001,16.151655636000044],[121.28587908200006,16.149241709000023],[121.28692644500006,16.149512747000074],[121.28551771200011,16.147964469000044],[121.2858793580001,16.145210269000074],[121.28462499900002,16.144840660000057],[121.2844832080001,16.14018216200003],[121.28712870100003,16.136750848000077],[121.28964305600005,16.137084980000054],[121.28935733800006,16.134699643000033],[121.29071932800002,16.13441490100007],[121.29104325300011,16.135831850000045],[121.29212170900007,16.134508866000033],[121.2945684010001,16.134821827000053],[121.29436819200009,16.131882976000043],[121.29780319600002,16.128949764000026],[121.29763804100003,16.126824474000045],[121.29931867800008,16.127656315000024],[121.299556875,16.125551811000037],[121.30447043000004,16.121840417000044],[121.30383399900006,16.11895419500007],[121.30192621100002,16.11919210800005],[121.3014081120001,16.117928832000075],[121.31016108000006,16.114138549000074],[121.31376190800006,16.103822251000054],[121.31824516200004,16.103633600000023],[121.32037721200004,16.101725577000025],[121.31957864500009,16.100301788000024],[121.32221226900003,16.09575457400007],[121.32167984900002,16.094338203000063],[121.33004155200001,16.093953123000063],[121.33412161900003,16.084020813000052],[121.33801464100009,16.08305215000007],[121.33759390800003,16.080661383000063],[121.33944428500001,16.081160574000023],[121.33959771900004,16.079012976000058],[121.34699629700003,16.090827743000034],[121.34733566500006,16.088445242000034],[121.35063233500011,16.08875359700005],[121.36543708700003,16.066626002000078],[121.34075960900009,16.02196998100004],[121.37090042000011,15.997911264000038],[121.44036342000004,15.936710192000078],[121.44317203500009,15.937676597000063],[121.44589005000012,15.934052578000035],[121.44976386400003,15.935494464000044],[121.45498507800005,15.931006051000054],[121.45809948700003,15.931372452000062],[121.4586828890001,15.928803778000031],[121.46354426900007,15.926616156000023],[121.4745488740001,15.929847778000067],[121.5012958310001,15.950180545000023],[121.50374662600007,15.948955148000039],[121.51093562500012,15.949690386000043],[121.51154832400005,15.95340742600007],[121.51551044200005,15.958268169000064],[121.5156738290001,15.961862669000027],[121.51894155500008,15.96169928200004],[121.51984018000007,15.964640236000037],[121.52490515700003,15.968847435000043],[121.5288264290001,15.969868599000051],[121.57062539300011,16.01126710500006],[121.62897873000009,16.063865467000028],[121.68546404300002,16.11272907400007],[121.69269706600005,16.116691781000043],[121.72325119700008,16.144655707000027],[121.76492361800001,16.173819910000077],[121.78125155300006,16.19321946900004],[121.81960476300003,16.22622517800005],[121.74343065800008,16.244614003000038],[121.73428774000001,16.251268390000064],[121.73583269000005,16.25244856000006],[121.73467482100011,16.25472463400007],[121.72937158000002,16.252801770000076],[121.71742004600003,16.255975927000065],[121.71624996900005,16.25435804400007],[121.71103518400002,16.25292795100006],[121.70876725900007,16.249157705000073],[121.70489434900003,16.251080458000047],[121.70086563200005,16.25063113400006],[121.6917296150001,16.261329613000044],[121.68510396600004,16.265221378000035],[121.66812241800005,16.270372869000028],[121.66180805700003,16.262738558000024],[121.65289678600004,16.265970320000065],[121.65236480400006,16.268503985000052],[121.64712627200004,16.27192174100003],[121.646715233,16.273577440000054],[121.63865731700002,16.273064978000036],[121.63559349500008,16.27472490100007],[121.63663818100008,16.282711368000037],[121.61843463100001,16.284235973000023],[121.61535210900001,16.285672112000043],[121.60788915800003,16.28469078300003],[121.60143814800006,16.281218076000073],[121.59386003100008,16.280821127000024],[121.49910407900006,16.287791596000034],[121.49325233400009,16.278289576000077],[121.49290789100007,16.267364232000034],[121.4900097630001,16.26110969700005],[121.48511223800006,16.25618651900004],[121.48382806500001,16.250868161000028],[121.44765259100006,16.221260501000074],[121.44316746100003,16.220322701000043],[121.43279301500002,16.213488893000033],[121.42959305300008,16.213634521000074],[121.42432188900011,16.219187705000024],[121.42154296500007,16.21681472800003],[121.4101432010001,16.221784153000044]]]}}]}
