{"type":"FeatureCollection","features":[{"type":"Feature","geometry":{"type":"Polygon","coordinates":[[[120.64625407600012,15.688755314000053],[120.64130955300006,15.691287892000046],[120.63527012800013,15.691319542000034],[120.63475647500002,15.68753135000003],[120.625843561,15.68282318200005],[120.62399059000008,15.679538370000046],[120.6241590420001,15.675495524000045],[120.6260214130001,15.67068341300006],[120.63076892600009,15.669892803000042],[120.6486700170001,15.673480995000034],[120.6497492100001,15.678864423000046],[120.6536397230001,15.679259796000053],[120.65331411700004,15.68071415600002],[120.64858540500006,15.683040508000028],[120.64625407600012,15.688755314000053]]]},"properties":{"name":"Coral-Iloco","psgc":"0306912001","label_position":{"lat":15.680126263000034,"lng":120.63888397901316}},"id":306912001},{"type":"Feature","geometry":{"type":"Polygon","coordinates":[[[120.62399059000008,15.679538370000046],[120.61940895600003,15.680804948000056],[120.61763076800004,15.678429146000047],[120.61276643200006,15.676916222000047],[120.61038013500003,15.666995135000032],[120.6080045550001,15.663601170000051],[120.60175342000002,15.661180622000076],[120.6024679530001,15.65498419100004],[120.60645887900012,15.651748465000027],[120.61123002300008,15.657597803000042],[120.61399193800004,15.657294944000057],[120.61667354800011,15.660370488000067],[120.62144051300004,15.659763024000027],[120.62630679200005,15.665479406000031],[120.62723926000001,15.667262353000073],[120.6260214130001,15.67068341300006],[120.6241590420001,15.675495524000045],[120.62399059000008,15.679538370000046]]]},"properties":{"name":"Guiteb","psgc":"0306912002","label_position":{"lat":15.666237270500032,"lng":120.61827641149651}},"id":306912002},{"type":"Feature","geometry":{"type":"Polygon","coordinates":[[[120.64625407600012,15.688755314000053],[120.64170017100004,15.699918340000067],[120.63492463600005,15.70290936000003],[120.6310192720001,15.702674513000037],[120.62799389500003,15.705801869000023],[120.61909364000007,15.702936463000071],[120.61631713300005,15.705461136000054],[120.61418727500006,15.700070636000072],[120.60976693500005,15.69637681100005],[120.6084276270001,15.692421314000054],[120.60940741400007,15.688433417000056],[120.61225183500005,15.685644135000071],[120.61516949500005,15.685990053000072],[120.61940895600003,15.680804948000056],[120.62399059000008,15.679538370000046],[120.625843561,15.68282318200005],[120.63475647500002,15.68753135000003],[120.63527012800013,15.691319542000034],[120.64130955300006,15.691287892000046],[120.64625407600012,15.688755314000053]]]},"properties":{"name":"Pance","psgc":"0306912003","label_position":{"lat":15.694399062500052,"lng":120.6265245079074}},"id":306912003},{"type":"Feature","geometry":{"type":"Polygon","coordinates":[[[120.64830630600012,15.664455700000078],[120.64733181200008,15.670073884000033],[120.63451848300008,15.66685853100006],[120.62723926000001,15.667262353000073],[120.62630679200005,15.665479406000031],[120.63273153800002,15.664078414000075],[120.64051038300012,15.66461483800003],[120.64830630600012,15.664455700000078]]]},"properties":{"name":"Poblacion Center","psgc":"0306912004","label_position":{"lat":15.667060442000066,"lng":120.64158880590958}},"id":306912004},{"type":"Feature","geometry":{"type":"Polygon","coordinates":[[[120.64733181200008,15.670073884000033],[120.6486700170001,15.673480995000034],[120.63076892600009,15.669892803000042],[120.6260214130001,15.67068341300006],[120.62723926000001,15.667262353000073],[120.63451848300008,15.66685853100006],[120.64733181200008,15.670073884000033]]]},"properties":{"name":"Poblacion North","psgc":"0306912005","label_position":{"lat":15.670378648500046,"lng":120.64032213450344}},"id":306912005},{"type":"Feature","geometry":{"type":"Polygon","coordinates":[[[120.64830630600012,15.664455700000078],[120.64051038300012,15.66461483800003],[120.63273153800002,15.664078414000075],[120.62630679200005,15.665479406000031],[120.6308325440001,15.658663097000044],[120.63090181000008,15.655442227000034],[120.6355426340001,15.651667228000063],[120.63763956800005,15.651093976000027],[120.65074652700002,15.65831676700003],[120.65066680700012,15.661673681000025],[120.64830630600012,15.664455700000078]]]},"properties":{"name":"Poblacion South","psgc":"0306912006","label_position":{"lat":15.656879497000032,"lng":120.63950463091601}},"id":306912006},{"type":"Feature","geometry":{"type":"Polygon","coordinates":[[[120.61946835200001,15.64529638700003],[120.61875478500009,15.654870077000053],[120.61667354800011,15.660370488000067],[120.61399193800004,15.657294944000057],[120.61123002300008,15.657597803000042],[120.60645887900012,15.651748465000027],[120.60824007400005,15.650821020000024],[120.60982912200006,15.64670815700004],[120.61389986900008,15.643037157000037],[120.61946835200001,15.64529638700003]]]},"properties":{"name":"San Juan","psgc":"0306912007","label_position":{"lat":15.651284742500025,"lng":120.61318574570853}},"id":306912007},{"type":"Feature","geometry":{"type":"Polygon","coordinates":[[[120.6355426340001,15.651667228000063],[120.63090181000008,15.655442227000034],[120.6308325440001,15.658663097000044],[120.62630679200005,15.665479406000031],[120.62144051300004,15.659763024000027],[120.61667354800011,15.660370488000067],[120.61875478500009,15.654870077000053],[120.61946835200001,15.64529638700003],[120.62936909300004,15.650440015000068],[120.6355426340001,15.651667228000063]]]},"properties":{"name":"San Raymundo","psgc":"0306912008","label_position":{"lat":15.655156152000043,"lng":120.62495001944092}},"id":306912008},{"type":"Feature","geometry":{"type":"Polygon","coordinates":[[[120.65074652700002,15.65831676700003],[120.65766849400005,15.662499082000068],[120.65674121300003,15.669660501000063],[120.65812070900006,15.67216142800004],[120.65654515400001,15.677218476000064],[120.6536397230001,15.679259796000053],[120.6497492100001,15.678864423000046],[120.6486700170001,15.673480995000034],[120.64733181200008,15.670073884000033],[120.64830630600012,15.664455700000078],[120.65066680700012,15.661673681000025],[120.65074652700002,15.65831676700003]]]},"properties":{"name":"Toledo","psgc":"0306912009","label_position":{"lat":15.667058100500071,"lng":120.65246654481533}},"id":306912009}]}
