{"type":"FeatureCollection","source":{"dataset":"geoBoundaries gbOpen PHL ADM3","commit":"9469f09","license":"CC BY 3.0 IGO","boundary_year":2020,"url":"https://media.githubusercontent.com/media/wmgeolab/geoBoundaries/9469f09/releaseData/gbOpen/PHL/ADM3/geoBoundaries-PHL-ADM3_simplified.geojson","upstream_sources":["NAMRIA","PSA","OCHA Philippines"],"reference":"https://ulap-nga.georisk.gov.ph/arcgis/rest/services/PSA/Municipal/MapServer/0","psgc_reference":"https://psa.gov.ph/classification/psgc/provinces/0400000000","area_notes":"Noveleta uses government polygon spherical area; Cavinti uses government exterior-ring area including interior water. Other references use munarea_sqkm. See CALABARZON_BOUNDARY_SOURCES.md.","notice":"Approximate planning/reference boundaries, not legal, cadastral, or survey-grade."},"features":[{"type":"Feature","properties":{"shapeName":"Angono","shapeISO":"","shapeID":"30758251B89453678850457","shapeGroup":"PHL","shapeType":"ADM3","psgc_code":"0405801000","legacy_psgc_code":"045801000","province":"Rizal"},"geometry":{"type":"Polygon","coordinates":[[[121.19275196900003,14.541406298000027],[121.19015232800007,14.548565473000053],[121.1917245190001,14.55400596800007],[121.19439272800003,14.555859078000026],[121.1956145580001,14.561239108000052],[121.17829643900006,14.556904744000065],[121.16339050700003,14.55082378700007],[121.16027291600005,14.55132218700004],[121.16071197800011,14.549393740000028],[121.15696571300009,14.548006350000037],[121.15789632100007,14.546938436000062],[121.1393416200001,14.533752162000042],[121.14343899800008,14.529510839000068],[121.14382255900011,14.527446578000024],[121.14242461100002,14.526943287000051],[121.14389875600011,14.525884401000042],[121.14245358700009,14.52347340800003],[121.14551088300004,14.514330107000035],[121.15166974400006,14.517946848000065],[121.15247876100011,14.520692264000047],[121.16459744800011,14.531972231000054],[121.16923158400004,14.531948245000024],[121.17006150700001,14.529463273000033],[121.17511081000009,14.531065753000064],[121.17798378100008,14.529199082000048],[121.182160597,14.529158987000073],[121.18659879800009,14.525826168000037],[121.19058163200009,14.53483129500006],[121.19382927100003,14.534495036000067],[121.19275196900003,14.541406298000027]]]}},{"type":"Feature","properties":{"shapeName":"City of Antipolo","shapeISO":"","shapeID":"30758251B52260851794711","shapeGroup":"PHL","shapeType":"ADM3","psgc_code":"0405802000","legacy_psgc_code":"045802000","province":"Rizal"},"geometry":{"type":"Polygon","coordinates":[[[121.1956145580001,14.561239108000052],[121.20194142000003,14.563149103000057],[121.20441088600012,14.569200241000033],[121.20718704700005,14.56865136700003],[121.20879401500008,14.569876917000045],[121.20886058600001,14.575752778000037],[121.21198486900005,14.576590277000037],[121.21201555400012,14.574332115000061],[121.21071940600007,14.574108958000068],[121.211898786,14.572551915000076],[121.2106916250001,14.570888265000065],[121.21177526100007,14.570979106000038],[121.21913264800003,14.577130073000035],[121.2210217920001,14.58137567600005],[121.226400882,14.584438079000051],[121.2331322010001,14.585104251000075],[121.23965983200003,14.589789088000032],[121.23877154800005,14.587955320000049],[121.24222365300011,14.58765895700003],[121.2442175000001,14.590110400000071],[121.25118844300005,14.585690880000072],[121.25340530000005,14.585953600000039],[121.25518820000002,14.589344800000049],[121.2576238470001,14.589898967000067],[121.26788226800011,14.591255772000068],[121.25023492000003,14.617034741000055],[121.24565007000001,14.62023548600007],[121.24292511200008,14.62617560600006],[121.24864933100002,14.627827268000033],[121.25858449200007,14.623731932000055],[121.26222385500012,14.627981878000071],[121.263554311,14.626283123000064],[121.26446227600002,14.628806560000044],[121.26708358500002,14.628688748000059],[121.2665239800001,14.630662093000069],[121.268114437,14.629807958000072],[121.27014668700008,14.629955223000024],[121.2710891800001,14.631722397000033],[121.27400139400004,14.63107795600007],[121.27267963700001,14.634490971000048],[121.27462352900011,14.632988872000055],[121.27606672200011,14.633813554000028],[121.27766457000007,14.632004395000024],[121.28019012900006,14.63325394900005],[121.28396010100005,14.627304461000051],[121.28206984400003,14.62492540900007],[121.2833710430001,14.623622848000025],[121.28499095300003,14.625802363000048],[121.28527628000006,14.623482095000043],[121.28778897900008,14.623622848000025],[121.2866403160001,14.622857072000045],[121.28786041,14.620618142000069],[121.29016836300002,14.621148652000045],[121.29007581400003,14.618971791000035],[121.29152273300008,14.619467151000038],[121.29247541200004,14.622815479000053],[121.29501135600003,14.621179313000027],[121.29854444800003,14.622502476000022],[121.30050497200011,14.61772897800006],[121.30292235600007,14.616526867000061],[121.30598436000002,14.608537793000039],[121.30781846400009,14.608130514000038],[121.31043046100001,14.611373873000048],[121.31333824700005,14.612191565000046],[121.31819942800007,14.609404394000023],[121.31743790500002,14.606335387000058],[121.319543726,14.606678629000044],[121.32057685500001,14.612117026000021],[121.31816811700003,14.614221367000027],[121.31328729900008,14.62738108700006],[121.31353327000011,14.647205385000063],[121.323110928,14.656593422000071],[121.32744675000004,14.666455564000046],[121.32559717700008,14.682926034000047],[121.32178092700008,14.689289100000053],[121.32470001700005,14.69163952100007],[121.32520302800003,14.694785753000076],[121.32253502300011,14.701866170000073],[121.31957693600009,14.705294732000027],[121.32281119000004,14.718729366000048],[121.31836353100005,14.744547992000037],[121.31189829200002,14.751570727000058],[121.30926809400012,14.760710379000045],[121.24447308800006,14.767508446000022],[121.23780436700008,14.766400760000067],[121.23734915200009,14.76477612900004],[121.24120964700012,14.762265526000022],[121.24163103900003,14.759268537000025],[121.24811504000002,14.762081501000068],[121.24553231400012,14.759531433000063],[121.24842768500002,14.758098649000033],[121.24711593300003,14.752498871000057],[121.25081330800003,14.753116694000028],[121.25103080100007,14.752117661000057],[121.2488082970001,14.747135569000022],[121.24671493000005,14.746918668000035],[121.24873353400005,14.744177809000064],[121.24634111500006,14.743126152000059],[121.25199592400008,14.740391818000035],[121.25121828500005,14.739155210000035],[121.24846846500009,14.73934014200006],[121.25030356000002,14.735593505000054],[121.24712272900001,14.73540945800005],[121.24583136700005,14.730558449000057],[121.24183493900011,14.729270087000032],[121.24106012100003,14.727705638000032],[121.24137276700003,14.724642439000036],[121.24005421800007,14.723827332000042],[121.24095359000012,14.711448010000026],[121.23921340000004,14.706410900000037],[121.23715984300009,14.704436954000073],[121.23160005000011,14.703460207000035],[121.23039327000004,14.700734327000077],[121.22758091100002,14.69937720400003],[121.22573866400012,14.694924058000026],[121.22132735100001,14.692606371000068],[121.22093898700007,14.690257700000075],[121.21591587900002,14.688906407000047],[121.21476556300001,14.679074465000042],[121.21815139800003,14.67831482300005],[121.21849449600006,14.676616334000073],[121.21154808000006,14.663379151000072],[121.1993636310001,14.662375440000062],[121.19667164900011,14.665782858000057],[121.1924275340001,14.66572222800005],[121.19039035800006,14.667432],[121.18499884100004,14.666018465000036],[121.17826673600007,14.661098319000075],[121.17310353800008,14.660303981000027],[121.16639264100002,14.655966642000067],[121.1660648190001,14.654201446000059],[121.16271094800004,14.656496204000064],[121.15665678800008,14.653620629000045],[121.15091218300006,14.647436182000035],[121.14835720200006,14.647842190000063],[121.14496970000005,14.64608282200004],[121.14285933200006,14.642103897000027],[121.13937441300004,14.642625728000041],[121.13739599500002,14.64832502300004],[121.13459172400007,14.64688658600005],[121.13265868300005,14.647458331000053],[121.13664727600008,14.65100678300007],[121.13337563200002,14.653693069000042],[121.1313330050001,14.653465219000054],[121.12847756300005,14.643444360000046],[121.13001300700012,14.634344953000038],[121.12376552,14.637800583000057],[121.11906319400009,14.63547817600005],[121.11540192100006,14.638314939000054],[121.11167269900011,14.636065219000045],[121.10679355400009,14.618230715000038],[121.11160890400004,14.618484290000026],[121.11145055400004,14.616330492000031],[121.11335340800008,14.61622840900003],[121.11394387000007,14.614285636000034],[121.11828943400008,14.615542052000023],[121.12306193000006,14.614950387000022],[121.12481833900006,14.614126064000061],[121.12375414500002,14.610737156000027],[121.12682154100003,14.610031475000028],[121.12857066200002,14.615150409000023],[121.13164159500002,14.61547710800005],[121.13345441000001,14.612334363000059],[121.1310519000001,14.609295678000024],[121.13034555600007,14.604955278000034],[121.12858004600002,14.607337833000031],[121.12571713300008,14.605773456000065],[121.12550430600004,14.601387931000033],[121.12779533500009,14.600811399000065],[121.1284994130001,14.598539510000023],[121.12555227500002,14.597693540000023],[121.12570627600007,14.595987473000037],[121.13229227900001,14.596239738000065],[121.13317285900007,14.599399911000035],[121.1363871320001,14.600013673000035],[121.13697013900003,14.59523830300003],[121.14196032000007,14.597918820000075],[121.14689030000011,14.596283300000039],[121.14843510000003,14.592427500000042],[121.15025480000008,14.593548800000065],[121.15007450000007,14.591704900000025],[121.15322450000008,14.589088400000037],[121.15604565500007,14.589469998000027],[121.15611059300011,14.586661766000077],[121.15848970800005,14.586862538000048],[121.15764642200008,14.582167282000057],[121.15975310400006,14.581131210000024],[121.1587424820001,14.576801256000067],[121.1605611980001,14.576626055000077],[121.16076582700009,14.573187021000024],[121.1663759270001,14.564610182000024],[121.16248504500004,14.56262042700007],[121.16206294900007,14.55928603500007],[121.1594079790001,14.559215497000025],[121.16027291600005,14.55132218700004],[121.16339050700003,14.55082378700007],[121.17829643900006,14.556904744000065],[121.1956145580001,14.561239108000052]]]}},{"type":"Feature","properties":{"shapeName":"Baras","shapeISO":"","shapeID":"30758251B49056939189974","shapeGroup":"PHL","shapeType":"ADM3","psgc_code":"0405803000","legacy_psgc_code":"045803000","province":"Rizal"},"geometry":{"type":"Polygon","coordinates":[[[121.30598436000002,14.608537793000039],[121.30292235600007,14.616526867000061],[121.30050497200011,14.61772897800006],[121.29854444800003,14.622502476000022],[121.29501135600003,14.621179313000027],[121.29247541200004,14.622815479000053],[121.29152273300008,14.619467151000038],[121.29007581400003,14.618971791000035],[121.29016836300002,14.621148652000045],[121.28786041,14.620618142000069],[121.2866403160001,14.622857072000045],[121.28778897900008,14.623622848000025],[121.28527628000006,14.623482095000043],[121.28499095300003,14.625802363000048],[121.2833710430001,14.623622848000025],[121.28206984400003,14.62492540900007],[121.28396010100005,14.627304461000051],[121.28019012900006,14.63325394900005],[121.27766457000007,14.632004395000024],[121.27606672200011,14.633813554000028],[121.27462352900011,14.632988872000055],[121.27267963700001,14.634490971000048],[121.27400139400004,14.63107795600007],[121.2710891800001,14.631722397000033],[121.27014668700008,14.629955223000024],[121.268114437,14.629807958000072],[121.2665239800001,14.630662093000069],[121.26708358500002,14.628688748000059],[121.26446227600002,14.628806560000044],[121.263554311,14.626283123000064],[121.26222385500012,14.627981878000071],[121.25858449200007,14.623731932000055],[121.24864933100002,14.627827268000033],[121.24292511200008,14.62617560600006],[121.24565007000001,14.62023548600007],[121.25023492000003,14.617034741000055],[121.26788226800011,14.591255772000068],[121.2576238470001,14.589898967000067],[121.25317471100004,14.584697371000061],[121.25853174100007,14.574570096000059],[121.2620784400001,14.571680182000023],[121.26198946400007,14.547969845000068],[121.26085262300012,14.545431588000042],[121.26198119600008,14.543749063000064],[121.25610818000007,14.527993348000052],[121.25502992000008,14.51653235200007],[121.26073972400002,14.504787419000024],[121.26486437400001,14.503615946000025],[121.26911357600011,14.505712299000038],[121.27125233000004,14.505050396000058],[121.27191817900007,14.507543309000027],[121.2761547020001,14.511492848000046],[121.28064757000004,14.513539642000069],[121.27993372200001,14.515534209000066],[121.28118151000001,14.515754622000031],[121.27844510200009,14.518595826000023],[121.28872223100007,14.525629152000022],[121.29192365200004,14.542004225000028],[121.29105154600006,14.543200372000058],[121.28928415500002,14.542227043000025],[121.28793981900003,14.545784677000029],[121.29165289100001,14.554297775000066],[121.29762432600012,14.553125392000027],[121.29353672600007,14.567621662000022],[121.29739830200003,14.569684764000044],[121.29697025400003,14.572183057000075],[121.3062686080001,14.57295173600005],[121.30544393900004,14.57798590300007],[121.31152364000002,14.585418342000025],[121.30876119900006,14.591546515000061],[121.30047387800005,14.589292109000041],[121.29454126600001,14.594950401000062],[121.3010463380001,14.601418547000037],[121.30307035600003,14.601465611000037],[121.30301169000006,14.604750108000076],[121.30598436000002,14.608537793000039]]]}},{"type":"Feature","properties":{"shapeName":"Binangonan","shapeISO":"","shapeID":"30758251B30954744476099","shapeGroup":"PHL","shapeType":"ADM3","psgc_code":"0405804000","legacy_psgc_code":"045804000","province":"Rizal"},"geometry":{"type":"MultiPolygon","coordinates":[[[[121.24942067900008,14.300682091000056],[121.24661657700005,14.303363596000054],[121.24446556800001,14.302462942000034],[121.24540532800006,14.298285111000041],[121.24781337200011,14.297657215000072],[121.25098919900006,14.300801243000024],[121.24942067900008,14.300682091000056]]],[[[121.25824175800005,14.30980814700007],[121.25966313100002,14.311869996000041],[121.25797036000006,14.311688331000028],[121.25824175800005,14.30980814700007]]],[[[121.22501106400011,14.401833348000025],[121.22200035000003,14.401839376000055],[121.22172482700012,14.399821959000064],[121.22003491200007,14.399207936000039],[121.222105413,14.394565107000062],[121.22190384900011,14.391768540000044],[121.22016512700009,14.391332563000049],[121.21984659700001,14.389612168000042],[121.22161291000009,14.387913027000025],[121.22023118200002,14.38299416500007],[121.22136963500009,14.367613412000026],[121.21958109800005,14.356360282000026],[121.21724102200005,14.354010171000027],[121.21660880700006,14.349968115000024],[121.21454997100011,14.350626598000076],[121.21404979700003,14.349598640000067],[121.21681165100006,14.345747326000037],[121.21833449500002,14.340010077000045],[121.21801793600002,14.338045212000054],[121.21502813200004,14.33646331600005],[121.218313093,14.333283274000053],[121.22147198500011,14.333188035000035],[121.22088328600012,14.329635280000048],[121.22605139900008,14.323951671000032],[121.22434207000003,14.319842100000074],[121.224914538,14.313397232000057],[121.22628229100008,14.31094936900007],[121.23129043900008,14.308310560000052],[121.23135805100003,14.297936879000076],[121.23339965700006,14.297681135000062],[121.23550980100003,14.293851075000077],[121.23704668500011,14.287056452000058],[121.23781350900003,14.291258077000066],[121.24051876700003,14.294529134000072],[121.23750234800002,14.299885537000023],[121.24106925600006,14.303030827000043],[121.24178457900007,14.307767297000055],[121.24407262300008,14.308074956000041],[121.24533996100001,14.310674575000064],[121.24411700900009,14.314570748000051],[121.24243183500005,14.315529783000045],[121.23189869100008,14.318173969000043],[121.22857973900011,14.325720500000045],[121.22982301600007,14.331169823000039],[121.22855744600008,14.339904707000073],[121.23002949500005,14.349475589000065],[121.23025809800004,14.370393485000022],[121.22762918,14.395675709000045],[121.22501106400011,14.401833348000025]]],[[[121.15166974400006,14.517946848000065],[121.15919057100007,14.514577183000029],[121.15833257100007,14.510667281000053],[121.16024335400004,14.512876985000048],[121.16345446800005,14.511180543000023],[121.1674818680001,14.503721072000076],[121.16779270000006,14.498729519000051],[121.17033972100012,14.499025365000023],[121.17505840800004,14.496039406000023],[121.17846728000006,14.491558123000061],[121.1786007280001,14.488431331000072],[121.18476833500006,14.483051347000071],[121.18761948500003,14.472454453000068],[121.1852038610001,14.467638925000074],[121.18271056600008,14.467409403000033],[121.18277646700005,14.46428207300005],[121.1914604110001,14.463078143000075],[121.19406377500002,14.458790419000024],[121.1926191020001,14.45621353200005],[121.19485783500011,14.455187125000066],[121.19604652700002,14.452567661000046],[121.19441750900012,14.450883874000056],[121.20300597200003,14.448250361000078],[121.20331669500001,14.444651176000036],[121.19997263300002,14.442970036000077],[121.20045430300001,14.441145477000077],[121.20386825900005,14.439131425000028],[121.2059434900001,14.440394831000049],[121.21322908600007,14.431458015000032],[121.21266610400005,14.429673021000042],[121.20595079500004,14.429963955000062],[121.20782861300006,14.42739253600007],[121.20609341000011,14.425176605000047],[121.20811939000009,14.42181432500007],[121.21439141100007,14.417907651000064],[121.21410259400011,14.415235733000031],[121.21682039600012,14.413864743000033],[121.21514977800007,14.41272503500005],[121.21588996600008,14.411446136000052],[121.21803014700004,14.412028988000031],[121.21758986000009,14.416261389000056],[121.2156118800001,14.423121217000073],[121.21744170700003,14.432224434000034],[121.21293190800009,14.437442009000051],[121.21759213400003,14.45583577800005],[121.217491074,14.46928898300007],[121.21986129100003,14.481038],[121.2195846950001,14.483581146000063],[121.21578668500001,14.488301943000067],[121.22012852500006,14.493712765000055],[121.21106949400007,14.499956608000048],[121.20726284800003,14.49802124200005],[121.20389106900006,14.500137128000063],[121.20598924700005,14.501584277000063],[121.2093731440001,14.510846667000067],[121.21007697300001,14.509812422000039],[121.21162057000004,14.510747477000052],[121.20994606200009,14.515205270000024],[121.20748047900008,14.515663766000046],[121.20745708700008,14.51868141400007],[121.20464061500002,14.519116517000043],[121.20246978000011,14.522915479000062],[121.20260077800003,14.524038325000049],[121.20447686700004,14.523790363000046],[121.20348969800011,14.52677058300003],[121.20606288600004,14.525862949000043],[121.2070453770001,14.52859520800007],[121.20898228600004,14.529437342000051],[121.20670384400012,14.530672473000038],[121.21061976900012,14.534274936000031],[121.20835536400011,14.533283089000065],[121.20766762000005,14.535486674000026],[121.20867935100011,14.53670226500003],[121.20580853600006,14.538279657000032],[121.19275196900003,14.541406298000027],[121.19382927100003,14.534495036000067],[121.19058163200009,14.53483129500006],[121.18659879800009,14.525826168000037],[121.182160597,14.529158987000073],[121.17798378100008,14.529199082000048],[121.17511081000009,14.531065753000064],[121.17006150700001,14.529463273000033],[121.16923158400004,14.531948245000024],[121.16459744800011,14.531972231000054],[121.15247876100011,14.520692264000047],[121.15166974400006,14.517946848000065]]]]}},{"type":"Feature","properties":{"shapeName":"Cainta","shapeISO":"","shapeID":"30758251B76506512725367","shapeGroup":"PHL","shapeType":"ADM3","psgc_code":"0405805000","legacy_psgc_code":"045805000","province":"Rizal"},"geometry":{"type":"Polygon","coordinates":[[[121.11167269900011,14.636065219000045],[121.10853608200011,14.636495850000074],[121.10589044400001,14.633347035000043],[121.1038366250001,14.62670819300007],[121.10495984200008,14.621358134000047],[121.10187866500007,14.620657343000062],[121.10219146300005,14.614759528000036],[121.11044978200005,14.592235448000054],[121.1067742680001,14.59166205400004],[121.10369517200002,14.593668617000048],[121.10345673100005,14.588897737000025],[121.10864271800006,14.587715427000035],[121.10905753300005,14.580946777000065],[121.108022032,14.578993337000043],[121.1009745340001,14.574820267000064],[121.10176341700003,14.57373194400003],[121.0968965510001,14.569254547000071],[121.09589522800002,14.563931524000054],[121.09808476800004,14.562368499000058],[121.09637116600004,14.559984404000033],[121.09818071600012,14.558598497000048],[121.09912240200003,14.553317539000034],[121.1010147510001,14.553572467000038],[121.10868212700007,14.547775977000072],[121.1125858470001,14.55081769800006],[121.11378929200009,14.553919131000043],[121.118353683,14.555058205000023],[121.11684299300009,14.557397682000044],[121.11915284600002,14.560371731000032],[121.11758466700007,14.561005936000072],[121.11921922500005,14.563479566000069],[121.12033106100012,14.563095262000047],[121.12148057400009,14.567179033000059],[121.12314976400012,14.567243856000061],[121.12543748900009,14.574538854000025],[121.13008348500011,14.577525352000066],[121.13215616200011,14.583534221000036],[121.13643418800007,14.58256532200005],[121.13687175200005,14.585373337000021],[121.13914298400005,14.582771704000038],[121.141341613,14.58768364100007],[121.14073937,14.589857980000033],[121.14632671800007,14.589795948000074],[121.15007450000007,14.591704900000025],[121.15025480000008,14.593548800000065],[121.14843510000003,14.592427500000042],[121.14689030000011,14.596283300000039],[121.14196032000007,14.597918820000075],[121.13697013900003,14.59523830300003],[121.1363871320001,14.600013673000035],[121.13317285900007,14.599399911000035],[121.13229227900001,14.596239738000065],[121.12570627600007,14.595987473000037],[121.12555227500002,14.597693540000023],[121.1284994130001,14.598539510000023],[121.12779533500009,14.600811399000065],[121.12550430600004,14.601387931000033],[121.12571713300008,14.605773456000065],[121.12858004600002,14.607337833000031],[121.13034555600007,14.604955278000034],[121.1310519000001,14.609295678000024],[121.13345441000001,14.612334363000059],[121.13164159500002,14.61547710800005],[121.12857066200002,14.615150409000023],[121.12682154100003,14.610031475000028],[121.12375414500002,14.610737156000027],[121.12481833900006,14.614126064000061],[121.12306193000006,14.614950387000022],[121.11828943400008,14.615542052000023],[121.11394387000007,14.614285636000034],[121.11335340800008,14.61622840900003],[121.11145055400004,14.616330492000031],[121.11160890400004,14.618484290000026],[121.10679355400009,14.618230715000038],[121.11167269900011,14.636065219000045]]]}},{"type":"Feature","properties":{"shapeName":"Cardona","shapeISO":"","shapeID":"30758251B57572048623065","shapeGroup":"PHL","shapeType":"ADM3","psgc_code":"0405806000","legacy_psgc_code":"045806000","province":"Rizal"},"geometry":{"type":"MultiPolygon","coordinates":[[[[121.24243183500005,14.315529783000045],[121.24050325900009,14.321759708000059],[121.24211410200007,14.329852956000025],[121.24718137700006,14.333443868000074],[121.25572564300012,14.333573738000041],[121.25972343500007,14.331190814000024],[121.26628327600008,14.336757668000075],[121.25991035700008,14.338564986000051],[121.25881753400006,14.344524626000066],[121.25651999800004,14.346449710000059],[121.2542699490001,14.345993729000043],[121.25112759100011,14.348110982000037],[121.24903305900011,14.346352008000054],[121.24609860700002,14.347903728000063],[121.244319216,14.346756567000057],[121.24060655900007,14.349280514000043],[121.23800580500006,14.36763174400005],[121.23592879800003,14.37290347000004],[121.23531781300005,14.397010182000031],[121.23031625300007,14.402415870000027],[121.23100536600009,14.409083144000022],[121.22788802700006,14.413411397000061],[121.22835245800002,14.417213698000069],[121.22483352200004,14.422644497000022],[121.22342610900012,14.417834085000038],[121.22578858000008,14.415724183000066],[121.22310055700007,14.411005902000056],[121.22456490000002,14.405869531000064],[121.2265447850001,14.40411354300005],[121.22501106400011,14.401833348000025],[121.22762918,14.395675709000045],[121.23025809800004,14.370393485000022],[121.23002949500005,14.349475589000065],[121.22855744600008,14.339904707000073],[121.22982301600007,14.331169823000039],[121.22857973900011,14.325720500000045],[121.23189869100008,14.318173969000043],[121.24243183500005,14.315529783000045]]],[[[121.24550655100006,14.486876191000022],[121.24636789500005,14.487389036000025],[121.24389410100002,14.486483030000045],[121.24550655100006,14.486876191000022]]],[[[121.21758986000009,14.416261389000056],[121.22079917200006,14.418850157000065],[121.22235781600011,14.423527655000044],[121.22237956100003,14.426487203000022],[121.2202402690001,14.429839725000022],[121.22249660200009,14.432092021000074],[121.22112830200001,14.434354757000051],[121.22271051300004,14.447463521000032],[121.22042998000006,14.455543656000032],[121.22014244400009,14.472982883000043],[121.2233153730001,14.476224406000028],[121.22139882400006,14.476694749000046],[121.22255306700004,14.478630217000045],[121.22883112700003,14.475781184000027],[121.2302028040001,14.469860152000024],[121.23508200200001,14.47308287900006],[121.23728966600004,14.47993122500003],[121.23555182500002,14.482317182000031],[121.23225421300003,14.482544266000048],[121.23181801700002,14.484581071000036],[121.2329093840001,14.485495984000067],[121.23567037100008,14.482853280000029],[121.23388233600008,14.485043650000023],[121.23416010400001,14.487507694000044],[121.23846929700005,14.492583598000067],[121.23785570600012,14.49499058300006],[121.23955914600003,14.498433514000055],[121.21160813100005,14.506160492000049],[121.209742903,14.507548502000077],[121.21007697300001,14.509812422000039],[121.2093731440001,14.510846667000067],[121.20598924700005,14.501584277000063],[121.20389106900006,14.500137128000063],[121.20726284800003,14.49802124200005],[121.21106949400007,14.499956608000048],[121.22012852500006,14.493712765000055],[121.21578668500001,14.488301943000067],[121.2195846950001,14.483581146000063],[121.21986129100003,14.481038],[121.217491074,14.46928898300007],[121.21759213400003,14.45583577800005],[121.21293190800009,14.437442009000051],[121.21744170700003,14.432224434000034],[121.2156118800001,14.423121217000073],[121.21758986000009,14.416261389000056]]]]}},{"type":"Feature","properties":{"shapeName":"Jala-Jala","shapeISO":"","shapeID":"30758251B16311826266125","shapeGroup":"PHL","shapeType":"ADM3","psgc_code":"0405807000","legacy_psgc_code":"045807000","province":"Rizal"},"geometry":{"type":"MultiPolygon","coordinates":[[[[121.31166998300012,14.284807145000059],[121.31063435600004,14.283308872000077],[121.31303878100005,14.284320348000051],[121.31166998300012,14.284807145000059]]],[[[121.3081831500001,14.278380759000072],[121.30985621200011,14.280465033000041],[121.30901600900006,14.28541800100004],[121.30682558300009,14.282318518000068],[121.3081831500001,14.278380759000072]]],[[[121.380494558,14.33794374300004],[121.37992514500002,14.344324137000058],[121.365349949,14.355935850000037],[121.36393249500009,14.363358943000037],[121.36919831600005,14.375142206000078],[121.33271178900009,14.383751965000044],[121.32747346100007,14.376024968000024],[121.32469067300008,14.36601207800004],[121.32241054200006,14.365085797000063],[121.32325101100002,14.36328979600006],[121.32035597100003,14.359964687000058],[121.31963030000009,14.351414015000046],[121.32145064000008,14.348439948000077],[121.3201091730001,14.340966083000069],[121.31357567400005,14.33580095900004],[121.30890176900004,14.329146302000026],[121.30495041400002,14.327248981000025],[121.30637157100011,14.321529552000072],[121.30289076300005,14.300376148000055],[121.30372590800005,14.29592916200005],[121.30865646400002,14.288267806000022],[121.31206631000009,14.28626405500006],[121.31475987200008,14.287077226000065],[121.31753010700004,14.289375236000069],[121.31806298700008,14.291840663000073],[121.32442450700012,14.294713718000025],[121.32876339600011,14.301762749000034],[121.33175801300001,14.303408606000062],[121.33152001500002,14.307646141000077],[121.33459460300003,14.312053516000049],[121.34225459100003,14.314800883000032],[121.34851301100002,14.319914450000056],[121.34902335700008,14.322086482000032],[121.35240283100006,14.324278443000026],[121.35203286400008,14.32775766900005],[121.35691774000009,14.329715687000032],[121.35853080800007,14.332750520000047],[121.36283915700005,14.335614598000063],[121.36711149400003,14.33568069200004],[121.36848646400006,14.337876978000054],[121.37089324200008,14.337746915000025],[121.37374705600007,14.33991667600003],[121.380494558,14.33794374300004]]]]}},{"type":"Feature","properties":{"shapeName":"Rodriguez","shapeISO":"","shapeID":"30758251B28604379202623","shapeGroup":"PHL","shapeType":"ADM3","psgc_code":"0405808000","legacy_psgc_code":"045808000","province":"Rizal"},"geometry":{"type":"Polygon","coordinates":[[[121.09972917900006,14.765222305000066],[121.101977884,14.765484873000048],[121.10491462400012,14.762656063000065],[121.10968224500004,14.763837527000021],[121.114652653,14.772163486000068],[121.12119922200009,14.77602956000004],[121.12456953800006,14.77452061200006],[121.12883497500002,14.777562997000075],[121.1349717920001,14.776730445000055],[121.13324004300011,14.773120168000048],[121.12998075000007,14.772627813000042],[121.1246519010001,14.76615047100006],[121.12611431000005,14.762754468000026],[121.12540235000006,14.760866090000036],[121.12144179900008,14.757590123000057],[121.12082632300007,14.752152299000045],[121.1182150520001,14.749510186000066],[121.117664321,14.74059438100005],[121.1224444820001,14.737935082000035],[121.12182039100003,14.734938620000037],[121.11861342300006,14.732800538000049],[121.11805757700006,14.729549361000068],[121.1215473420001,14.725103087000036],[121.12379669500001,14.728356507000058],[121.12666645200011,14.726618124000026],[121.12949386600008,14.729312865000054],[121.13150281800006,14.72453338300005],[121.13098795500002,14.722917543000051],[121.12581527000009,14.721399373000054],[121.12562594200006,14.717823816000077],[121.13036456800012,14.71284324900006],[121.13601815600009,14.709874032000073],[121.14152225600003,14.711101074000055],[121.14549794400011,14.708270579000043],[121.14595023400011,14.710743709000042],[121.14788731600004,14.711566055000048],[121.15247852000005,14.710595795000074],[121.15463970600001,14.712401343000067],[121.16128740700003,14.71149856900007],[121.16140595400009,14.70865346200003],[121.16342123700008,14.708306943000025],[121.16474348300005,14.705452717000071],[121.172151299,14.704206837000072],[121.18044064900005,14.70537588600007],[121.19200439500003,14.702688181000042],[121.19915062100006,14.704871729000047],[121.19933473900005,14.702570255000069],[121.20508555000004,14.698629829000026],[121.21120609600007,14.703404724000052],[121.21352843200009,14.700344450000046],[121.2135935440001,14.69294336400003],[121.21591587900002,14.688906407000047],[121.22093898700007,14.690257700000075],[121.22132735100001,14.692606371000068],[121.22573866400012,14.694924058000026],[121.22758091100002,14.69937720400003],[121.23039327000004,14.700734327000077],[121.23160005000011,14.703460207000035],[121.23715984300009,14.704436954000073],[121.23921340000004,14.706410900000037],[121.24095359000012,14.711448010000026],[121.24005421800007,14.723827332000042],[121.24137276700003,14.724642439000036],[121.24106012100003,14.727705638000032],[121.24183493900011,14.729270087000032],[121.24583136700005,14.730558449000057],[121.24712272900001,14.73540945800005],[121.25030356000002,14.735593505000054],[121.24846846500009,14.73934014200006],[121.25121828500005,14.739155210000035],[121.25199592400008,14.740391818000035],[121.24634111500006,14.743126152000059],[121.24873353400005,14.744177809000064],[121.24671493000005,14.746918668000035],[121.2488082970001,14.747135569000022],[121.25103080100007,14.752117661000057],[121.25081330800003,14.753116694000028],[121.24711593300003,14.752498871000057],[121.24842768500002,14.758098649000033],[121.24553231400012,14.759531433000063],[121.24811504000002,14.762081501000068],[121.24163103900003,14.759268537000025],[121.24120964700012,14.762265526000022],[121.23734915200009,14.76477612900004],[121.23780436700008,14.766400760000067],[121.24447308800006,14.767508446000022],[121.30926809400012,14.760710379000045],[121.31563659900007,14.764566463000051],[121.32600295700001,14.763605521000045],[121.3315946990001,14.768180849000032],[121.33437876000005,14.768529387000058],[121.33356343800006,14.77658083700004],[121.32918079400008,14.784632316000057],[121.32897826900012,14.788200564000022],[121.33550040000011,14.800851961000035],[121.33499960100005,14.814183425000067],[121.33198919000006,14.819628624000075],[121.33035662500004,14.834802543000023],[121.25299686000005,14.829226647000041],[121.243216544,14.831573923000064],[121.2377431760001,14.831039075000035],[121.23395005600003,14.832401462000064],[121.23048364800002,14.831287376000034],[121.22169554600009,14.834210990000031],[121.21925184400004,14.833223191000059],[121.22241714300003,14.822577249000062],[121.22106455700009,14.81971199000003],[121.21232502700002,14.820175920000054],[121.2083554830001,14.817918344000077],[121.20648669400009,14.819685853000067],[121.20335026400005,14.81783013200004],[121.19724729500001,14.818441083000039],[121.19665268000006,14.821126651000043],[121.19251978000011,14.82091428800004],[121.1879882930001,14.823554116000025],[121.16528463600002,14.823417534000043],[121.16288360300007,14.812275578000026],[121.15052962900006,14.801784266000027],[121.1478186490001,14.801415686000041],[121.14318830000002,14.804041920000031],[121.13733236200005,14.803775250000058],[121.13677212800008,14.801354218000029],[121.13474480700006,14.801414775000069],[121.13396922400011,14.799766689000023],[121.13176909800006,14.799349451000069],[121.13057186600008,14.796333056000037],[121.12938129300005,14.79676678900006],[121.13017973900003,14.793413317000045],[121.12740269300002,14.794361651000031],[121.12760864000006,14.791336192000074],[121.12600723800006,14.793599825000058],[121.12486077900007,14.792960556000025],[121.1274102540001,14.789241960000027],[121.12696550500004,14.787478795000027],[121.12567462900006,14.787059251000073],[121.12483687300005,14.788446461000035],[121.12126503600007,14.784510515000022],[121.11953751700003,14.787033618000066],[121.11768507900001,14.787190742000064],[121.11641747500005,14.78091194500007],[121.10978724400002,14.776487298000063],[121.10879204500009,14.77503162100004],[121.11009679600011,14.774030258000039],[121.10651916200004,14.771458256000074],[121.10657054500007,14.770127148000029],[121.09950653900012,14.76920958900007],[121.09972917900006,14.765222305000066]]]}},{"type":"Feature","properties":{"shapeName":"Morong","shapeISO":"","shapeID":"30758251B549341994031","shapeGroup":"PHL","shapeType":"ADM3","psgc_code":"0405809000","legacy_psgc_code":"045809000","province":"Rizal"},"geometry":{"type":"Polygon","coordinates":[[[121.2576238470001,14.589898967000067],[121.25518820000002,14.589344800000049],[121.25340530000005,14.585953600000039],[121.25118844300005,14.585690880000072],[121.2253284950001,14.542226268000036],[121.21847265500003,14.536209864000057],[121.20766762000005,14.535486674000026],[121.20835536400011,14.533283089000065],[121.21061976900012,14.534274936000031],[121.20670384400012,14.530672473000038],[121.20898228600004,14.529437342000051],[121.2070453770001,14.52859520800007],[121.20606288600004,14.525862949000043],[121.20348969800011,14.52677058300003],[121.20447686700004,14.523790363000046],[121.20260077800003,14.524038325000049],[121.20246978000011,14.522915479000062],[121.20464061500002,14.519116517000043],[121.20745708700008,14.51868141400007],[121.20748047900008,14.515663766000046],[121.20994606200009,14.515205270000024],[121.21162057000004,14.510747477000052],[121.21007697300001,14.509812422000039],[121.209742903,14.507548502000077],[121.21160813100005,14.506160492000049],[121.23955914600003,14.498433514000055],[121.23987807300011,14.500779709000028],[121.24203842400004,14.502582748000066],[121.24889710500008,14.49784184400005],[121.25222286400003,14.501344188000076],[121.25606644200002,14.495071020000069],[121.25764895300006,14.498554178000063],[121.25726909900004,14.502629930000069],[121.26073972400002,14.504787419000024],[121.25502992000008,14.51653235200007],[121.25610818000007,14.527993348000052],[121.26198119600008,14.543749063000064],[121.26085262300012,14.545431588000042],[121.26198946400007,14.547969845000068],[121.2620784400001,14.571680182000023],[121.25853174100007,14.574570096000059],[121.25317471100004,14.584697371000061],[121.2576238470001,14.589898967000067]]]}},{"type":"Feature","properties":{"shapeName":"Pililla","shapeISO":"","shapeID":"30758251B3557386785722","shapeGroup":"PHL","shapeType":"ADM3","psgc_code":"0405810000","legacy_psgc_code":"045810000","province":"Rizal"},"geometry":{"type":"Polygon","coordinates":[[[121.36919831600005,14.375142206000078],[121.36679820900008,14.391378643000053],[121.3666336340001,14.407342356000072],[121.36334214700003,14.431370212000047],[121.36243190200003,14.45419388700003],[121.37543300100003,14.451434985000049],[121.37619811400009,14.46422466200005],[121.3617534770001,14.477181419000033],[121.36225810000008,14.486432838000042],[121.37051031100009,14.504429723000044],[121.35985237500006,14.50929196900006],[121.35610415400004,14.515893338000069],[121.35326558100007,14.516925599000047],[121.35244713800012,14.515803152000046],[121.34689990900006,14.515803152000046],[121.34237573400003,14.512611849000052],[121.34296683200012,14.509156387000075],[121.34117080300007,14.50871619700007],[121.34046603200011,14.505260674000056],[121.3387154720001,14.504490327000042],[121.34010228000011,14.502025199000059],[121.33841992300006,14.501695046000066],[121.33532802500008,14.504116157000055],[121.33335012000009,14.500550511000029],[121.33012181400011,14.500308397000026],[121.32778015600002,14.505084595000028],[121.32655249100003,14.504776456000059],[121.32541576400001,14.507153515000027],[121.32298316700007,14.506911408000065],[121.32268761800003,14.50867217800004],[121.31786789400007,14.505062585000076],[121.31679937100012,14.502553443000068],[121.3180270360001,14.500660562000064],[121.31257074500002,14.498459518000061],[121.31050190200006,14.494981824000035],[121.30675070200004,14.495356009000034],[121.30485427200006,14.493092391000062],[121.30071710800007,14.496864990000063],[121.29605705100005,14.496121197000036],[121.29188955600011,14.48887725000003],[121.29310758400004,14.483611361000044],[121.30017682300002,14.484390400000052],[121.30245100200011,14.483259556000064],[121.30600079800001,14.474106903000063],[121.30512603400007,14.471537367000053],[121.3021493760001,14.470005553000021],[121.308243392,14.467290166000055],[121.31344520700009,14.469537836000029],[121.32015789000002,14.465992352000058],[121.3255611290001,14.459975217000022],[121.32677859400007,14.455461447000062],[121.32592279500011,14.453754269000058],[121.33006855300005,14.451642811000056],[121.3257462790001,14.453445987000066],[121.32519509500003,14.447476062000021],[121.33013596,14.44141316100007],[121.33037942300007,14.439369474000046],[121.32775064700002,14.438210447000074],[121.32810087300004,14.437116401000026],[121.33020541400003,14.436148827000068],[121.33173471900011,14.431440182000074],[121.33623956200006,14.42965614800005],[121.33917394200012,14.417509664000022],[121.33720492400005,14.405083008000076],[121.33324455600007,14.397853051000027],[121.33479385600003,14.396460407000063],[121.33073621500012,14.396291425000072],[121.33069937000005,14.395194631000038],[121.333944631,14.39447188400004],[121.33180946200002,14.394376333000025],[121.33271178900009,14.383751965000044],[121.36919831600005,14.375142206000078]]]}},{"type":"Feature","properties":{"shapeName":"San Mateo","shapeISO":"","shapeID":"30758251B86089983795598","shapeGroup":"PHL","shapeType":"ADM3","psgc_code":"0405811000","legacy_psgc_code":"045811000","province":"Rizal"},"geometry":{"type":"Polygon","coordinates":[[[121.21591587900002,14.688906407000047],[121.2135935440001,14.69294336400003],[121.21352843200009,14.700344450000046],[121.21120609600007,14.703404724000052],[121.20508555000004,14.698629829000026],[121.19933473900005,14.702570255000069],[121.19915062100006,14.704871729000047],[121.19200439500003,14.702688181000042],[121.18044064900005,14.70537588600007],[121.172151299,14.704206837000072],[121.16474348300005,14.705452717000071],[121.16342123700008,14.708306943000025],[121.16140595400009,14.70865346200003],[121.16128740700003,14.71149856900007],[121.15463970600001,14.712401343000067],[121.15247852000005,14.710595795000074],[121.14788731600004,14.711566055000048],[121.14595023400011,14.710743709000042],[121.14549794400011,14.708270579000043],[121.14152225600003,14.711101074000055],[121.13601815600009,14.709874032000073],[121.13036456800012,14.71284324900006],[121.12562594200006,14.717823816000077],[121.12375939200001,14.707338821000064],[121.1197718630001,14.711820449000072],[121.11791254900004,14.712185830000067],[121.11599242800003,14.709234545000072],[121.11640583700012,14.705626875000064],[121.12043776900009,14.701429566000058],[121.12010187400006,14.698593123000023],[121.111611863,14.695953082000074],[121.11216870100009,14.684747919000074],[121.10670234300005,14.675499389000038],[121.11057805500002,14.672975989000065],[121.11043327400012,14.669902617000048],[121.11184086800006,14.670579537000037],[121.11176847800004,14.672789253000076],[121.11408497600007,14.671699956000054],[121.11595873400006,14.674033886000075],[121.11713018400008,14.671775041000046],[121.11927973400009,14.672324185000036],[121.1215256810001,14.666480991000071],[121.12501273300006,14.66685227000005],[121.12574329600011,14.670101231000046],[121.13107957900002,14.667950382000072],[121.13064850100011,14.664855701000022],[121.1349365860001,14.658516597000073],[121.13472785300007,14.654714042000023],[121.13337563200002,14.653693069000042],[121.13664727600008,14.65100678300007],[121.13265868300005,14.647458331000053],[121.13459172400007,14.64688658600005],[121.13739599500002,14.64832502300004],[121.13937441300004,14.642625728000041],[121.14285933200006,14.642103897000027],[121.14496970000005,14.64608282200004],[121.14835720200006,14.647842190000063],[121.15091218300006,14.647436182000035],[121.15665678800008,14.653620629000045],[121.16271094800004,14.656496204000064],[121.1660648190001,14.654201446000059],[121.16639264100002,14.655966642000067],[121.17310353800008,14.660303981000027],[121.17826673600007,14.661098319000075],[121.18499884100004,14.666018465000036],[121.19039035800006,14.667432],[121.1924275340001,14.66572222800005],[121.19667164900011,14.665782858000057],[121.1993636310001,14.662375440000062],[121.21154808000006,14.663379151000072],[121.21849449600006,14.676616334000073],[121.21815139800003,14.67831482300005],[121.21476556300001,14.679074465000042],[121.21591587900002,14.688906407000047]]]}},{"type":"Feature","properties":{"shapeName":"Tanay","shapeISO":"","shapeID":"30758251B99469843476303","shapeGroup":"PHL","shapeType":"ADM3","psgc_code":"0405812000","legacy_psgc_code":"045812000","province":"Rizal"},"geometry":{"type":"Polygon","coordinates":[[[121.27125233000004,14.505050396000058],[121.27293918700002,14.505172038000069],[121.27467799600004,14.503031275000069],[121.27487532400005,14.495888812000032],[121.28071828400005,14.484006331000046],[121.28661524900008,14.481603818000053],[121.2889179020001,14.484148950000076],[121.29310758400004,14.483611361000044],[121.29188955600011,14.48887725000003],[121.29605705100005,14.496121197000036],[121.30071710800007,14.496864990000063],[121.30485427200006,14.493092391000062],[121.30675070200004,14.495356009000034],[121.31050190200006,14.494981824000035],[121.31257074500002,14.498459518000061],[121.3180270360001,14.500660562000064],[121.31679937100012,14.502553443000068],[121.31786789400007,14.505062585000076],[121.32268761800003,14.50867217800004],[121.32298316700007,14.506911408000065],[121.32541576400001,14.507153515000027],[121.32655249100003,14.504776456000059],[121.32778015600002,14.505084595000028],[121.33012181400011,14.500308397000026],[121.33335012000009,14.500550511000029],[121.33532802500008,14.504116157000055],[121.33841992300006,14.501695046000066],[121.34010228000011,14.502025199000059],[121.3387154720001,14.504490327000042],[121.34046603200011,14.505260674000056],[121.34117080300007,14.50871619700007],[121.34296683200012,14.509156387000075],[121.34237573400003,14.512611849000052],[121.34689990900006,14.515803152000046],[121.35244713800012,14.515803152000046],[121.35326558100007,14.516925599000047],[121.35610415400004,14.515893338000069],[121.35985237500006,14.50929196900006],[121.37051031100009,14.504429723000044],[121.37689814100008,14.509387487000026],[121.3756704760001,14.510708050000062],[121.37766498000008,14.514468504000035],[121.37679649100005,14.51931012800003],[121.37836193100009,14.52056576700005],[121.376248153,14.524600794000037],[121.37978398400003,14.526719674000049],[121.38110691500003,14.531527832000052],[121.38473895900006,14.53176067000004],[121.38501557200004,14.534286945000076],[121.38970596100012,14.535276492000037],[121.3889482830001,14.539129863000028],[121.38994649400001,14.540084464000074],[121.39285694000012,14.538303315000064],[121.39764341400007,14.543620558000043],[121.39831408300006,14.541662010000039],[121.4004170280001,14.540869784000051],[121.4001669480001,14.542355206000025],[121.40327021400003,14.542751317000068],[121.40234946500004,14.544819885000038],[121.40414549400009,14.54401666700005],[121.4042819010001,14.54541404400004],[121.42044759500004,14.54176189900005],[121.44798978300003,14.544977906000042],[121.44755638400011,14.547628286000077],[121.43933971400008,14.557175536000045],[121.43893810000009,14.559513501000026],[121.44249257000001,14.562492502000055],[121.44603805700001,14.562496917000033],[121.44972639700006,14.570188269000028],[121.44447355800003,14.57711574900003],[121.44156229100008,14.578489869000066],[121.44328663300007,14.582887395000057],[121.44111363900004,14.587291411000024],[121.45105053500004,14.595215478000057],[121.44905395400008,14.595552739000027],[121.4483865740001,14.598416774000043],[121.4453221340001,14.598793670000077],[121.44398614700003,14.602748851000058],[121.44115214300007,14.604785113000048],[121.43953569400003,14.603987708000034],[121.44173702300009,14.622482465000076],[121.41579713500005,14.627965106000033],[121.41627425700005,14.632162233000031],[121.41244222900002,14.632790595000074],[121.41071023800009,14.636143292000042],[121.40486651800006,14.63926604900007],[121.40474971100002,14.644270508000034],[121.40305409100006,14.645571817000075],[121.40422212100009,14.647574570000074],[121.40281711400007,14.649795466000057],[121.40284518400006,14.656630550000045],[121.40609669900005,14.657769814000062],[121.40420229200004,14.660925983000027],[121.40772022500005,14.664874927000028],[121.40675808700007,14.66755528300007],[121.41002857700005,14.666828045000045],[121.41086405800002,14.668896700000062],[121.408089388,14.676785648000077],[121.40502712700004,14.678158624000048],[121.40729878800005,14.68051116600003],[121.40735105100009,14.684536561000073],[121.4028506300001,14.686078448000046],[121.40480679900008,14.690213882000023],[121.39836146000005,14.691975308000053],[121.39389810300008,14.691010257000073],[121.38834906400007,14.69462919600005],[121.38062866200005,14.695232352000062],[121.37652719800008,14.699695709000025],[121.36271785000008,14.708406480000065],[121.35387583300007,14.722557836000021],[121.33743612900003,14.727966391000052],[121.33427652600005,14.73112584300003],[121.33590737000009,14.739279192000026],[121.34179742100002,14.747120400000028],[121.33850203600002,14.756433253000068],[121.33743604100005,14.764555217000066],[121.33437876000005,14.768529387000058],[121.3315946990001,14.768180849000032],[121.32600295700001,14.763605521000045],[121.31563659900007,14.764566463000051],[121.30926809400012,14.760710379000045],[121.31189829200002,14.751570727000058],[121.31836353100005,14.744547992000037],[121.32281119000004,14.718729366000048],[121.31957693600009,14.705294732000027],[121.32253502300011,14.701866170000073],[121.32520302800003,14.694785753000076],[121.32470001700005,14.69163952100007],[121.32178092700008,14.689289100000053],[121.32559717700008,14.682926034000047],[121.32744675000004,14.666455564000046],[121.323110928,14.656593422000071],[121.31353327000011,14.647205385000063],[121.31328729900008,14.62738108700006],[121.31816811700003,14.614221367000027],[121.32057685500001,14.612117026000021],[121.319543726,14.606678629000044],[121.31743790500002,14.606335387000058],[121.31819942800007,14.609404394000023],[121.31333824700005,14.612191565000046],[121.31043046100001,14.611373873000048],[121.30781846400009,14.608130514000038],[121.30598436000002,14.608537793000039],[121.30301169000006,14.604750108000076],[121.30307035600003,14.601465611000037],[121.3010463380001,14.601418547000037],[121.29454126600001,14.594950401000062],[121.30047387800005,14.589292109000041],[121.30876119900006,14.591546515000061],[121.31152364000002,14.585418342000025],[121.30544393900004,14.57798590300007],[121.3062686080001,14.57295173600005],[121.29697025400003,14.572183057000075],[121.29739830200003,14.569684764000044],[121.29353672600007,14.567621662000022],[121.29762432600012,14.553125392000027],[121.29165289100001,14.554297775000066],[121.28793981900003,14.545784677000029],[121.28928415500002,14.542227043000025],[121.29105154600006,14.543200372000058],[121.29192365200004,14.542004225000028],[121.28872223100007,14.525629152000022],[121.27844510200009,14.518595826000023],[121.28118151000001,14.515754622000031],[121.27993372200001,14.515534209000066],[121.28064757000004,14.513539642000069],[121.2761547020001,14.511492848000046],[121.27191817900007,14.507543309000027],[121.27125233000004,14.505050396000058]]]}},{"type":"Feature","properties":{"shapeName":"Taytay","shapeISO":"","shapeID":"30758251B47474969400955","shapeGroup":"PHL","shapeType":"ADM3","psgc_code":"0405813000","legacy_psgc_code":"045813000","province":"Rizal"},"geometry":{"type":"Polygon","coordinates":[[[121.16027291600005,14.55132218700004],[121.1594079790001,14.559215497000025],[121.16206294900007,14.55928603500007],[121.16248504500004,14.56262042700007],[121.1663759270001,14.564610182000024],[121.16076582700009,14.573187021000024],[121.1605611980001,14.576626055000077],[121.1587424820001,14.576801256000067],[121.15975310400006,14.581131210000024],[121.15764642200008,14.582167282000057],[121.15848970800005,14.586862538000048],[121.15611059300011,14.586661766000077],[121.15604565500007,14.589469998000027],[121.15322450000008,14.589088400000037],[121.15007450000007,14.591704900000025],[121.14632671800007,14.589795948000074],[121.14073937,14.589857980000033],[121.141341613,14.58768364100007],[121.13914298400005,14.582771704000038],[121.13687175200005,14.585373337000021],[121.13643418800007,14.58256532200005],[121.13215616200011,14.583534221000036],[121.13008348500011,14.577525352000066],[121.12543748900009,14.574538854000025],[121.12314976400012,14.567243856000061],[121.12148057400009,14.567179033000059],[121.12033106100012,14.563095262000047],[121.11921922500005,14.563479566000069],[121.11758466700007,14.561005936000072],[121.11915284600002,14.560371731000032],[121.11684299300009,14.557397682000044],[121.118353683,14.555058205000023],[121.11378929200009,14.553919131000043],[121.1125858470001,14.55081769800006],[121.10868212700007,14.547775977000072],[121.10972207600003,14.546624930000064],[121.10700168300002,14.54570101400003],[121.10570358400003,14.535778660000062],[121.10473370800003,14.536107409000067],[121.1033378410001,14.531997657000034],[121.10247570600006,14.524309028000062],[121.10388566000006,14.516490905000069],[121.10603587500009,14.515361097000039],[121.11728887400011,14.515406029000076],[121.11732368100002,14.519348093000076],[121.11965731900011,14.517483329000072],[121.116950674,14.522339502000023],[121.11628393,14.527638483000032],[121.117399094,14.528463393000038],[121.11883576800005,14.526859400000035],[121.11777070000005,14.529386328000044],[121.12108963900005,14.532418587000052],[121.12323341800004,14.531179511000062],[121.12333921000004,14.53506653900007],[121.1266099070001,14.534546773000045],[121.12893999700009,14.531219279000027],[121.12855547900006,14.528932630000043],[121.1312237090001,14.53552946700006],[121.13393649700004,14.535907947000055],[121.134442411,14.537339391000046],[121.13527596100005,14.535857087000068],[121.1386874210001,14.535773471000027],[121.1393416200001,14.533752162000042],[121.15789632100007,14.546938436000062],[121.15696571300009,14.548006350000037],[121.16071197800011,14.549393740000028],[121.16027291600005,14.55132218700004]]]}},{"type":"Feature","properties":{"shapeName":"Teresa","shapeISO":"","shapeID":"30758251B5946986755811","shapeGroup":"PHL","shapeType":"ADM3","psgc_code":"0405814000","legacy_psgc_code":"045814000","province":"Rizal"},"geometry":{"type":"Polygon","coordinates":[[[121.19275196900003,14.541406298000027],[121.20580853600006,14.538279657000032],[121.20867935100011,14.53670226500003],[121.20766762000005,14.535486674000026],[121.21847265500003,14.536209864000057],[121.2253284950001,14.542226268000036],[121.25118844300005,14.585690880000072],[121.2442175000001,14.590110400000071],[121.24222365300011,14.58765895700003],[121.23877154800005,14.587955320000049],[121.23965983200003,14.589789088000032],[121.2331322010001,14.585104251000075],[121.226400882,14.584438079000051],[121.2210217920001,14.58137567600005],[121.21913264800003,14.577130073000035],[121.21177526100007,14.570979106000038],[121.2106916250001,14.570888265000065],[121.211898786,14.572551915000076],[121.21071940600007,14.574108958000068],[121.21201555400012,14.574332115000061],[121.21198486900005,14.576590277000037],[121.20886058600001,14.575752778000037],[121.20879401500008,14.569876917000045],[121.20718704700005,14.56865136700003],[121.20441088600012,14.569200241000033],[121.20194142000003,14.563149103000057],[121.1956145580001,14.561239108000052],[121.19439272800003,14.555859078000026],[121.1917245190001,14.55400596800007],[121.19015232800007,14.548565473000053],[121.19275196900003,14.541406298000027]]]}}]}
