{"type":"FeatureCollection","source":{"dataset":"geoBoundaries gbOpen PHL ADM3","commit":"9469f09","license":"CC BY 3.0 IGO","boundary_year":2020,"url":"https://media.githubusercontent.com/media/wmgeolab/geoBoundaries/9469f09/releaseData/gbOpen/PHL/ADM3/geoBoundaries-PHL-ADM3_simplified.geojson","upstream_sources":["NAMRIA","PSA","OCHA Philippines"],"reference":"https://ulap-nga.georisk.gov.ph/arcgis/rest/services/PSA/Municipal/MapServer/0","psgc_reference":"https://psa.gov.ph/classification/psgc/provinces/1700000000","area_notes":"Four provinces use GeoRiskPH published polygon area; Palawan and Puerto Princesa use OCHA COD-AB v03 area_sqkm. These are polygon checks, not PSA LMB land-area totals. See MIMAROPA_BOUNDARY_SOURCES.md.","additional_reference":"https://data.humdata.org/dataset/cod-ab-phl","full_source_url":"https://media.githubusercontent.com/media/wmgeolab/geoBoundaries/9469f09/releaseData/gbOpen/PHL/ADM3/geoBoundaries-PHL-ADM3.geojson","notice":"Approximate planning/reference boundaries, not legal, cadastral, or survey-grade."},"features":[{"type":"Feature","properties":{"shapeName":"Alcantara","shapeISO":"","shapeID":"30758251B13764061513438","shapeGroup":"PHL","shapeType":"ADM3","psgc_code":"1705901000","legacy_psgc_code":"175901000","province":"Romblon"},"geometry":{"type":"Polygon","coordinates":[[[122.09617195600003,12.354273244000069],[122.0870759600001,12.362368453000045],[122.07344098600004,12.360700734000034],[122.0664655600001,12.356947540000021],[122.05746793300011,12.354753696000046],[122.04681185700008,12.358925940000063],[122.04101423000009,12.349610389000077],[122.03142491100004,12.339463502000058],[122.02481208800009,12.325487108000061],[122.02656707400001,12.284287281000047],[122.03168439500007,12.245386392000057],[122.03045857500001,12.244116967000025],[122.03045523100002,12.233091427000033],[122.03471015500008,12.21190123200006],[122.04744577800011,12.203217660000064],[122.04764133300012,12.203274437000061],[122.04774574500004,12.203546755000048],[122.0468006430001,12.20583577900004],[122.04853087700008,12.206237915000031],[122.04966498800002,12.209035394000068],[122.04581283700008,12.209412918000055],[122.04711998800008,12.212996076000024],[122.04516766400002,12.212659297000073],[122.04579735100003,12.214894644000026],[122.04028402000006,12.221352334000073],[122.04502873600006,12.222141709000027],[122.048203682,12.219913873000053],[122.04942075600002,12.221899284000074],[122.04702058100008,12.222096357000055],[122.04571676100011,12.225479093000047],[122.04349995400003,12.225667096000052],[122.04002215000003,12.228813931000047],[122.0407792210001,12.230043412000043],[122.04661440200005,12.230767497000045],[122.04786133100004,12.234731759000056],[122.05013795700006,12.234575680000034],[122.0507266510001,12.240116542000067],[122.05592834700008,12.24071163900004],[122.05407961000003,12.245170288000054],[122.05584661500006,12.245973581000044],[122.05741954900009,12.251736817000051],[122.05921651400001,12.252235490000032],[122.05665149000004,12.255015829000058],[122.05580874900011,12.259040588000062],[122.05809385700002,12.264533991000064],[122.0605435120001,12.26535272500007],[122.06212723100009,12.267899142000033],[122.06457422300002,12.274725482000065],[122.06815789000007,12.27636360400004],[122.06800031700004,12.279709861000072],[122.07046811900011,12.284638658000063],[122.07328392600004,12.297458429000073],[122.07652223000002,12.299690611000074],[122.08130134400005,12.308068965000075],[122.08578747100012,12.309596890000023],[122.08757630000002,12.31240394100007],[122.08790978400009,12.314561540000057],[122.08290069600002,12.316953586000068],[122.08090188400001,12.320805110000038],[122.08638944300003,12.330518289000054],[122.09617195600003,12.354273244000069]]]}},{"type":"Feature","properties":{"shapeName":"Banton","shapeISO":"","shapeID":"30758251B55331406144814","shapeGroup":"PHL","shapeType":"ADM3","psgc_code":"1705902000","legacy_psgc_code":"175902000","province":"Romblon"},"geometry":{"type":"Polygon","coordinates":[[[122.06152351000003,12.963018927000064],[122.0564944240001,12.96060000400007],[122.05566231300008,12.958724594000046],[122.05191371900003,12.961920408000026],[122.04569237300007,12.961234620000027],[122.03506199600008,12.954842505000045],[122.03270048700006,12.94958778800003],[122.03376935500012,12.948441155000069],[122.03823471500004,12.94845725500005],[122.03718389100004,12.946086380000054],[122.03917020200004,12.942330533000074],[122.03855171500004,12.939163950000022],[122.04963570600012,12.938477606000049],[122.05089340800009,12.937184410000043],[122.05327306600009,12.938607564000051],[122.05259441900012,12.935622358000046],[122.05561942400004,12.93408701900006],[122.05490191100012,12.928469772000028],[122.05746028800002,12.925562734000039],[122.05593588900001,12.92280228800007],[122.04948300300009,12.91910523100006],[122.0490193820001,12.917185490000065],[122.05648939200012,12.918989718000034],[122.05970587600007,12.911244604000046],[122.05773444700003,12.908411880000074],[122.05822638600011,12.906587597000055],[122.06208925500005,12.905342018000056],[122.06450714000005,12.90912121200006],[122.06833911800004,12.910154060000025],[122.069383001,12.904967209000063],[122.0710144740001,12.907946946000038],[122.07880482700011,12.908835306000071],[122.08502124600011,12.91132884600006],[122.08529743300005,12.914981173000058],[122.08947642700002,12.917950630000064],[122.0968049920001,12.938444013000037],[122.09574480800006,12.944056163000027],[122.09923816100002,12.950740866000046],[122.09917921100009,12.956201509000039],[122.09715833700011,12.958776646000047],[122.09073163200003,12.957642259000067],[122.07695117100002,12.96262394100006],[122.0663016640001,12.96125849300006],[122.06152351000003,12.963018927000064]]]}},{"type":"Feature","properties":{"shapeName":"Cajidiocan","shapeISO":"","shapeID":"30758251B60223458934501","shapeGroup":"PHL","shapeType":"ADM3","psgc_code":"1705903000","legacy_psgc_code":"175903000","province":"Romblon"},"geometry":{"type":"Polygon","coordinates":[[[122.67013547300007,12.310869455000045],[122.67189373400004,12.316159554000023],[122.67927797000004,12.323853793000069],[122.68426863700006,12.333835479000072],[122.68474959500008,12.338717935000034],[122.68637183600003,12.340679635000072],[122.6866487310001,12.350488417000065],[122.69270972800007,12.364889251000022],[122.68854789500006,12.370329629000025],[122.68913904200008,12.371340386000043],[122.688139868,12.370741474000056],[122.68694270900005,12.372715162000077],[122.68571070100006,12.38037988800005],[122.69003458600002,12.385114156000043],[122.69297466700004,12.391702269000064],[122.69577161300003,12.39390753500004],[122.69506569200007,12.397096851000072],[122.69829884900003,12.398116005000077],[122.69865023600005,12.401690147000068],[122.69495901300002,12.40810392000003],[122.6892664400001,12.412979088000043],[122.68885873500005,12.417093065000074],[122.68418151100002,12.42350119200006],[122.68523803900007,12.427528768000059],[122.68700475300011,12.428940505000071],[122.68441743400001,12.429744742000025],[122.68363700100008,12.433434362000071],[122.67812715100001,12.440308510000023],[122.67500613400011,12.439312530000052],[122.67363264800008,12.44048652400005],[122.67163450700002,12.445730215000026],[122.66883752400008,12.447604562000038],[122.66928142300003,12.450919879000026],[122.664957565,12.45446649300004],[122.66467887100009,12.459875880000027],[122.6693298130001,12.46275300600007],[122.66292131900002,12.466772453000033],[122.66058657200006,12.472100827000077],[122.65755296900011,12.472607106000055],[122.65251786300007,12.477250469000069],[122.65272981400005,12.479335566000032],[122.65582715300002,12.477939501000037],[122.65715997300003,12.480785387000026],[122.6560570370001,12.482853384000066],[122.65344501100003,12.484361425000031],[122.63801940500002,12.483709327000042],[122.63373335900008,12.492878874000041],[122.63128094400008,12.491879397000048],[122.6291273920001,12.493094278000058],[122.62323598500006,12.492077406000021],[122.61719068000002,12.493257542000038],[122.613345277,12.49139619400006],[122.60577846600006,12.494197212000074],[122.59904864200007,12.492695659000049],[122.59738863300004,12.490092444000027],[122.5976897700001,12.486265475000039],[122.58575890200007,12.450479502000064],[122.58434964500009,12.438841027000024],[122.60811188500008,12.416225913000062],[122.64378641400003,12.352972214000033],[122.66547976600009,12.335710368000036],[122.66964819200007,12.330447205000041],[122.66835019300004,12.31387793700003],[122.67013547300007,12.310869455000045]]]}},{"type":"Feature","properties":{"shapeName":"Calatrava","shapeISO":"","shapeID":"30758251B34852860389402","shapeGroup":"PHL","shapeType":"ADM3","psgc_code":"1705904000","legacy_psgc_code":"175904000","province":"Romblon"},"geometry":{"type":"Polygon","coordinates":[[[122.12885617900008,12.663329544000021],[122.12200399400001,12.670062676000043],[122.11931576200004,12.669988416000024],[122.11643773600008,12.67378782000003],[122.11014852100004,12.674316915000077],[122.11491975000001,12.669886726000072],[122.12133160600001,12.66773820000003],[122.11907194600008,12.657272421000073],[122.112240014,12.655215421000037],[122.1096972150001,12.652164416000062],[122.10797651200005,12.652515831000073],[122.10741480500008,12.650595752000072],[122.10611221600004,12.651024590000077],[122.10507106200009,12.647271991000025],[122.09626718400011,12.643851098000027],[122.09717765700009,12.641351229000065],[122.09599628300009,12.639909169000077],[122.0930803760001,12.640633121000064],[122.0928637510001,12.639147414000035],[122.08699478200003,12.63627688400004],[122.0840457810001,12.63754457500005],[122.086167595,12.633142209000027],[122.08534074400006,12.632072576000041],[122.08291933100008,12.632834081000055],[122.08276037500002,12.630775159000052],[122.08138553000003,12.631752434000077],[122.08027746200003,12.629343473000063],[122.07658403300002,12.62824039800006],[122.07747957800007,12.625674085000071],[122.07599722000009,12.622406655000077],[122.06622051300008,12.620452757000066],[122.066700233,12.619452307000074],[122.0539278980001,12.62208294100003],[122.0416896270001,12.621408806000034],[122.03949078700009,12.618868415000065],[122.03448178400004,12.618095339000035],[122.03261790500005,12.611482290000026],[122.02941749500008,12.609127084000022],[122.03020294200007,12.608254717000023],[122.02163378600005,12.608358101000022],[122.01875089000009,12.60399609500007],[122.01224339200007,12.603717067000048],[122.0126541520001,12.602821042000073],[122.01148705300011,12.603316565000057],[122.00874041600002,12.601161589000071],[122.0320794380001,12.58074605400003],[122.06538263700008,12.591917970000054],[122.08036137700003,12.592499256000053],[122.10818086600011,12.600044816000036],[122.09753526500003,12.614316409000025],[122.0914450040001,12.619301171000075],[122.09175017700011,12.622449269000072],[122.10095830400007,12.627883773000065],[122.10910507900007,12.63526089100003],[122.12885617900008,12.663329544000021]]]}},{"type":"Feature","properties":{"shapeName":"Concepcion","shapeISO":"","shapeID":"30758251B24706592587585","shapeGroup":"PHL","shapeType":"ADM3","psgc_code":"1705905000","legacy_psgc_code":"175905000","province":"Romblon"},"geometry":{"type":"Polygon","coordinates":[[[121.70534530900011,12.949107394000066],[121.69899785500002,12.946759706000023],[121.69532964700011,12.947704180000073],[121.69376713400004,12.945374095000034],[121.68897205100006,12.946117793000042],[121.68814064000003,12.945110814000031],[121.69174153600011,12.943016212000032],[121.69204545500008,12.940568736000046],[121.6855305140001,12.938008402000037],[121.68502488600006,12.935442868000052],[121.6830533750001,12.93569582300006],[121.68486989300004,12.932114468000066],[121.68084723900006,12.929306489000055],[121.684244712,12.928425214000072],[121.686292578,12.925929492000023],[121.68518113300001,12.920314433000044],[121.68715081700009,12.916173959000048],[121.692836553,12.91647984900004],[121.6913776020001,12.914178423000067],[121.69418297700008,12.914427941000042],[121.69558948500003,12.90854329800004],[121.70104434100006,12.90747437500005],[121.70144900700006,12.90591024300005],[121.69939577100001,12.90435603000003],[121.70086702000003,12.902362415000027],[121.69992625300006,12.89984480000004],[121.70167499900003,12.900866019000034],[121.70380361800005,12.900111064000043],[121.70811852700001,12.90970548000007],[121.7091964660001,12.909713189000058],[121.7125196500001,12.897600929000077],[121.7170293910001,12.895748266000055],[121.7196419180001,12.899579133000032],[121.72182752800006,12.899337934000073],[121.72557072500001,12.901798076000034],[121.72527021100007,12.903188166000064],[121.72126711300007,12.902114555000026],[121.71848398800012,12.904390371000034],[121.71684565800001,12.90842897300007],[121.718426797,12.911367806000044],[121.71785626400003,12.914044171000057],[121.71911696200004,12.91481858000003],[121.72417855700007,12.907897260000027],[121.72355589100005,12.914256396000042],[121.72534012800008,12.91556904600003],[121.73076859500009,12.910669174000077],[121.73274905000005,12.911151374000042],[121.73145632700005,12.915741217000061],[121.73312000600004,12.917323509000028],[121.73260903500011,12.920148123000047],[121.7364209000001,12.928864444000055],[121.73442981900007,12.930931646000033],[121.72963318900008,12.93179432100004],[121.72780289100001,12.934810456000037],[121.72823924000011,12.93833533000003],[121.72550208500002,12.940523988000052],[121.72543184400001,12.944706169000028],[121.72189981600002,12.943432219000044],[121.72060903300007,12.943737227000042],[121.72021876000008,12.94612638700005],[121.7175782920001,12.944751999000061],[121.715701738,12.94591577600005],[121.71467053300012,12.942966109000054],[121.71299268300004,12.942678251000075],[121.71062959700009,12.947786548000067],[121.70881271200005,12.94710400200006],[121.70534530900011,12.949107394000066]]]}},{"type":"Feature","properties":{"shapeName":"Corcuera","shapeISO":"","shapeID":"30758251B41265366730611","shapeGroup":"PHL","shapeType":"ADM3","psgc_code":"1705906000","legacy_psgc_code":"175906000","province":"Romblon"},"geometry":{"type":"MultiPolygon","coordinates":[[[[122.03058088500006,12.79674618200005],[122.0287306460001,12.795140760000038],[122.0314307970001,12.79357452100004],[122.03058088500006,12.79674618200005]]],[[[122.08726657200009,12.837587427000074],[122.08072309800002,12.835806971000068],[122.07843973500007,12.829497820000029],[122.071928565,12.82486960700004],[122.0603815070001,12.823294554000029],[122.05133655600002,12.817228421000038],[122.0359843660001,12.815733881000028],[122.02528530500001,12.806200425000043],[122.0223497400001,12.800465154000051],[122.01876030500011,12.798025522000046],[122.01872524500004,12.79631603100006],[122.02390526900001,12.793436602000043],[122.0266971850001,12.794022551000069],[122.03010506100009,12.79754867400004],[122.03012073200011,12.80254276900007],[122.03195750800012,12.803904805000059],[122.03291056700004,12.798547337000059],[122.03160781600002,12.797231440000076],[122.03296831400007,12.795114183000067],[122.02952361100006,12.790599272000065],[122.03126174200008,12.78687837900003],[122.0432669920001,12.784741195000038],[122.05055639600005,12.78201726900005],[122.050894674,12.780681134000076],[122.06125235800005,12.78464034700005],[122.06534106000004,12.789761439000074],[122.07133173900002,12.802957029000027],[122.07360229500011,12.804169346000037],[122.07627197400006,12.812026244000037],[122.08464307300005,12.820881277000069],[122.08568012100011,12.825821202000043],[122.0896241050001,12.831509655000048],[122.08977151600004,12.83581183900003],[122.08726657200009,12.837587427000074]]]]}},{"type":"Feature","properties":{"shapeName":"Looc","shapeISO":"","shapeID":"30758251B76752924951322","shapeGroup":"PHL","shapeType":"ADM3","psgc_code":"1705907000","legacy_psgc_code":"175907000","province":"Romblon"},"geometry":{"type":"MultiPolygon","coordinates":[[[[121.97530426100002,12.200370668000062],[121.97734298400007,12.203910536000024],[121.97463368100011,12.207425606000072],[121.97566362700002,12.215618243000051],[121.97317988700001,12.220482979000053],[121.97524188400007,12.228396373000066],[121.97071807700002,12.233622340000068],[121.97031714900004,12.237809195000068],[121.9685795690001,12.238629307000053],[121.96524081000007,12.234334287000024],[121.96469690100002,12.227471368000067],[121.96792195400008,12.217275327000038],[121.96775745800005,12.212729697000043],[121.96209000300007,12.200228347000063],[121.97530426100002,12.200370668000062]]],[[[122.03142491100004,12.339463502000058],[122.01735853500008,12.337118537000038],[121.99793975400007,12.328050767000036],[121.98912148500006,12.322284885000045],[121.9761031590001,12.312461608000035],[121.96401331800007,12.306652918000054],[121.95194516900006,12.29519741200005],[121.94678480000005,12.29321658300006],[121.94554976000006,12.287753160000022],[121.94975289000001,12.278670851000072],[121.95412030700004,12.276946268000074],[121.95721416200001,12.279008425000029],[121.961743522,12.278032881000058],[121.96409954700005,12.28067491400003],[121.96737562500005,12.277164527000025],[121.96339250400001,12.269145511000033],[121.9628106560001,12.264866364000056],[121.96325154400006,12.262125353000044],[121.9663995300001,12.259781065000027],[121.96670806000009,12.257983091000028],[121.97487332600008,12.258466354000063],[121.97585490200004,12.260882947000027],[121.97713440300004,12.259573253000042],[121.97637930400003,12.26216458600004],[121.98068882900009,12.264589427000033],[121.98154431800003,12.262426209000068],[121.98264462600002,12.262907400000074],[121.98738582500005,12.259284252000043],[121.99019105000002,12.259450095000034],[121.99076681000008,12.253518116000066],[121.99130708000007,12.256521732000067],[121.99350838600003,12.255700554000043],[121.99337780300004,12.256799296000054],[121.99517372700006,12.256844719000071],[122.00028855000005,12.248242866000055],[122.01045512400003,12.242642639000053],[122.01850951200004,12.233149715000025],[122.0155558460001,12.222339268000042],[122.01202612100008,12.222143262000031],[122.01141030300005,12.21941713800004],[122.01019135100012,12.220239073000073],[122.01039674800006,12.219265440000072],[122.00408186600009,12.21586607300003],[122.00227178400007,12.218937654000058],[121.99709403700001,12.213254067000037],[121.99341875400012,12.200507577000053],[121.99566903200002,12.196339336000051],[121.99411844700012,12.192274864000069],[122.03900761200009,12.191302115000042],[122.03943529700007,12.203832593000072],[122.04624329400008,12.202072139000052],[122.04744577800011,12.203217660000064],[122.03471015500008,12.21190123200006],[122.03045523100002,12.233091427000033],[122.03045857500001,12.244116967000025],[122.03168439500007,12.245386392000057],[122.02656707400001,12.284287281000047],[122.02481208800009,12.325487108000061],[122.03142491100004,12.339463502000058]]]]}},{"type":"Feature","properties":{"shapeName":"Magdiwang","shapeISO":"","shapeID":"30758251B40201197939052","shapeGroup":"PHL","shapeType":"ADM3","psgc_code":"1705908000","legacy_psgc_code":"175908000","province":"Romblon"},"geometry":{"type":"Polygon","coordinates":[[[122.59738863300004,12.490092444000027],[122.59446877000005,12.489920599000072],[122.59005112200009,12.492430476000038],[122.58112116900008,12.494414102000064],[122.57231087800005,12.495035896000047],[122.56351314900007,12.499097819000042],[122.56020295700012,12.49684880600006],[122.55530545200008,12.497659206000037],[122.5462641250001,12.505640709000033],[122.54241627300007,12.504347818000042],[122.53981073500006,12.505245626000033],[122.5343545070001,12.502687724000054],[122.53140091000012,12.499826747000043],[122.53122501100006,12.497798773000056],[122.52767841700006,12.499462506000043],[122.52380090500003,12.495454308000035],[122.52060200500011,12.494920170000057],[122.51688288300011,12.491576098000053],[122.51542681400008,12.491881792000072],[122.51694709600008,12.49404127500003],[122.50443865700004,12.496557606000067],[122.49614325200002,12.495783004000032],[122.49462616800008,12.498381671000061],[122.49273613800005,12.49853969700007],[122.48993682300011,12.497477708000076],[122.49075612400009,12.493071711000027],[122.48881133400005,12.495708035000064],[122.48917522200009,12.493934455000044],[122.48555189500007,12.494677764000073],[122.48109629700002,12.491300299000045],[122.4799930690001,12.488251776000027],[122.47253526100008,12.489634164000051],[122.4686298690001,12.483817570000042],[122.4613627120001,12.486712798000042],[122.4603029650001,12.484037112000067],[122.45566443100006,12.481695690000038],[122.45050501000003,12.475183049000066],[122.446810733,12.466805495000074],[122.44227736800008,12.46363573900004],[122.4340424180001,12.462134109000033],[122.42932829200004,12.458097722000048],[122.42794495900011,12.449675354000021],[122.44397316800007,12.446581043000037],[122.47564242200008,12.453167333000067],[122.50336684700005,12.45454416800004],[122.54214301900004,12.452696592000052],[122.58434964500009,12.438841027000024],[122.58575890200007,12.450479502000064],[122.5976897700001,12.486265475000039],[122.59738863300004,12.490092444000027]]]}},{"type":"Feature","properties":{"shapeName":"Odiongan","shapeISO":"","shapeID":"30758251B56543042574103","shapeGroup":"PHL","shapeType":"ADM3","psgc_code":"1705909000","legacy_psgc_code":"175909000","province":"Romblon"},"geometry":{"type":"Polygon","coordinates":[[[122.04681185700008,12.358925940000063],[122.05903447100002,12.39567196400003],[122.05906322400006,12.41828283700005],[122.06557249000002,12.452190862000066],[122.0670479260001,12.473729087000038],[122.03370589700012,12.480799944000069],[122.0095028820001,12.48191786700005],[122.00816296200003,12.480759352000064],[122.01128080800004,12.475111839000022],[122.01033037000002,12.475547618000064],[122.00747344700005,12.47079332100003],[122.00814209500004,12.463868042000058],[122.00975706600002,12.461164759000042],[122.00698677900004,12.457196301000067],[122.00263486000006,12.455215684000052],[122.00567052600002,12.450796553000032],[122.0042274320001,12.450990130000037],[122.00591536700006,12.449202490000062],[122.00592815300001,12.444372808000026],[122.00291133500002,12.439852906000056],[121.9976255360001,12.436423469000033],[121.99675432800007,12.425270580000074],[121.99608047100003,12.427342671000076],[121.99325762900003,12.424171479000051],[121.98839668100004,12.422145373000035],[121.98895318300004,12.418638743000031],[121.98723354000003,12.417042246000051],[121.98917414800007,12.418143353000062],[121.99235722600008,12.413475099000038],[121.99039697700005,12.410773242000062],[121.98527813600003,12.405806618000042],[121.98004809500003,12.403451462000021],[121.98030017100007,12.400141210000072],[121.97972262400003,12.40130739500006],[121.97868302000006,12.40048630800004],[121.979283398,12.402945439000064],[121.97277458100007,12.401674546000038],[121.96967993900012,12.40342597700004],[121.96667954100008,12.401728465000076],[121.966093483,12.403337892000025],[121.96192425400011,12.405111130000023],[121.95942824300005,12.403882098000054],[121.95799629100009,12.39884105300007],[121.95673798400003,12.398673742000028],[121.95320862000005,12.404575911000052],[121.95127429100012,12.402552143000037],[121.95161686900008,12.399049908000052],[121.95038807100002,12.399755103000075],[121.94934990800004,12.396541906000039],[121.94696036900007,12.396629804000042],[121.9421487410001,12.391972624000061],[121.94268172700004,12.39061874400005],[121.94284523100009,12.390236275000063],[121.949717286,12.37416120000006],[121.95764757400002,12.344513930000062],[121.9706518370001,12.343765958000063],[121.97308262500007,12.335759040000028],[121.9814858740001,12.338033205000045],[121.9849527660001,12.33685693800004],[121.98811011400005,12.334083425000074],[121.98845680200009,12.330851787000029],[121.98604236000006,12.323373205000053],[121.98912148500006,12.322284885000045],[121.99793975400007,12.328050767000036],[122.01735853500008,12.337118537000038],[122.03142491100004,12.339463502000058],[122.04101423000009,12.349610389000077],[122.04681185700008,12.358925940000063]]]}},{"type":"Feature","properties":{"shapeName":"Romblon","shapeISO":"","shapeID":"30758251B85981656551245","shapeGroup":"PHL","shapeType":"ADM3","psgc_code":"1705910000","legacy_psgc_code":"175910000","province":"Romblon"},"geometry":{"type":"MultiPolygon","coordinates":[[[[122.32114470300007,12.555032347000065],[122.32055249000007,12.553435175000061],[122.32231394000007,12.554218061000029],[122.32114470300007,12.555032347000065]]],[[[122.25163061300009,12.599585647000026],[122.25137076700003,12.60246937900007],[122.24642245200005,12.599309530000028],[122.24650378900003,12.594074920000025],[122.24015994600006,12.588829898000029],[122.239875933,12.583803810000063],[122.24292674500009,12.583765890000052],[122.24551357900009,12.586545049000051],[122.24801052400005,12.583713286000034],[122.24731256700011,12.588138122000032],[122.25114197800008,12.59553535200007],[122.25163061300009,12.599585647000026]]],[[[122.28370532000008,12.625319661000049],[122.27887031900002,12.622566491000043],[122.27740881300008,12.616953514000045],[122.27863508400003,12.615493488000027],[122.27702110900009,12.611859332000051],[122.27037383700008,12.60786919900005],[122.26875867800004,12.604877389000023],[122.26836898600004,12.597942999000054],[122.26558260400009,12.593444187000046],[122.27311365900005,12.594508591000022],[122.27533186300002,12.591720079000027],[122.27078503200005,12.586010353000063],[122.26806532100011,12.584710833000031],[122.26880139000002,12.58352357900003],[122.27188418700007,12.583748248000063],[122.2719804940001,12.582421923000027],[122.26916738800003,12.581311003000053],[122.27027399000008,12.580431507000071],[122.2675295680001,12.575806336000028],[122.26635070300006,12.575611329000026],[122.26631290700004,12.578989299000057],[122.26429232400005,12.578355719000058],[122.26286515800007,12.58073379900003],[122.25921234600003,12.578908138000031],[122.25490229500008,12.578783950000059],[122.25370066300002,12.575753683000073],[122.25056241300001,12.57376386900006],[122.24387934300012,12.572453059000054],[122.25129596500005,12.56774295200006],[122.254402,12.568378916000029],[122.25271916400004,12.564150073000064],[122.24929335700006,12.561967247000041],[122.25149017400008,12.558318287000077],[122.2489866630001,12.55232115900003],[122.25037861600003,12.551222410000037],[122.25230149800007,12.552829854000038],[122.25606354700005,12.551445527000055],[122.26063311500002,12.545780078000064],[122.262098852,12.538129649000041],[122.25877963000005,12.533770943000036],[122.25332329100002,12.533358767000038],[122.24965609800006,12.530589711000061],[122.25333631800004,12.527249435000044],[122.25670356300009,12.527876295000056],[122.25870095900007,12.52663602900003],[122.25750290000008,12.523896905000072],[122.25895615600007,12.522299487000055],[122.26008257300009,12.515284075000068],[122.26584179500003,12.50992861800006],[122.2672987840001,12.501106622000066],[122.27114658500011,12.491049407000048],[122.27647881300004,12.48704676500006],[122.27640242400003,12.485370055000033],[122.28415438000002,12.48178518800006],[122.28516784600004,12.478407920000052],[122.2872450960001,12.47792564100007],[122.28841797500002,12.479708089000042],[122.29261640200002,12.480194786000027],[122.30169539400003,12.477892044000043],[122.3070290930001,12.483124583000063],[122.3189965140001,12.489427033000027],[122.3211275220001,12.496422205000044],[122.32394341300005,12.501477843000032],[122.32693561200006,12.503791326000055],[122.32811881200007,12.509301322000056],[122.3262368290001,12.516402277000054],[122.32777461700005,12.520787793000068],[122.32605022200005,12.524846308000065],[122.3268919730001,12.540218984000035],[122.32215303600003,12.54864882000004],[122.31595686500009,12.55097556100003],[122.30723792600008,12.558033739000052],[122.30576113600011,12.562029796000047],[122.30720258300005,12.56322775500007],[122.30803585700005,12.568239319000043],[122.31122509500005,12.56955206400005],[122.30525876400009,12.574435632000075],[122.30482415600011,12.57678879100007],[122.30721415700009,12.578042561000075],[122.30568475700011,12.57900317900004],[122.30552246200011,12.577509548000023],[122.30434967200006,12.578357022000034],[122.30067602300005,12.577258241000038],[122.29922259800003,12.579567098000041],[122.30040047000011,12.582395848000033],[122.29799098700005,12.583787862000065],[122.29531373200007,12.582834929000057],[122.29570850400012,12.58777125000006],[122.29749011400008,12.588849750000065],[122.298412686,12.593410362000043],[122.29767459700008,12.598009630000035],[122.29580011500002,12.59955257300004],[122.29624562900005,12.601535437000052],[122.29343772300001,12.605552120000027],[122.2937901460001,12.61070512200007],[122.29584822400011,12.613954980000074],[122.29472055700012,12.617412659000024],[122.29666715700012,12.61866163600007],[122.29434411200009,12.61963757500007],[122.29410510700006,12.617918300000042],[122.29332548000002,12.619749790000071],[122.28957585600006,12.619525259000056],[122.28579860000002,12.625418664000051],[122.28370532000008,12.625319661000049]]],[[[122.26075381800001,12.630742779000059],[122.25412510000001,12.629628497000056],[122.25147849900009,12.626345394000055],[122.24658069600002,12.625006540000072],[122.24293745700004,12.621965487000068],[122.24015440900007,12.623158803000024],[122.241829789,12.625261182000031],[122.24025859800008,12.625701766000077],[122.23854948400003,12.624041502000068],[122.23998855200011,12.622373154000059],[122.23811032200001,12.621901936000029],[122.23980077700003,12.621586711000077],[122.23989344200004,12.620192372000076],[122.23588930200003,12.617049907000023],[122.23681129700003,12.615622353000049],[122.2395705780001,12.618251344000043],[122.24722294600008,12.617278408000061],[122.24770447900005,12.615485165000052],[122.24905528400006,12.617184201000043],[122.25278209900011,12.616559584000072],[122.25474232700003,12.613527146000024],[122.25826090900011,12.61606721100003],[122.2624921360001,12.623656787000073],[122.26569290500004,12.625937736000026],[122.26427570500005,12.629470106000042],[122.26075381800001,12.630742779000059]]],[[[122.23998607300007,12.671417481000049],[122.23544908500003,12.668960635000076],[122.23014532500008,12.662915786000042],[122.23248024800012,12.654465465000044],[122.238683003,12.651357868000048],[122.23857289000011,12.647592877000022],[122.24541274500007,12.656663972000047],[122.24586846000011,12.661901148000027],[122.2450049150001,12.665712667000037],[122.2459670820001,12.667624920000037],[122.243926858,12.66857985300004],[122.2433715190001,12.670666962000041],[122.23998607300007,12.671417481000049]]]]}},{"type":"Feature","properties":{"shapeName":"San Agustin","shapeISO":"","shapeID":"30758251B77746184637785","shapeGroup":"PHL","shapeType":"ADM3","psgc_code":"1705911000","legacy_psgc_code":"175911000","province":"Romblon"},"geometry":{"type":"Polygon","coordinates":[[[122.08036137700003,12.592499256000053],[122.09272334100001,12.590767827000036],[122.09222396700011,12.579027585000063],[122.08558695300007,12.540929402000074],[122.07569477900006,12.52965516300003],[122.07483167600003,12.491678600000057],[122.07125566200011,12.477410488000032],[122.0670479260001,12.473729087000038],[122.06557249000002,12.452190862000066],[122.08479880100003,12.455296761000056],[122.09810709900012,12.452734294000038],[122.10751557200001,12.452743415000043],[122.10802325700001,12.457392936000076],[122.10511557200005,12.463193576000037],[122.10635687400008,12.46248407400003],[122.10821544600003,12.46607553900003],[122.1113125810001,12.476049900000021],[122.11173709900004,12.499237438000023],[122.11420851500009,12.499908762000075],[122.12003760100004,12.507556042000033],[122.11794873000008,12.512908743000025],[122.12308154700008,12.528056139000057],[122.13912135700002,12.538306817000034],[122.13413940500004,12.550863105000076],[122.13762598500011,12.555744366000056],[122.13235732400005,12.561330567000027],[122.13181023800007,12.564058274000047],[122.13270483100007,12.56631300600003],[122.13565390800011,12.567827170000044],[122.13692329800006,12.566362022000021],[122.13568485200005,12.567973657000039],[122.13635050800008,12.572602464000056],[122.13923388100011,12.581338022000068],[122.13538514400011,12.586667471000055],[122.13174314000003,12.595772101000023],[122.13149643600002,12.601263835000054],[122.13385059600012,12.606034368000053],[122.13086512500001,12.60723267700007],[122.1280328790001,12.611635858000056],[122.12448254800006,12.61231409000004],[122.12235986200005,12.61479366900005],[122.1220039210001,12.618715222000048],[122.12564911400011,12.63123274700007],[122.12855359700006,12.634538087000067],[122.13144048100003,12.63515091000005],[122.134059922,12.633993395000061],[122.1372364450001,12.629158157000063],[122.14222744100005,12.627515566000056],[122.15132866700003,12.630928793000066],[122.16241076800009,12.632145399000024],[122.1582138760001,12.638991001000022],[122.1593386610001,12.648001453000063],[122.15385358300011,12.660023871000021],[122.15211271100009,12.660718387000031],[122.15160206200005,12.65939729400003],[122.14536426400002,12.658895036000047],[122.14109585100005,12.662285171000065],[122.13731599000005,12.661317286000042],[122.13263126000004,12.663967858000035],[122.12885617900008,12.663329544000021],[122.10910507900007,12.63526089100003],[122.10095830400007,12.627883773000065],[122.09175017700011,12.622449269000072],[122.0914450040001,12.619301171000075],[122.09753526500003,12.614316409000025],[122.10818086600011,12.600044816000036],[122.08036137700003,12.592499256000053]]]}},{"type":"Feature","properties":{"shapeName":"San Andres","shapeISO":"","shapeID":"30758251B27093145704117","shapeGroup":"PHL","shapeType":"ADM3","psgc_code":"1705912000","legacy_psgc_code":"175912000","province":"Romblon"},"geometry":{"type":"Polygon","coordinates":[[[122.00874041600002,12.601161589000071],[122.00189083200007,12.597238436000055],[121.99924580200002,12.585157604000074],[121.99995306400001,12.580696571000033],[121.99462791500002,12.57540523800003],[121.99216527500005,12.570084430000065],[121.99625798500006,12.562484857000072],[122.00111322600003,12.558447611000076],[122.00794539200001,12.547926688000075],[122.0096745620001,12.549047667000025],[122.00850679200005,12.546987353000077],[122.00998196800003,12.543970430000059],[122.0061170250001,12.533395049000035],[122.00689744400006,12.528205171000025],[122.00558683400004,12.52342507000003],[122.01103098600004,12.513909943000044],[122.01196007600004,12.515227563000053],[122.01247027200009,12.513262786000041],[122.01086517600004,12.51311202900007],[122.01194718400006,12.505527898000025],[122.00897907100011,12.503399649000073],[122.00771704400006,12.504894689000025],[122.00827815200012,12.503217172000063],[122.00552514300011,12.502477959000032],[122.00523235000003,12.499041963000025],[122.01334979500007,12.49983362000006],[122.01731048700003,12.49598788000003],[122.01522603100011,12.490102414000035],[122.01266331200009,12.489892570000052],[122.01223628900004,12.48746565700003],[122.01391206400001,12.485330926000074],[122.01303956100003,12.484100453000053],[122.00972104700008,12.483292799000026],[122.0063740810001,12.48457634500005],[122.00615838700003,12.480941555000072],[122.00816296200003,12.480759352000064],[122.0095028820001,12.48191786700005],[122.03370589700012,12.480799944000069],[122.0670479260001,12.473729087000038],[122.07125566200011,12.477410488000032],[122.07483167600003,12.491678600000057],[122.07569477900006,12.52965516300003],[122.08558695300007,12.540929402000074],[122.09222396700011,12.579027585000063],[122.09272334100001,12.590767827000036],[122.08036137700003,12.592499256000053],[122.06538263700008,12.591917970000054],[122.0320794380001,12.58074605400003],[122.00874041600002,12.601161589000071]]]}},{"type":"Feature","properties":{"shapeName":"San Fernando","shapeISO":"","shapeID":"30758251B454076707789","shapeGroup":"PHL","shapeType":"ADM3","psgc_code":"1705913000","legacy_psgc_code":"175913000","province":"Romblon"},"geometry":{"type":"Polygon","coordinates":[[[122.58434964500009,12.438841027000024],[122.54214301900004,12.452696592000052],[122.50336684700005,12.45454416800004],[122.47564242200008,12.453167333000067],[122.44397316800007,12.446581043000037],[122.42794495900011,12.449675354000021],[122.42333063700005,12.443218201000036],[122.42482785600009,12.432666244000075],[122.42814939700008,12.427939868000067],[122.43383758300001,12.412760486000025],[122.44155138100007,12.40403215300006],[122.455167662,12.394443655000032],[122.46240481200005,12.392080022000073],[122.46734851600002,12.392023730000062],[122.4726031670001,12.38954545300004],[122.47813425100003,12.390093587000024],[122.48359040500009,12.386217772000066],[122.49679156400009,12.38478871600006],[122.5050122770001,12.376514082000028],[122.50550502100009,12.378090857000075],[122.50651621300005,12.375827521000076],[122.51091190400007,12.37421054400005],[122.51122693500008,12.375400511000066],[122.51245023500007,12.373623055000053],[122.52577466500009,12.371611575000031],[122.53181131800011,12.365822366000032],[122.54019143500011,12.362258105000024],[122.55239349400006,12.348327835000077],[122.552951645,12.340957306000064],[122.55623981700012,12.335040521000053],[122.56042645200012,12.317923522000058],[122.56378089400005,12.310897072000046],[122.56440795700007,12.311781886000063],[122.58035162700003,12.302856001000066],[122.5963003820001,12.304101653000032],[122.60350163400005,12.298104734000049],[122.6093581020001,12.29652119800005],[122.61924253000007,12.286614039000028],[122.63166097700002,12.268361363000054],[122.6338123810001,12.267409585000053],[122.63542960900008,12.26842322500005],[122.63184423900009,12.278350128000056],[122.63411532400005,12.283761484000024],[122.67013547300007,12.310869455000045],[122.66835019300004,12.31387793700003],[122.66964819200007,12.330447205000041],[122.66547976600009,12.335710368000036],[122.64378641400003,12.352972214000033],[122.60811188500008,12.416225913000062],[122.58434964500009,12.438841027000024]]]}},{"type":"Feature","properties":{"shapeName":"San Jose","shapeISO":"","shapeID":"30758251B67956852885073","shapeGroup":"PHL","shapeType":"ADM3","psgc_code":"1705914000","legacy_psgc_code":"175914000","province":"Romblon"},"geometry":{"type":"Polygon","coordinates":[[[121.93699499800005,12.09667379900003],[121.93486101500002,12.096761460000039],[121.9246464260001,12.08746013900003],[121.92006962900007,12.085053039000059],[121.9159663370001,12.084864363000065],[121.91369129100008,12.080770181000048],[121.91407421600002,12.078583042000048],[121.911602861,12.07664081300004],[121.91278209100005,12.074015781000071],[121.91076223700009,12.07170166700007],[121.91181228300002,12.067828271000053],[121.91069489900008,12.06301428100005],[121.9130881210001,12.055671391000033],[121.91947152600005,12.04683643800007],[121.92516726100007,12.042780555000036],[121.93507174500007,12.038145617000055],[121.93931431400006,12.037560059000043],[121.94604192600002,12.033058674000074],[121.95000166700004,12.032013998000025],[121.95089602000007,12.033129768000038],[121.95195996300004,12.03129622800003],[121.95383669700004,12.031422525000039],[121.96239271200011,12.03607310600006],[121.96206480600006,12.037516329000027],[121.96044338200011,12.037088509000057],[121.95767957500004,12.039636642000062],[121.96183081700008,12.042891158000032],[121.96013760700009,12.044450727000026],[121.96082627200008,12.046220302000052],[121.95858369700011,12.050708563000057],[121.96175664200007,12.065356047000023],[121.95931621000011,12.07100235400003],[121.95742603300005,12.070977077000066],[121.953686102,12.074784645000022],[121.95252980200007,12.078501629000073],[121.953113744,12.085704508000049],[121.95070383400002,12.093755559000044],[121.94391796800005,12.09637714300004],[121.93699499800005,12.09667379900003]]]}},{"type":"Feature","properties":{"shapeName":"Santa Fe","shapeISO":"","shapeID":"30758251B97605936547347","shapeGroup":"PHL","shapeType":"ADM3","psgc_code":"1705915000","legacy_psgc_code":"175915000","province":"Romblon"},"geometry":{"type":"MultiPolygon","coordinates":[[[[122.0427051050001,12.15458886600004],[122.03787043400007,12.152237911000043],[122.038734513,12.14792290400004],[122.03652110900009,12.144698559000062],[122.03513170700012,12.146517850000066],[122.03458238000007,12.14528027800003],[122.03227159300002,12.146999128000061],[122.03234321700006,12.144976969000027],[122.0304020320001,12.144491783000035],[122.03098270700002,12.140995042000043],[122.03545656400001,12.142747606000057],[122.03856990000008,12.141014187000053],[122.04358510500003,12.141315834000068],[122.0427051050001,12.15458886600004]]],[[[122.03874836500006,12.15427851000004],[122.03581447900001,12.155069597000022],[122.0343612040001,12.152241447000051],[122.03874836500006,12.15427851000004]]],[[[121.96209000300007,12.200228347000063],[121.9622620880001,12.197341214000062],[121.95899513900008,12.191456538000068],[121.96022521700002,12.190466902000026],[121.95896846900007,12.188838350000026],[121.96040960300002,12.18552191200007],[121.96019110600002,12.174688822000064],[121.96474985400005,12.170754931000033],[121.96609785400005,12.156768706000037],[121.9702880860001,12.154898324000044],[121.97721936300002,12.155809157000022],[121.9813541850001,12.153348710000046],[121.98503705400003,12.155801327000063],[121.98864702300011,12.161254223000071],[121.99192938300007,12.160321556000042],[121.98950226300008,12.157518551000067],[121.99314545300001,12.15636575700006],[121.99373081400006,12.152723843000047],[121.99055040200005,12.149662037000041],[121.98910616600006,12.149928783000064],[121.9871778270001,12.14449084100005],[121.98470791000011,12.143234866000057],[121.98453304000009,12.141649103000077],[121.98806872700004,12.141138149000028],[121.99153328500006,12.134742415000062],[121.99616149400003,12.132089545000042],[121.9971592490001,12.127665791000027],[121.99933792600007,12.127762715000074],[122.0037689830001,12.12357355000006],[122.00456213500001,12.118723938000073],[122.01231252700006,12.100913426000034],[122.01644999500002,12.098839081000051],[122.01999826200006,12.10488143300006],[122.02196260900007,12.104978735000032],[122.02431854600002,12.117682784000067],[122.024438056,12.125103650000028],[122.02270509900006,12.130018825000036],[122.01928580700007,12.13029472200003],[122.01805000500008,12.132056172000034],[122.01855779700008,12.134873474000074],[122.02142632900006,12.135979414000076],[122.01705943600007,12.137449013000037],[122.01767320400006,12.14355037100006],[122.022577382,12.143991884000059],[122.0205970400001,12.145174354000062],[122.02125875900003,12.148664895000024],[122.02442153700008,12.151459765000027],[122.0278127250001,12.148622870000054],[122.02906191300008,12.151398423000046],[122.02808396600005,12.154056118000028],[122.03109506300007,12.157077812000068],[122.0306128420001,12.161819893000029],[122.033939615,12.16346339000006],[122.0396150150001,12.174141306000024],[122.04592755600004,12.179850994000049],[122.05044762000011,12.180966535000039],[122.05431579900005,12.171998478000035],[122.05907528400007,12.170882893000055],[122.06685216300002,12.174438115000044],[122.0687200100001,12.18055776500006],[122.06813438600011,12.186840588000052],[122.0659210550001,12.19070221000004],[122.06221031200005,12.19189813500003],[122.05812359800007,12.188780192000024],[122.05483887700007,12.190848454000047],[122.05605241500007,12.192665514000055],[122.05477903700012,12.195417956000028],[122.0562823680001,12.196460949000027],[122.05480586100009,12.198214349000068],[122.04968318100009,12.194202072000053],[122.04717876000007,12.190093684000033],[122.043993483,12.190964378000047],[122.04203546700012,12.194307091000042],[122.0450084790001,12.195166074000042],[122.04454625400001,12.197708758000033],[122.0471436580001,12.199383542000021],[122.04624329400008,12.202072139000052],[122.03943529700007,12.203832593000072],[122.03900761200009,12.191302115000042],[121.99411844700012,12.192274864000069],[121.99133192900001,12.189575494000053],[121.98792776900007,12.189569834000054],[121.97932875900005,12.19395779000007],[121.97894260600003,12.196369171000072],[121.97707853000009,12.195358180000028],[121.97564302900003,12.196384723000051],[121.97530426100002,12.200370668000062],[121.96209000300007,12.200228347000063]]]]}},{"type":"Feature","properties":{"shapeName":"Ferrol","shapeISO":"","shapeID":"30758251B18326457927940","shapeGroup":"PHL","shapeType":"ADM3","psgc_code":"1705916000","legacy_psgc_code":"175916000","province":"Romblon"},"geometry":{"type":"MultiPolygon","coordinates":[[[[121.94284523100009,12.390236275000063],[121.94178632900002,12.385404256000072],[121.94388371100001,12.369114484000022],[121.94148514300002,12.366386957000032],[121.94233360800001,12.365143214000057],[121.94011928800012,12.360958800000049],[121.9405049930001,12.356592833000036],[121.92809591600007,12.347274536000043],[121.92866666900011,12.343360422000046],[121.93860178000011,12.339638181000055],[121.93927632000009,12.33534776700003],[121.92984386900002,12.328624372000036],[121.93100035400005,12.327152199000068],[121.93042214400009,12.323648762000062],[121.93270881600006,12.322664473000032],[121.92695531800007,12.322150160000035],[121.92169611500003,12.319723919000069],[121.92193360400006,12.315127647000054],[121.91968869400011,12.312888895000071],[121.92174825000006,12.312863102000051],[121.92350773300006,12.310309429000029],[121.92358062500011,12.307688945000052],[121.92245039700003,12.306003781000072],[121.92108964400006,12.30646557700004],[121.92236314500008,12.305385054000055],[121.920874335,12.301691224000024],[121.92229482400012,12.298220056000048],[121.92351224100003,12.300984950000043],[121.92544655600011,12.299636382000074],[121.92629527400004,12.296358453000039],[121.92360942300002,12.29428540500004],[121.92838404400004,12.286918634000074],[121.92956725500005,12.288632795000069],[121.9359165510001,12.287774747000071],[121.93826318300012,12.295219033000024],[121.93733117500005,12.29872092200003],[121.9392013800001,12.299852945000055],[121.94562907000011,12.29718617900005],[121.9476336570001,12.297983754000029],[121.94718233100002,12.296617008000055],[121.94843521400003,12.295976650000057],[121.94687481800008,12.295399459000066],[121.94678480000005,12.29321658300006],[121.95194516900006,12.29519741200005],[121.96401331800007,12.306652918000054],[121.9761031590001,12.312461608000035],[121.98912148500006,12.322284885000045],[121.98604236000006,12.323373205000053],[121.98845680200009,12.330851787000029],[121.98811011400005,12.334083425000074],[121.9849527660001,12.33685693800004],[121.9814858740001,12.338033205000045],[121.97308262500007,12.335759040000028],[121.9706518370001,12.343765958000063],[121.95764757400002,12.344513930000062],[121.949717286,12.37416120000006],[121.94284523100009,12.390236275000063]]],[[[121.9421487410001,12.391972624000061],[121.94110304500009,12.390788761000067],[121.94268172700004,12.39061874400005],[121.9421487410001,12.391972624000061]]]]}},{"type":"Feature","properties":{"shapeName":"Santa Maria","shapeISO":"","shapeID":"30758251B99723317147835","shapeGroup":"PHL","shapeType":"ADM3","psgc_code":"1705917000","legacy_psgc_code":"175917000","province":"Romblon"},"geometry":{"type":"Polygon","coordinates":[[[122.09617195600003,12.354273244000069],[122.09778684900004,12.356607489000055],[122.0989072100001,12.364534180000021],[122.09471958100005,12.375654194000049],[122.09596261200011,12.381383346000064],[122.09485182800006,12.390324747000022],[122.09741689400005,12.396561950000034],[122.1017387930001,12.397582476000025],[122.10301618800008,12.405501561000051],[122.10586669200006,12.408623120000073],[122.10452533700004,12.416230751000057],[122.10725015900005,12.424767511000027],[122.10546584700012,12.429577296000048],[122.10657511200009,12.434442889000024],[122.10547887400003,12.434855274000029],[122.10664283800008,12.434947506000071],[122.10545444800005,12.440777701000059],[122.10751557200001,12.452743415000043],[122.09810709900012,12.452734294000038],[122.08479880100003,12.455296761000056],[122.06557249000002,12.452190862000066],[122.05906322400006,12.41828283700005],[122.05903447100002,12.39567196400003],[122.04681185700008,12.358925940000063],[122.05746793300011,12.354753696000046],[122.0664655600001,12.356947540000021],[122.07344098600004,12.360700734000034],[122.0870759600001,12.362368453000045],[122.09617195600003,12.354273244000069]]]}}]}
