{"type":"FeatureCollection","source":{"dataset":"geoBoundaries gbOpen PHL ADM3","commit":"9469f09","license":"CC BY 3.0 IGO","boundary_year":2020,"url":"https://media.githubusercontent.com/media/wmgeolab/geoBoundaries/9469f09/releaseData/gbOpen/PHL/ADM3/geoBoundaries-PHL-ADM3_simplified.geojson","upstream_sources":["NAMRIA","PSA","OCHA Philippines"],"reference":"https://ulap-nga.georisk.gov.ph/arcgis/rest/services/PSA/Municipal/MapServer/0","psgc_reference":"https://psa.gov.ph/classification/psgc/provinces/0200000000","notice":"Approximate planning/reference boundaries, not legal, cadastral, or survey-grade."},"features":[{"type":"Feature","properties":{"shapeName":"City of Santiago","shapeISO":"","shapeID":"30758251B59985488099372","shapeGroup":"PHL","shapeType":"ADM3","psgc_code":"0203135000","legacy_psgc_code":"023135000","province":"Santiago City","geographic_province":"Isabela"},"geometry":{"type":"Polygon","coordinates":[[[121.57890092500008,16.75639622400007],[121.56165127300005,16.75748892000007],[121.5565806080001,16.75640910900006],[121.55701569000007,16.746880358000055],[121.55434104900007,16.73990460300007],[121.53154241300001,16.73825026800006],[121.52523673500002,16.736017065000055],[121.51144279500011,16.742892745000063],[121.507970752,16.739527829000053],[121.50405215800004,16.731110109000042],[121.49307299100008,16.729198346000032],[121.4920878050001,16.73157959100007],[121.4880133580001,16.731682302000024],[121.48528345300008,16.72965117800004],[121.4888422570001,16.720548637000036],[121.48671971100009,16.717529612000078],[121.48603478300004,16.70281257000005],[121.48897482500001,16.694016498000053],[121.49672394600009,16.696373875000063],[121.49886503700009,16.69829701200007],[121.50587226300001,16.698662281000054],[121.50988878100009,16.697846669000057],[121.51159977800012,16.69446633800004],[121.51820419800003,16.694316232000062],[121.51891348200002,16.69141094300005],[121.51572696300002,16.685570599000073],[121.51720640700012,16.680631445000074],[121.50517583100009,16.653799363000076],[121.49596941800007,16.63793083400003],[121.49844839100001,16.632445387000075],[121.49962784000002,16.634241367000072],[121.50205375300004,16.634093936000056],[121.50217951400009,16.635458957000026],[121.5088155630001,16.636439754000037],[121.52062412400005,16.631733116000078],[121.52278118700008,16.632328168000072],[121.52148660700004,16.63424570500007],[121.5232009120001,16.637130467000077],[121.53527233800003,16.63260553500004],[121.55481491400008,16.62891236200005],[121.56749450100006,16.613628085000073],[121.56701087600004,16.610498691000032],[121.57048577800003,16.610435594000023],[121.57384646800006,16.606030798000063],[121.57858267100005,16.598471049000068],[121.575892812,16.597860096000034],[121.57603639600006,16.594076955000048],[121.58379264000007,16.575755187000027],[121.59952867000004,16.57575489800007],[121.59880324500011,16.57761380000005],[121.6012152830001,16.577124138000045],[121.60219009700006,16.579052485000034],[121.59814642100002,16.58245013000004],[121.60025997900004,16.584053244000074],[121.59933479900008,16.586222632000045],[121.60276434700006,16.587490767000077],[121.60436746100004,16.591510516000028],[121.60353152400012,16.593325658000026],[121.61088962600002,16.595281019000026],[121.61100464900005,16.598459825000077],[121.6101776590001,16.599691756000027],[121.60861665000004,16.598335849000023],[121.60561867700005,16.601694665000025],[121.60336072000007,16.607217345000038],[121.60549975100002,16.611550066000063],[121.60341378800001,16.616452783000057],[121.60217280000006,16.617891704000044],[121.59739357,16.61865222800003],[121.59440955000002,16.623432654000055],[121.59517872200001,16.627081530000055],[121.59405288700009,16.628806096000062],[121.59718793900004,16.63607563200003],[121.59715071800008,16.64904443000006],[121.59949550700003,16.65196238900006],[121.59850548500003,16.657537776000026],[121.60022499700005,16.662435780000067],[121.61055697200004,16.668719183000064],[121.61091699700012,16.684398282000075],[121.60947856700011,16.696821423000074],[121.60236194000004,16.712252026000044],[121.59541725400004,16.716082220000033],[121.59010870300006,16.737397529000077],[121.57890092500008,16.75639622400007]]]}}]}
