{
  "type": "FeatureCollection",
  "source": {
    "dataset": "geoBoundaries gbOpen PHL ADM3",
    "commit": "9469f09",
    "boundary_year": 2020,
    "license": "CC BY 3.0 IGO",
    "organizations": [
      "NAMRIA",
      "Philippine Statistics Authority",
      "OCHA Philippines"
    ],
    "metadata_url": "https://www.geoboundaries.org/api/current/gbOpen/PHL/ADM3/",
    "url": "https://media.githubusercontent.com/media/wmgeolab/geoBoundaries/9469f09/releaseData/gbOpen/PHL/ADM3/geoBoundaries-PHL-ADM3_simplified.geojson",
    "retrieved_at": "2026-09-18",
    "identity_source": "https://psa.gov.ph/classification/psgc/citimuni/0706100000",
    "reference_area_source": "https://ulap-nga.georisk.gov.ph/arcgis/rest/services/PSA/Municipal/MapServer/0",
    "notice": "Approximate planning/reference municipality boundaries; not legal, cadastral, or survey-grade."
  },
  "features": [
    {
      "type": "Feature",
      "properties": {
        "shapeName": "Enrique Villanueva",
        "shapeISO": "",
        "shapeID": "30758251B12637401805285",
        "shapeGroup": "PHL",
        "shapeType": "ADM3",
        "psgc_code": "0706101000",
        "legacy_psgc_code": "076101000",
        "province": "Siquijor",
        "reference_area_sqkm": 26.29750201,
        "reference_bbox": [
          123.608073,
          9.222189,
          123.66241,
          9.301051
        ]
      },
      "geometry": {
        "type": "Polygon",
        "coordinates": [
          [
            [
              123.662409894,
              9.235574390000068
            ],
            [
              123.65634958700002,
              9.245063333000076
            ],
            [
              123.65459832400006,
              9.258606875000055
            ],
            [
              123.6487882890001,
              9.273838158000046
            ],
            [
              123.64929505500004,
              9.275360508000063
            ],
            [
              123.6444199450001,
              9.282429021000041
            ],
            [
              123.63284291100001,
              9.29514301000006
            ],
            [
              123.62575032200004,
              9.299754775000054
            ],
            [
              123.622289754,
              9.300888094000072
            ],
            [
              123.60807339700011,
              9.300522516000058
            ],
            [
              123.61058567900011,
              9.292290749000074
            ],
            [
              123.61444556000004,
              9.28787655800005
            ],
            [
              123.6194606570001,
              9.276001606000023
            ],
            [
              123.62110486900008,
              9.26812682000002
            ],
            [
              123.6202293130001,
              9.267032375000042
            ],
            [
              123.62225386500006,
              9.265247269000042
            ],
            [
              123.62269698300008,
              9.261564552000038
            ],
            [
              123.62236999000004,
              9.258284556000035
            ],
            [
              123.62035319400002,
              9.256386214000031
            ],
            [
              123.62038426400011,
              9.252907691000075
            ],
            [
              123.62163172800001,
              9.252685528000029
            ],
            [
              123.62356388,
              9.241106737000052
            ],
            [
              123.6273811530001,
              9.233080014000052
            ],
            [
              123.63137807500004,
              9.233693723000044
            ],
            [
              123.6334587880001,
              9.22708926000007
            ],
            [
              123.6412893910001,
              9.222188903000074
            ],
            [
              123.644508416,
              9.223266402000036
            ],
            [
              123.64157581400002,
              9.22462796800005
            ],
            [
              123.64230896400011,
              9.225518222000062
            ],
            [
              123.64628892500002,
              9.224575600000037
            ],
            [
              123.64759812300008,
              9.226617949000058
            ],
            [
              123.64922152800011,
              9.22562295800003
            ],
            [
              123.6530864880001,
              9.230329968000035
            ],
            [
              123.662409894,
              9.235574390000068
            ]
          ]
        ]
      }
    },
    {
      "type": "Feature",
      "properties": {
        "shapeName": "Larena",
        "shapeISO": "",
        "shapeID": "30758251B58465916430151",
        "shapeGroup": "PHL",
        "shapeType": "ADM3",
        "psgc_code": "0706102000",
        "legacy_psgc_code": "076102000",
        "province": "Siquijor",
        "reference_area_sqkm": 41.08440665,
        "reference_bbox": [
          123.569225,
          9.187968,
          123.641496,
          9.300881
        ]
      },
      "geometry": {
        "type": "Polygon",
        "coordinates": [
          [
            [
              123.60807339700011,
              9.300522516000058
            ],
            [
              123.60167923800009,
              9.300101621000067
            ],
            [
              123.59706786700008,
              9.290777104000028
            ],
            [
              123.59613412200008,
              9.27839354100007
            ],
            [
              123.59776748700006,
              9.267789057000073
            ],
            [
              123.59153124500006,
              9.25641265300004
            ],
            [
              123.59085843600008,
              9.253344609000067
            ],
            [
              123.59286693900003,
              9.252744562000032
            ],
            [
              123.59199984400004,
              9.251092379000056
            ],
            [
              123.58910582800002,
              9.251160962000029
            ],
            [
              123.58730004800009,
              9.24821266500004
            ],
            [
              123.58465003000003,
              9.247050385000023
            ],
            [
              123.57599094600005,
              9.246418885000026
            ],
            [
              123.57476674400004,
              9.242331762000049
            ],
            [
              123.5692700830001,
              9.239810746000046
            ],
            [
              123.57299142600004,
              9.236030165000045
            ],
            [
              123.5763517790001,
              9.235228705000054
            ],
            [
              123.57612590800011,
              9.233321250000074
            ],
            [
              123.58342187900007,
              9.223386817000062
            ],
            [
              123.59528818800004,
              9.200636841000062
            ],
            [
              123.59948690700003,
              9.196217488000059
            ],
            [
              123.60217470900011,
              9.195491978000064
            ],
            [
              123.60651365500007,
              9.19076109100007
            ],
            [
              123.61179020200007,
              9.18796814500007
            ],
            [
              123.6153857490001,
              9.204170248000025
            ],
            [
              123.6195831120001,
              9.206296391000024
            ],
            [
              123.62252643700003,
              9.212401816000067
            ],
            [
              123.62679489300001,
              9.211854757000026
            ],
            [
              123.62872888900006,
              9.216137140000058
            ],
            [
              123.63320691000001,
              9.218919133000043
            ],
            [
              123.64046673100006,
              9.217348088000051
            ],
            [
              123.6412893910001,
              9.222188903000074
            ],
            [
              123.6334587880001,
              9.22708926000007
            ],
            [
              123.63137807500004,
              9.233693723000044
            ],
            [
              123.6273811530001,
              9.233080014000052
            ],
            [
              123.62356388,
              9.241106737000052
            ],
            [
              123.62163172800001,
              9.252685528000029
            ],
            [
              123.62038426400011,
              9.252907691000075
            ],
            [
              123.62035319400002,
              9.256386214000031
            ],
            [
              123.62236999000004,
              9.258284556000035
            ],
            [
              123.62269698300008,
              9.261564552000038
            ],
            [
              123.62225386500006,
              9.265247269000042
            ],
            [
              123.6202293130001,
              9.267032375000042
            ],
            [
              123.62110486900008,
              9.26812682000002
            ],
            [
              123.6194606570001,
              9.276001606000023
            ],
            [
              123.61444556000004,
              9.28787655800005
            ],
            [
              123.61058567900011,
              9.292290749000074
            ],
            [
              123.60807339700011,
              9.300522516000058
            ]
          ]
        ]
      }
    },
    {
      "type": "Feature",
      "properties": {
        "shapeName": "Lazi",
        "shapeISO": "",
        "shapeID": "30758251B49075027129395",
        "shapeGroup": "PHL",
        "shapeType": "ADM3",
        "psgc_code": "0706103000",
        "legacy_psgc_code": "076103000",
        "province": "Siquijor",
        "reference_area_sqkm": 70.47317244,
        "reference_bbox": [
          123.559584,
          9.094668,
          123.671714,
          9.195492
        ]
      },
      "geometry": {
        "type": "Polygon",
        "coordinates": [
          [
            [
              123.60217470900011,
              9.195491978000064
            ],
            [
              123.58183710800006,
              9.192263254000068
            ],
            [
              123.58252798800004,
              9.186644371000057
            ],
            [
              123.58003738900004,
              9.175867321000055
            ],
            [
              123.58516361200009,
              9.162282201000039
            ],
            [
              123.57890316700002,
              9.16398171000003
            ],
            [
              123.57642347600006,
              9.146600491000072
            ],
            [
              123.57174568700009,
              9.142904075000047
            ],
            [
              123.57499490300006,
              9.13998446000005
            ],
            [
              123.57181040900002,
              9.129051274000062
            ],
            [
              123.56742608500008,
              9.112562006000076
            ],
            [
              123.55958421700007,
              9.101260054000022
            ],
            [
              123.57260506600005,
              9.101437162000025
            ],
            [
              123.57864292700003,
              9.097848517000045
            ],
            [
              123.58181546700007,
              9.098117339000055
            ],
            [
              123.58832899600009,
              9.094668095000031
            ],
            [
              123.59640831700005,
              9.095750809000037
            ],
            [
              123.59970035300012,
              9.098519448000047
            ],
            [
              123.60662803600007,
              9.097009623000076
            ],
            [
              123.61283484000012,
              9.100963138000054
            ],
            [
              123.62341589000005,
              9.102336595000054
            ],
            [
              123.62570833200004,
              9.108453206000036
            ],
            [
              123.62575253300008,
              9.11348790300002
            ],
            [
              123.63054407700008,
              9.116878689000032
            ],
            [
              123.63499012800003,
              9.123993847000065
            ],
            [
              123.6360228310001,
              9.124574601000063
            ],
            [
              123.63821217600002,
              9.122556082000074
            ],
            [
              123.63728276300003,
              9.124567323000065
            ],
            [
              123.6399272000001,
              9.126145423000025
            ],
            [
              123.65150344100005,
              9.122901901000034
            ],
            [
              123.65628673600008,
              9.115813110000033
            ],
            [
              123.65453470200009,
              9.116734819000044
            ],
            [
              123.65758483200011,
              9.115053671000055
            ],
            [
              123.66824989100007,
              9.115957343000048
            ],
            [
              123.67171429500002,
              9.120466718000046
            ],
            [
              123.65974651700003,
              9.137732646000075
            ],
            [
              123.65190980900002,
              9.14046088300006
            ],
            [
              123.65008676800005,
              9.14490956000003
            ],
            [
              123.64625351900008,
              9.146730225000056
            ],
            [
              123.64191889400001,
              9.153544864000025
            ],
            [
              123.63837762900005,
              9.155463053000062
            ],
            [
              123.61179020200007,
              9.18796814500007
            ],
            [
              123.60651365500007,
              9.19076109100007
            ],
            [
              123.60217470900011,
              9.195491978000064
            ]
          ]
        ]
      }
    },
    {
      "type": "Feature",
      "properties": {
        "shapeName": "Maria",
        "shapeISO": "",
        "shapeID": "30758251B45396932451822",
        "shapeGroup": "PHL",
        "shapeType": "ADM3",
        "psgc_code": "0706104000",
        "legacy_psgc_code": "076104000",
        "province": "Siquijor",
        "reference_area_sqkm": 56.64253478,
        "reference_bbox": [
          123.61179,
          9.120467,
          123.701979,
          9.235574
        ]
      },
      "geometry": {
        "type": "Polygon",
        "coordinates": [
          [
            [
              123.6412893910001,
              9.222188903000074
            ],
            [
              123.64046673100006,
              9.217348088000051
            ],
            [
              123.63320691000001,
              9.218919133000043
            ],
            [
              123.62872888900006,
              9.216137140000058
            ],
            [
              123.62679489300001,
              9.211854757000026
            ],
            [
              123.62252643700003,
              9.212401816000067
            ],
            [
              123.6195831120001,
              9.206296391000024
            ],
            [
              123.6153857490001,
              9.204170248000025
            ],
            [
              123.61179020200007,
              9.18796814500007
            ],
            [
              123.63837762900005,
              9.155463053000062
            ],
            [
              123.64191889400001,
              9.153544864000025
            ],
            [
              123.64625351900008,
              9.146730225000056
            ],
            [
              123.65008676800005,
              9.14490956000003
            ],
            [
              123.65190980900002,
              9.14046088300006
            ],
            [
              123.65974651700003,
              9.137732646000075
            ],
            [
              123.67171429500002,
              9.120466718000046
            ],
            [
              123.67631184600009,
              9.123050568000053
            ],
            [
              123.68142185600004,
              9.12110535000005
            ],
            [
              123.69282931000009,
              9.128942073000076
            ],
            [
              123.69572724800003,
              9.13406061400002
            ],
            [
              123.69681012800004,
              9.139964165000038
            ],
            [
              123.70142342000008,
              9.143837081000072
            ],
            [
              123.7019119900001,
              9.145980297000051
            ],
            [
              123.6986247100001,
              9.15901999600004
            ],
            [
              123.69552444300007,
              9.16107676300004
            ],
            [
              123.69298890700009,
              9.158813817000066
            ],
            [
              123.68455574300003,
              9.16135424600003
            ],
            [
              123.67841829600002,
              9.159696062000023
            ],
            [
              123.67397702700009,
              9.160475424000026
            ],
            [
              123.66790300500008,
              9.169627996000031
            ],
            [
              123.66392502300005,
              9.171997315000056
            ],
            [
              123.65792958200007,
              9.183964925000055
            ],
            [
              123.65634516000011,
              9.192130347000045
            ],
            [
              123.65804779100006,
              9.193502927000054
            ],
            [
              123.66065306000007,
              9.203090145000033
            ],
            [
              123.66740665500004,
              9.210979576000057
            ],
            [
              123.675033428,
              9.213769053000021
            ],
            [
              123.68120793600008,
              9.212191206000057
            ],
            [
              123.68514278100008,
              9.212930485000072
            ],
            [
              123.68733166800007,
              9.216330410000069
            ],
            [
              123.68666246900011,
              9.221334869000032
            ],
            [
              123.68443711300006,
              9.223404024000047
            ],
            [
              123.68276881400004,
              9.223217350000027
            ],
            [
              123.68083083800002,
              9.22558861300007
            ],
            [
              123.67468639600008,
              9.228370206000022
            ],
            [
              123.66878876200008,
              9.229705109000065
            ],
            [
              123.662409894,
              9.235574390000068
            ],
            [
              123.6530864880001,
              9.230329968000035
            ],
            [
              123.64922152800011,
              9.22562295800003
            ],
            [
              123.64759812300008,
              9.226617949000058
            ],
            [
              123.64628892500002,
              9.224575600000037
            ],
            [
              123.64230896400011,
              9.225518222000062
            ],
            [
              123.64157581400002,
              9.22462796800005
            ],
            [
              123.644508416,
              9.223266402000036
            ],
            [
              123.6412893910001,
              9.222188903000074
            ]
          ]
        ]
      }
    },
    {
      "type": "Feature",
      "properties": {
        "shapeName": "San Juan",
        "shapeISO": "",
        "shapeID": "30758251B12332276302021",
        "shapeGroup": "PHL",
        "shapeType": "ADM3",
        "psgc_code": "0706105000",
        "legacy_psgc_code": "076105000",
        "province": "Siquijor",
        "reference_area_sqkm": 40.24321526,
        "reference_bbox": [
          123.451943,
          9.101179,
          123.57181,
          9.193874
        ]
      },
      "geometry": {
        "type": "Polygon",
        "coordinates": [
          [
            [
              123.57181040900002,
              9.129051274000062
            ],
            [
              123.56814932400005,
              9.13152350200005
            ],
            [
              123.5552319730001,
              9.133698355000035
            ],
            [
              123.55730284300012,
              9.137378175000038
            ],
            [
              123.55109751000009,
              9.142937664000044
            ],
            [
              123.54991020600005,
              9.149899030000029
            ],
            [
              123.5449940530001,
              9.158050102000061
            ],
            [
              123.54187323600001,
              9.166875675000028
            ],
            [
              123.52446291900003,
              9.171499692000054
            ],
            [
              123.51774285200008,
              9.176382659000069
            ],
            [
              123.50973198800011,
              9.175431450000076
            ],
            [
              123.50449663400002,
              9.17830669500006
            ],
            [
              123.50278392900009,
              9.177426935000028
            ],
            [
              123.49952225600009,
              9.181301757000028
            ],
            [
              123.49354587100004,
              9.180601355000022
            ],
            [
              123.4906373560001,
              9.184337965000054
            ],
            [
              123.48807054400004,
              9.183517427000027
            ],
            [
              123.48638738900001,
              9.185263700000064
            ],
            [
              123.48253247200012,
              9.18494660500005
            ],
            [
              123.47488068200005,
              9.189440728000022
            ],
            [
              123.46976176600003,
              9.189682355000059
            ],
            [
              123.4680262710001,
              9.191452929000036
            ],
            [
              123.4613267850001,
              9.192828258000077
            ],
            [
              123.45317509100005,
              9.19309314800006
            ],
            [
              123.45309559500004,
              9.193108116000076
            ],
            [
              123.45271731900004,
              9.193665061000047
            ],
            [
              123.45285470400006,
              9.19045925000006
            ],
            [
              123.45553047900012,
              9.188957083000048
            ],
            [
              123.45488215500006,
              9.18590544400007
            ],
            [
              123.45376129100009,
              9.18602321000003
            ],
            [
              123.4619841650001,
              9.17717186300007
            ],
            [
              123.4648056530001,
              9.175434653000025
            ],
            [
              123.47204718800003,
              9.174735835000035
            ],
            [
              123.48548759100004,
              9.165073297000049
            ],
            [
              123.50043704100005,
              9.14963096300005
            ],
            [
              123.51462703000004,
              9.137709247000032
            ],
            [
              123.51904465600012,
              9.137605471000029
            ],
            [
              123.51902465300009,
              9.136117841000043
            ],
            [
              123.52625241800001,
              9.134086879000051
            ],
            [
              123.5336947940001,
              9.12741193200003
            ],
            [
              123.54285916200001,
              9.115727098000036
            ],
            [
              123.54569159000005,
              9.114789170000051
            ],
            [
              123.54944608000005,
              9.115803737000022
            ],
            [
              123.55197945600003,
              9.11441891000004
            ],
            [
              123.55653022700005,
              9.10907167800002
            ],
            [
              123.55735253400007,
              9.103748267000071
            ],
            [
              123.55958421700007,
              9.101260054000022
            ],
            [
              123.56742608500008,
              9.112562006000076
            ],
            [
              123.57181040900002,
              9.129051274000062
            ]
          ]
        ]
      }
    },
    {
      "type": "Feature",
      "properties": {
        "shapeName": "Siquijor",
        "shapeISO": "",
        "shapeID": "30758251B71387884042840",
        "shapeGroup": "PHL",
        "shapeType": "ADM3",
        "psgc_code": "0706106000",
        "legacy_psgc_code": "076106000",
        "province": "Siquijor",
        "reference_area_sqkm": 84.83689999,
        "reference_bbox": [
          123.452717,
          9.129051,
          123.602175,
          9.239811
        ]
      },
      "geometry": {
        "type": "Polygon",
        "coordinates": [
          [
            [
              123.5692700830001,
              9.239810746000046
            ],
            [
              123.56749422000007,
              9.233948694000048
            ],
            [
              123.56254406500011,
              9.228097723000076
            ],
            [
              123.5576395710001,
              9.225322368000036
            ],
            [
              123.54883298000004,
              9.22394496000004
            ],
            [
              123.52418640000008,
              9.225730687000066
            ],
            [
              123.5188247860001,
              9.222333091000053
            ],
            [
              123.51766503400006,
              9.222955782000042
            ],
            [
              123.51818541800003,
              9.22185590500004
            ],
            [
              123.51460127200005,
              9.217356976000076
            ],
            [
              123.5131061300001,
              9.21676059300006
            ],
            [
              123.51201817700007,
              9.218910676000064
            ],
            [
              123.51315002900003,
              9.216352337000046
            ],
            [
              123.51124792600001,
              9.214015902000028
            ],
            [
              123.50749118600004,
              9.21488120500004
            ],
            [
              123.49761867000007,
              9.213883207000038
            ],
            [
              123.49713947000009,
              9.212694596000063
            ],
            [
              123.4964726290001,
              9.214483035000057
            ],
            [
              123.49084721800011,
              9.215139785000076
            ],
            [
              123.48552676600002,
              9.21970740100005
            ],
            [
              123.48563337300004,
              9.217531704000066
            ],
            [
              123.48203252300004,
              9.221293824000043
            ],
            [
              123.48087686800011,
              9.220105187000058
            ],
            [
              123.48130914900003,
              9.217520292000074
            ],
            [
              123.47892046200002,
              9.218702286000052
            ],
            [
              123.47998713100003,
              9.220887077000043
            ],
            [
              123.47093707700003,
              9.224226858000065
            ],
            [
              123.46662005500002,
              9.221820450000052
            ],
            [
              123.46548719700002,
              9.222664377000058
            ],
            [
              123.4650960250001,
              9.219742161000056
            ],
            [
              123.46298653500003,
              9.217858840000076
            ],
            [
              123.46522452900001,
              9.21704416700004
            ],
            [
              123.46588494200012,
              9.21434357000004
            ],
            [
              123.46389794800007,
              9.214312644000074
            ],
            [
              123.46202430700009,
              9.211593447000041
            ],
            [
              123.45777684400002,
              9.210918229000072
            ],
            [
              123.45959746100004,
              9.210644739000031
            ],
            [
              123.45911528400006,
              9.206596252000054
            ],
            [
              123.46194865200005,
              9.203257592000057
            ],
            [
              123.46101930900011,
              9.199494025000035
            ],
            [
              123.4619617620001,
              9.19895537800005
            ],
            [
              123.45939654200004,
              9.197231574000057
            ],
            [
              123.45677239600002,
              9.198458874000039
            ],
            [
              123.45690199600006,
              9.195713013000045
            ],
            [
              123.45317509100005,
              9.19309314800006
            ],
            [
              123.4613267850001,
              9.192828258000077
            ],
            [
              123.4680262710001,
              9.191452929000036
            ],
            [
              123.46976176600003,
              9.189682355000059
            ],
            [
              123.47488068200005,
              9.189440728000022
            ],
            [
              123.48253247200012,
              9.18494660500005
            ],
            [
              123.48638738900001,
              9.185263700000064
            ],
            [
              123.48807054400004,
              9.183517427000027
            ],
            [
              123.4906373560001,
              9.184337965000054
            ],
            [
              123.49354587100004,
              9.180601355000022
            ],
            [
              123.49952225600009,
              9.181301757000028
            ],
            [
              123.50278392900009,
              9.177426935000028
            ],
            [
              123.50449663400002,
              9.17830669500006
            ],
            [
              123.50973198800011,
              9.175431450000076
            ],
            [
              123.51774285200008,
              9.176382659000069
            ],
            [
              123.52446291900003,
              9.171499692000054
            ],
            [
              123.54187323600001,
              9.166875675000028
            ],
            [
              123.5449940530001,
              9.158050102000061
            ],
            [
              123.54991020600005,
              9.149899030000029
            ],
            [
              123.55109751000009,
              9.142937664000044
            ],
            [
              123.55730284300012,
              9.137378175000038
            ],
            [
              123.5552319730001,
              9.133698355000035
            ],
            [
              123.56814932400005,
              9.13152350200005
            ],
            [
              123.57181040900002,
              9.129051274000062
            ],
            [
              123.57499490300006,
              9.13998446000005
            ],
            [
              123.57174568700009,
              9.142904075000047
            ],
            [
              123.57642347600006,
              9.146600491000072
            ],
            [
              123.57890316700002,
              9.16398171000003
            ],
            [
              123.58516361200009,
              9.162282201000039
            ],
            [
              123.58003738900004,
              9.175867321000055
            ],
            [
              123.58252798800004,
              9.186644371000057
            ],
            [
              123.58183710800006,
              9.192263254000068
            ],
            [
              123.60217470900011,
              9.195491978000064
            ],
            [
              123.59948690700003,
              9.196217488000059
            ],
            [
              123.59528818800004,
              9.200636841000062
            ],
            [
              123.58342187900007,
              9.223386817000062
            ],
            [
              123.57612590800011,
              9.233321250000074
            ],
            [
              123.5763517790001,
              9.235228705000054
            ],
            [
              123.57299142600004,
              9.236030165000045
            ],
            [
              123.5692700830001,
              9.239810746000046
            ]
          ]
        ]
      }
    }
  ]
}
