{"type":"FeatureCollection","source":{"dataset":"geoBoundaries gbOpen PHL ADM3","commit":"9469f09","license":"CC BY 3.0 IGO","boundary_year":2020,"url":"https://media.githubusercontent.com/media/wmgeolab/geoBoundaries/9469f09/releaseData/gbOpen/PHL/ADM3/geoBoundaries-PHL-ADM3_simplified.geojson","upstream_sources":["NAMRIA","PSA","OCHA Philippines"],"reference":"https://data.humdata.org/dataset/cod-ab-phl","psgc_reference":"https://psa.gov.ph/classification/psgc/provinces/0500000000","area_notes":"Bicol references use OCHA Philippines COD-AB v03 published polygon area_sqkm, converted to hectares for the importer comparison. These are polygon checks, not PSA LMB land-area totals. See docs/BICOL_BOUNDARY_SOURCES.md.","notice":"Approximate planning/reference boundaries, not legal, cadastral, or survey-grade."},"features":[{"type":"Feature","properties":{"shapeName":"Barcelona","shapeISO":"","shapeID":"30758251B63978156729606","shapeGroup":"PHL","shapeType":"ADM3","psgc_code":"0506202000","legacy_psgc_code":"056202000","province":"Sorsogon"},"geometry":{"type":"MultiPolygon","coordinates":[[[[124.1581793470001,12.859109110000077],[124.15362032000007,12.857506064000063],[124.15344238300008,12.855439297000032],[124.156474935,12.85577141400006],[124.15547574900006,12.853142869000067],[124.15825660500002,12.854629910000028],[124.15854003700008,12.856416466000042],[124.15726978600003,12.856599506000066],[124.1581793470001,12.859109110000077]]],[[[124.13878447800005,12.874261019000073],[124.13379835700005,12.876507626000034],[124.12554334300012,12.87109608000003],[124.10643581200009,12.872752907000063],[124.08499690600001,12.846872976000043],[124.08563338300007,12.842615402000035],[124.08349537600009,12.840765101000045],[124.08183412300002,12.832515541000078],[124.07810283700007,12.82861785700004],[124.0754870940001,12.82391192600005],[124.07620394000003,12.823037554000052],[124.07337764800002,12.82116680300004],[124.07440338200001,12.816730994000068],[124.07239204400003,12.802737301000036],[124.07213727200008,12.800189371000045],[124.07719586600001,12.794861703000038],[124.08612912700005,12.792009517000054],[124.10593298300012,12.796422333000066],[124.11749996900005,12.803302022000025],[124.1202529630001,12.803205013000024],[124.1255849690001,12.805872805000035],[124.12711296000009,12.804671878000022],[124.13298015600003,12.804886637000038],[124.14227869100012,12.808034467000027],[124.14703359000009,12.807449848000033],[124.14856308100002,12.804686286000049],[124.15421912900001,12.806269263000047],[124.1558129880001,12.808789560000037],[124.15361942900006,12.820703476000062],[124.15485814600004,12.822895852000045],[124.15495779300011,12.832362385000067],[124.15305823100005,12.833967426000072],[124.15123938800002,12.840557250000074],[124.14959791400008,12.842104909000057],[124.14902297600008,12.840759712000022],[124.14681764700003,12.841278427000077],[124.14801374700005,12.841697215000067],[124.14706130900004,12.84469622000006],[124.14850751100005,12.849245277000023],[124.15055727900005,12.849647470000036],[124.15268484700005,12.857404312000028],[124.15516988900004,12.86031698000005],[124.15178636100006,12.862208774000067],[124.15078614000004,12.861391019000052],[124.14392474200008,12.867951247000065],[124.14293105900003,12.87140507600003],[124.13826553400008,12.873014108000064],[124.13878447800005,12.874261019000073]]]]}},{"type":"Feature","properties":{"shapeName":"Bulan","shapeISO":"","shapeID":"30758251B83470150439749","shapeGroup":"PHL","shapeType":"ADM3","psgc_code":"0506203000","legacy_psgc_code":"056203000","province":"Sorsogon"},"geometry":{"type":"Polygon","coordinates":[[[123.9587978400001,12.731132729000024],[123.95148784600008,12.73013383600005],[123.95085886100003,12.732540677000031],[123.95411798600003,12.756196067000076],[123.95445907100009,12.771617027000048],[123.94072308000011,12.768975278000028],[123.94073108100008,12.766002365000077],[123.84604391100004,12.754488909000031],[123.85017269900004,12.719165831000055],[123.85873477500002,12.69698543900006],[123.86085299000001,12.686488288000021],[123.86708019500009,12.681672417000073],[123.87125892200004,12.673751633000052],[123.87256704200001,12.667889112000069],[123.87231348500006,12.666467806000071],[123.8709469590001,12.666482677000033],[123.87090481100006,12.665262301000041],[123.87109173200008,12.666303567000057],[123.87312810500009,12.665372594000075],[123.87033255300003,12.664559979000046],[123.87303957300003,12.664018644000066],[123.87471473500011,12.655680752000023],[123.87996217000011,12.65354669900006],[123.88855735200002,12.647220794000077],[123.88970619600002,12.64497297500003],[123.89077011400002,12.645916929000066],[123.89181865700004,12.644377673000065],[123.90570833800007,12.642146295000032],[123.91269277000004,12.638399371000048],[123.91638076100003,12.619442062000076],[123.9178707100001,12.61814638800007],[123.92545389600002,12.617129395000063],[123.9269166690001,12.623919528000044],[123.93062288500005,12.629040595000049],[123.9388562690001,12.625296994000053],[123.94070388500006,12.61684665000007],[123.9366498710001,12.613784207000037],[123.93738999300001,12.61160003200007],[123.9387102070001,12.612033432000032],[123.94045173100005,12.61027122400003],[123.941972931,12.605997609000042],[123.93737946300007,12.603167793000068],[123.93764942300004,12.59960486700004],[123.93979143700005,12.598350676000052],[123.9445984890001,12.602541165000048],[123.94687668300003,12.601404166000066],[123.945762564,12.599263415000053],[123.9476732810001,12.59078865600003],[123.94919176700012,12.588874721000025],[123.95124532400007,12.589240202000042],[123.95601370200006,12.58396100400006],[123.95637164200002,12.576157253000076],[123.95819119200007,12.574530816000049],[123.96181676800006,12.574406064000073],[123.9643731000001,12.569381776000057],[123.96828157900006,12.568364830000064],[123.97080400400012,12.561131170000067],[123.97390763400006,12.559009839000055],[123.97466665700006,12.553846298000053],[123.97559849400011,12.556559481000022],[123.98845651400006,12.639481163000028],[123.98988337800006,12.659004734000064],[123.99430548100008,12.664817979000077],[123.98840207700005,12.669049909000023],[123.98672596200004,12.672366477000025],[123.9870834830001,12.675118354000062],[123.9773488290001,12.691898566000077],[123.9587978400001,12.731132729000024]]]}},{"type":"Feature","properties":{"shapeName":"Bulusan","shapeISO":"","shapeID":"30758251B89540499101387","shapeGroup":"PHL","shapeType":"ADM3","psgc_code":"0506204000","legacy_psgc_code":"056204000","province":"Sorsogon"},"geometry":{"type":"Polygon","coordinates":[[[124.07239204400003,12.802737301000036],[124.06131504200005,12.79895861500006],[124.0446170250001,12.790709260000028],[124.0490979430001,12.777380133000065],[124.10528537800008,12.692905526000061],[124.11893837000002,12.695690266000042],[124.130766504,12.691976619000059],[124.13186304700002,12.694197839000026],[124.1389819960001,12.696795097000063],[124.14215540600003,12.699786189000065],[124.14012340500005,12.707089990000043],[124.13824592200001,12.708395004000067],[124.13951629000007,12.712983089000033],[124.13577487700002,12.717824237000059],[124.1368110310001,12.719392286000073],[124.13473853700009,12.722587743000076],[124.13459118500009,12.726140316000055],[124.13231243500002,12.728670221000073],[124.13154629000007,12.73340038400005],[124.13359621900008,12.73788713600004],[124.13639109700011,12.73933016500007],[124.13801936700008,12.747060676000046],[124.13685095400001,12.749219702000062],[124.13928783600011,12.751122416000044],[124.14038171800007,12.756331535000072],[124.13744271000007,12.765295090000052],[124.14213480800004,12.770296876000032],[124.14852556200003,12.77270730400005],[124.14969350100012,12.77488025100007],[124.14989326700004,12.784755398000073],[124.14759031800008,12.788478152000039],[124.149289629,12.790742658000056],[124.14949155700003,12.796800738000059],[124.1515751180001,12.798361788000022],[124.15421912900001,12.806269263000047],[124.14856308100002,12.804686286000049],[124.14703359000009,12.807449848000033],[124.14227869100012,12.808034467000027],[124.13298015600003,12.804886637000038],[124.12711296000009,12.804671878000022],[124.1255849690001,12.805872805000035],[124.1202529630001,12.803205013000024],[124.11749996900005,12.803302022000025],[124.10593298300012,12.796422333000066],[124.08612912700005,12.792009517000054],[124.07719586600001,12.794861703000038],[124.07213727200008,12.800189371000045],[124.07239204400003,12.802737301000036]]]}},{"type":"Feature","properties":{"shapeName":"Casiguran","shapeISO":"","shapeID":"30758251B58212609685015","shapeGroup":"PHL","shapeType":"ADM3","psgc_code":"0506205000","legacy_psgc_code":"056205000","province":"Sorsogon"},"geometry":{"type":"Polygon","coordinates":[[[124.07620394000003,12.823037554000052],[124.07418115700011,12.823628886000051],[124.06968320700003,12.831139405000044],[124.0668645610001,12.83946512500006],[124.0691463180001,12.844767515000058],[124.0672105650001,12.850273043000072],[124.0742838860001,12.917306756000073],[124.0726355600001,12.926738759000045],[124.06805774500003,12.926807985000039],[124.054542749,12.936287165000067],[124.04069584600006,12.936238639000067],[124.04135521800004,12.925133588000051],[124.03563917000008,12.91964835300007],[124.03278417400008,12.909814479000033],[124.02666379400011,12.907273905000068],[124.0282561350001,12.905377674000022],[124.02630040400004,12.904441663000057],[124.02927183200006,12.899779335000062],[124.02699354600009,12.890206300000045],[124.02309404700009,12.886617708000074],[124.01717273200006,12.876566026000035],[124.00807779900003,12.87548838500004],[124.00647382800003,12.877456553000059],[124.00690234600006,12.875655011000049],[124.00395418100004,12.875521024000022],[124.00137390300006,12.871062883000036],[123.99708410200003,12.869063883000024],[123.99615071100004,12.86672365100003],[123.99681064300012,12.864277309000045],[123.99718524200011,12.862860554000065],[123.99726428300005,12.862570937000044],[123.99770523900008,12.86176371700003],[124.01133745200002,12.830660992000048],[124.01280623700006,12.819154516000026],[124.017348491,12.805506990000026],[124.02611817200011,12.798896],[124.0329196350001,12.796896037000067],[124.03527673400004,12.793681810000066],[124.04082532200005,12.79390317800005],[124.04439967400003,12.792116745000044],[124.0446170250001,12.790709260000028],[124.06131504200005,12.79895861500006],[124.07239204400003,12.802737301000036],[124.07440338200001,12.816730994000068],[124.07337764800002,12.82116680300004],[124.07620394000003,12.823037554000052]]]}},{"type":"Feature","properties":{"shapeName":"Castilla","shapeISO":"","shapeID":"30758251B41591816430114","shapeGroup":"PHL","shapeType":"ADM3","psgc_code":"0506206000","legacy_psgc_code":"056206000","province":"Sorsogon"},"geometry":{"type":"MultiPolygon","coordinates":[[[[123.76522843000009,12.836896252000031],[123.76932117400008,12.841253508000023],[123.77029220300005,12.850610388000064],[123.76920586200004,12.845716100000061],[123.76384371300003,12.840602561000026],[123.76522843000009,12.836896252000031]]],[[[123.80986549200009,12.874120295000068],[123.81397165700002,12.868550201000062],[123.81262364300005,12.872317470000041],[123.80986549200009,12.874120295000068]]],[[[123.83534404700004,12.87507671700007],[123.83431135300009,12.874193816000059],[123.83910859500008,12.873957836000045],[123.83534404700004,12.87507671700007]]],[[[123.84077289800007,12.881679056000053],[123.83952343600004,12.881666898000049],[123.84177566800008,12.880767831000071],[123.84077289800007,12.881679056000053]]],[[[123.83969424600002,12.884048275000055],[123.836160876,12.880781231000071],[123.83887832000005,12.880991702000074],[123.839165481,12.882812534000038],[123.84089175600002,12.883225767000056],[123.83969424600002,12.884048275000055]]],[[[123.88318814000002,12.976813894000031],[123.87862903500002,12.978756519000058],[123.87570746300003,12.985243413000035],[123.87810839600002,12.998122485000067],[123.87702450000006,13.003626870000062],[123.87897852000003,13.007677589000025],[123.87950555400005,13.013848173000042],[123.87525861600011,13.023592543000063],[123.87696966100009,13.031891979000022],[123.88091670600011,13.041047344000049],[123.87528872300004,13.042301291000058],[123.86231079600009,13.041738276000046],[123.82253470700005,13.024403777000032],[123.80564823300006,13.01902807700003],[123.79580100900012,13.00997149400007],[123.79577553900003,13.00827792900003],[123.79103751700006,13.006643661000055],[123.78878227900009,13.004136533000064],[123.78710748200001,13.004534288000059],[123.78599322600007,12.997146809000071],[123.76831921000007,12.986435139000037],[123.768752,12.983165],[123.76744999700009,12.98133824100006],[123.76053982700012,12.977139863000048],[123.76187573700008,12.971838329000036],[123.75872451100008,12.970980717000032],[123.760398,12.96785460700005],[123.75828240900012,12.965561732000026],[123.75886744700006,12.962725186000057],[123.75608715300007,12.96104043500003],[123.7549898420001,12.95475570900004],[123.75861625300001,12.954039278000039],[123.76264176900008,12.950752388000069],[123.765352,12.94489],[123.7633065340001,12.939968436000072],[123.75737630300011,12.934473152000066],[123.75766528000008,12.930463419000034],[123.74798124500012,12.921401079000077],[123.74814149500003,12.894544665000069],[123.75217016600004,12.878192143000035],[123.75015649000011,12.871301111000037],[123.7516923500001,12.863582431000054],[123.74824657700003,12.848461868000072],[123.76333428800001,12.867212832000064],[123.76286521600002,12.87747005400007],[123.76190125800008,12.878243458000043],[123.76245845100004,12.874688869000067],[123.7598045420001,12.876746608000076],[123.75770080000007,12.87402809200006],[123.75943497100002,12.880442152000057],[123.7630395440001,12.879068654000037],[123.76692510900011,12.88192695600003],[123.76632512600008,12.882680981000021],[123.76943556300012,12.879451686000039],[123.76950331000012,12.880712539000058],[123.77148721100002,12.881221056000072],[123.77189376700005,12.875871833000076],[123.77508588500007,12.876371260000042],[123.7769423850001,12.873055264000072],[123.7800547810001,12.872651606000034],[123.77896443100008,12.870905639000057],[123.78072284500001,12.868873447000055],[123.78575393300002,12.867131523000069],[123.78940874000011,12.867847801000039],[123.79055957900005,12.864115249000065],[123.79611849700007,12.862809809000055],[123.79719965900006,12.867044685000053],[123.79862926700002,12.867701199000066],[123.80114703100003,12.865638104000027],[123.80628367000008,12.866130009000074],[123.80599135600005,12.870726214000058],[123.80947369400008,12.870933089000061],[123.80897024400008,12.876132139000049],[123.81404469200004,12.87533673200005],[123.81495468000003,12.877183549000051],[123.81391847500004,12.879006266000033],[123.8172590590001,12.881007116000035],[123.81515173600008,12.884550776000026],[123.81572458200003,12.890104749000045],[123.819535502,12.890178427000023],[123.81878681500007,12.888518401000056],[123.81996083400009,12.887111351000044],[123.81882415700011,12.886025386000028],[123.82125052900005,12.883732474000055],[123.82105076500011,12.88165552700002],[123.82361584800003,12.88131618500006],[123.8203731320001,12.877597295000044],[123.8202026130001,12.875094621000073],[123.82932095300009,12.87566029900006],[123.82786087800002,12.878002060000028],[123.83041468800002,12.879388931000051],[123.82943107400001,12.881308958000034],[123.83183675600003,12.88343204000006],[123.83068334000006,12.885443776000045],[123.83366384100009,12.889552039000023],[123.83615301700002,12.890427679000027],[123.83076219500003,12.897008013000061],[123.83517488000007,12.896635078000031],[123.83281693700008,12.900237725000068],[123.83500309500005,12.898347503000025],[123.83337036500006,12.901791179000043],[123.83404806400006,12.904138268000054],[123.83631130200001,12.902666638000028],[123.83672467000008,12.904770550000023],[123.83967184300002,12.904463212000053],[123.8486528630001,12.897814112000049],[123.84983564100003,12.89906282800007],[123.84886067700006,12.900923201000069],[123.85030385400012,12.901370826000061],[123.85183146400004,12.898732185000028],[123.85522726800002,12.897953054000027],[123.854808165,12.902971980000075],[123.8581280300001,12.903609758000073],[123.85625922000008,12.905068429000039],[123.85943815400003,12.90762637000006],[123.85624334400006,12.908324788000073],[123.85806540800002,12.91195708400005],[123.85748266400003,12.916069872000037],[123.85910276000004,12.918746756000075],[123.86068973700003,12.916764536000073],[123.86151123700006,12.917637612000021],[123.85925692600006,12.921736235000026],[123.86602584600007,12.923512412000036],[123.86558421500001,12.925097556000026],[123.86728424800003,12.926206771000068],[123.86945173300012,12.925456014000076],[123.868390814,12.92880311700003],[123.86891455600005,12.93073954600004],[123.87160451000011,12.931878390000065],[123.87047009100002,12.93314685300004],[123.87115419700001,12.934835847000045],[123.87735044100009,12.936050086000023],[123.87943509600007,12.933803303000047],[123.8807435760001,12.934208911000042],[123.8801202730001,12.937116010000068],[123.88167684000007,12.93778569400007],[123.87873871600004,12.940720319000036],[123.87820270600002,12.945929430000035],[123.87462148600002,12.944713095000054],[123.87299232500004,12.944845884000074],[123.87274594900009,12.946241260000022],[123.88168734800001,12.947533168000064],[123.8836283280001,12.95242945900003],[123.88277892400004,12.954163348000066],[123.88410908000003,12.955314520000059],[123.87955615600004,12.959530974000074],[123.88124827500008,12.959802019000051],[123.88201406100006,12.962982650000072],[123.88318814000002,12.976813894000031]]]]}},{"type":"Feature","properties":{"shapeName":"Donsol","shapeISO":"","shapeID":"30758251B78827955884904","shapeGroup":"PHL","shapeType":"ADM3","psgc_code":"0506207000","legacy_psgc_code":"056207000","province":"Sorsogon"},"geometry":{"type":"Polygon","coordinates":[[[123.62025036800003,13.022980362000055],[123.59128947400006,13.022710146000065],[123.5891038530001,13.019519936000052],[123.58667824100007,13.022399644000075],[123.57848434800007,13.026367048000054],[123.57911460000003,13.030370636000043],[123.57578107000006,13.030249601000037],[123.56631518900008,13.026975099000026],[123.56591417700008,13.023890049000045],[123.56306575500003,13.023074812000061],[123.5573562840001,13.025738002000026],[123.54809213500005,13.024415272000056],[123.53782893100004,13.018134173000021],[123.51782511400006,13.012754216000076],[123.50589231100003,13.007606311000075],[123.50113409000005,13.004186880000077],[123.49216108500002,13.000911147000068],[123.48432882700001,12.995006767000064],[123.48499840000011,12.993469494000067],[123.48319711700003,12.99233120200006],[123.48226570000008,12.988444596000022],[123.49394217000008,12.982255106000025],[123.49864280300005,12.972962504000066],[123.50911945700011,12.964122459000066],[123.51281939700004,12.957044112000062],[123.52282102200002,12.948843397000076],[123.52360229100009,12.946123175000025],[123.52448445700009,12.947201024000037],[123.52718077000009,12.939608495000073],[123.52978984000003,12.937252102000059],[123.53280732000007,12.93746199800006],[123.5350316890001,12.940002529000026],[123.5335026250001,12.942709419000039],[123.53406473000007,12.94584332900007],[123.53752466000003,12.949042591000023],[123.54452428500008,12.950029194000024],[123.5525429280001,12.947717793000038],[123.55597734900005,12.946071962000076],[123.56984348600008,12.93276196000005],[123.57252085700009,12.927445447000025],[123.5856275970001,12.913304179000022],[123.58850471500011,12.907759011000053],[123.58814319900011,12.905584285000032],[123.59177137400002,12.905814812000074],[123.59309720200008,12.902751757000033],[123.59581944900003,12.901310525000042],[123.59869122600003,12.902061938000031],[123.61855520900008,12.898504222000042],[123.62401330800003,12.895602580000059],[123.62708229300006,12.895671045000029],[123.63313218000008,12.898613454000042],[123.63100607700005,12.900761251000063],[123.6283812590001,12.898398607000047],[123.62510505800003,12.899719895000032],[123.62602132800009,12.907592291000071],[123.63204743400001,12.90828938900006],[123.63341649100005,12.910575391000066],[123.63813902000004,12.907627025000068],[123.6416830600001,12.908809800000029],[123.64122452000004,12.910416831000077],[123.64258728300001,12.911526754000022],[123.64093739700002,12.913180925000063],[123.64298582700008,12.91382373700003],[123.64173877000007,12.914333702000022],[123.64303725200011,12.916082152000058],[123.64261728100007,12.919373352000036],[123.63810473700005,12.921567486000072],[123.638349005,12.925750053000058],[123.63666483700001,12.928972686000066],[123.63792474900004,12.929366945000027],[123.63681911200001,12.931462513000042],[123.63759048700001,12.93433802800007],[123.63530207400004,12.937886353000067],[123.638764691,12.941396110000028],[123.63734621800006,12.94188893300003],[123.63746192400004,12.943534533000047],[123.63908181200009,12.943157416000076],[123.63944607200006,12.947279987000059],[123.6415630680001,12.949011296000037],[123.64057313700005,12.949602683000023],[123.64149450100001,12.952088225000068],[123.63744317500004,12.954824464000069],[123.63856166900007,12.95481482200006],[123.63825311900007,12.957408570000041],[123.64062509700011,12.95742785400006],[123.64150253700006,12.959925181000074],[123.63869666000005,12.965151247000051],[123.6401526300001,12.965344091000077],[123.6393812550001,12.965951549000067],[123.6427753050001,12.971486165000044],[123.64626577700005,12.971929705000036],[123.64341169000011,12.974195620000046],[123.6435563230001,12.976230121000071],[123.64261138800009,12.976056562000053],[123.64372988200012,12.977811440000039],[123.64233176500011,12.979556676000072],[123.63634396600003,12.980472684000063],[123.6376842300001,12.98310500100007],[123.63665251600003,12.981658673000027],[123.63446373900001,12.98309535900006],[123.63405876700006,12.981677957000045],[123.63143609200006,12.981340481000075],[123.62901848100012,12.984558021000055],[123.63006998100002,12.986441304000039],[123.63271599400002,12.986858766000068],[123.63109637100001,12.989106150000055],[123.6332621460001,12.993241526000077],[123.63013806900005,12.994538186000057],[123.62920696200001,12.998817989000031],[123.6278595120001,12.999038296000037],[123.62993308400007,13.004749915000048],[123.62899205400004,13.007118173000038],[123.63119015200004,13.00942937700006],[123.6274331410001,13.009223667000072],[123.62737492100007,13.010450376000051],[123.62840243000005,13.010109658000033],[123.62853865800002,13.01235749500006],[123.62522648200002,13.015066313000034],[123.62563975900002,13.016341324000052],[123.62086545200009,13.018160753000075],[123.61982037500002,13.020419983000068],[123.62187127600009,13.021142118000057],[123.62025036800003,13.022980362000055]]]}},{"type":"Feature","properties":{"shapeName":"Gubat","shapeISO":"","shapeID":"30758251B1476462816000","shapeGroup":"PHL","shapeType":"ADM3","psgc_code":"0506208000","legacy_psgc_code":"056208000","province":"Sorsogon"},"geometry":{"type":"Polygon","coordinates":[[[124.13878447800005,12.874261019000073],[124.1405299810001,12.876045099000066],[124.1400284340001,12.879192193000051],[124.14279289700005,12.885754445000032],[124.14652141500005,12.88412691700006],[124.14804121100008,12.885466009000027],[124.14835523700003,12.888804528000037],[124.14663824200011,12.889624405000063],[124.14865873600002,12.892585520000068],[124.14705426400008,12.896371526000053],[124.14393145200006,12.899112063000075],[124.14147810100008,12.897276249000072],[124.14031211000008,12.895039199000053],[124.14163844400002,12.894584535000035],[124.14027833800003,12.893932585000073],[124.14291330000003,12.891519600000038],[124.13837383000009,12.893491251000057],[124.13187559700009,12.891076444000078],[124.12644213100009,12.89207077900005],[124.12108485500005,12.898311083000067],[124.1172798,12.908252],[124.12044393800011,12.91337474900007],[124.12517521900008,12.912374020000073],[124.13126852900007,12.915991940000026],[124.12820243300007,12.918865916000073],[124.12713632000009,12.917205361000072],[124.12532847400007,12.924579530000074],[124.12684927700002,12.928334988000074],[124.13012025100011,12.930000501000052],[124.13333890800004,12.929699715000027],[124.13365738700008,12.933031031000041],[124.13616625300006,12.931984232000048],[124.13899444200001,12.933612167000035],[124.13816196700009,12.931568235000043],[124.142634745,12.934508751000067],[124.14123742000004,12.936158284000044],[124.14400369700002,12.941076343000077],[124.14722456600009,12.95513612700006],[124.1461977780001,12.959297668000033],[124.14408379800011,12.961107656000024],[124.14640790600004,12.961426471000038],[124.14838892000012,12.965997806000075],[124.15357044200005,12.969701135000037],[124.15192734400011,12.97146299600007],[124.14702555600002,12.971974333000048],[124.14543953100008,12.969366267000055],[124.14230615100007,12.968371958000034],[124.14026540600003,12.969468342000027],[124.14032236800006,12.971541942000044],[124.1415040920001,12.979983013000037],[124.14324454500002,12.983614594000073],[124.14657596500001,12.985075843000061],[124.14635542700012,12.987158155000031],[124.14872146000005,12.987410294000028],[124.1479530580001,12.990146749000075],[124.14994525100008,12.990630191000037],[124.1488915430001,12.994238027000051],[124.1502369850001,12.996194591000062],[124.13851524200004,12.997106292000069],[124.13642211000001,13.012407870000061],[124.13528510200001,13.010696991000032],[124.11911109500011,13.004505494000057],[124.11598005000008,12.99548311600006],[124.08451274600009,12.966750295000054],[124.080194602,12.966966723000041],[124.07211335800002,12.964561591000063],[124.06885968000006,12.962127365000072],[124.06720688900009,12.956768963000059],[124.0726355600001,12.926738759000045],[124.0742838860001,12.917306756000073],[124.0672105650001,12.850273043000072],[124.0691463180001,12.844767515000058],[124.0668645610001,12.83946512500006],[124.06968320700003,12.831139405000044],[124.07418115700011,12.823628886000051],[124.07620394000003,12.823037554000052],[124.0754870940001,12.82391192600005],[124.07810283700007,12.82861785700004],[124.08183412300002,12.832515541000078],[124.08349537600009,12.840765101000045],[124.08563338300007,12.842615402000035],[124.08499690600001,12.846872976000043],[124.10643581200009,12.872752907000063],[124.12554334300012,12.87109608000003],[124.13379835700005,12.876507626000034],[124.13878447800005,12.874261019000073]]]}},{"type":"Feature","properties":{"shapeName":"Irosin","shapeISO":"","shapeID":"30758251B81086391606543","shapeGroup":"PHL","shapeType":"ADM3","psgc_code":"0506209000","legacy_psgc_code":"056209000","province":"Sorsogon"},"geometry":{"type":"Polygon","coordinates":[[[123.99430548100008,12.664817979000077],[123.99726442300005,12.667376822000051],[124.0071947890001,12.661321057000066],[124.03019621100009,12.639014561000067],[124.04179123000006,12.646071023000047],[124.04010730900006,12.659897099000034],[124.07972835800001,12.681220450000069],[124.10528537800008,12.692905526000061],[124.0490979430001,12.777380133000065],[124.01743494900006,12.768674888000021],[123.98916594000002,12.758424730000058],[123.97951466800009,12.750739018000047],[123.9799042730001,12.743016501000056],[123.98327156800008,12.73918307200006],[123.9587978400001,12.731132729000024],[123.9773488290001,12.691898566000077],[123.9870834830001,12.675118354000062],[123.98672596200004,12.672366477000025],[123.98840207700005,12.669049909000023],[123.99430548100008,12.664817979000077]]]}},{"type":"Feature","properties":{"shapeName":"Juban","shapeISO":"","shapeID":"30758251B25814545213885","shapeGroup":"PHL","shapeType":"ADM3","psgc_code":"0506210000","legacy_psgc_code":"056210000","province":"Sorsogon"},"geometry":{"type":"MultiPolygon","coordinates":[[[[123.92100004800011,12.856091160000062],[123.92028148300005,12.85544172300007],[123.92196123800011,12.85589471000003],[123.92100004800011,12.856091160000062]]],[[[123.90625585200007,12.865584366000064],[123.90184399500004,12.862848371000041],[123.89955903300006,12.863394464000066],[123.90026289100001,12.86064883000006],[123.90459074500006,12.862864098000045],[123.90577187500003,12.860566292000044],[123.90476290000004,12.85884248900004],[123.90745373300001,12.860615438000025],[123.91015110600006,12.859137891000046],[123.90880760800007,12.862588771000048],[123.90616633900004,12.863769267000066],[123.90625585200007,12.865584366000064]]],[[[123.99615071100004,12.86672365100003],[123.99550139900009,12.86496246300004],[123.99681064300012,12.864277309000045],[123.99615071100004,12.86672365100003]]],[[[123.9587978400001,12.731132729000024],[123.98327156800008,12.73918307200006],[123.9799042730001,12.743016501000056],[123.97951466800009,12.750739018000047],[123.98916594000002,12.758424730000058],[124.01743494900006,12.768674888000021],[124.0490979430001,12.777380133000065],[124.0446170250001,12.790709260000028],[124.04439967400003,12.792116745000044],[124.04082532200005,12.79390317800005],[124.03527673400004,12.793681810000066],[124.0329196350001,12.796896037000067],[124.02611817200011,12.798896],[124.017348491,12.805506990000026],[124.01280623700006,12.819154516000026],[124.01133745200002,12.830660992000048],[123.99770523900008,12.86176371700003],[123.9896013660001,12.864707260000046],[123.99140664900006,12.86707780100005],[123.99304871900006,12.867063718000054],[123.9909934740001,12.87189126000004],[123.98817326200003,12.872850721000077],[123.99011529000006,12.876996057000042],[123.9824609850001,12.875143352000066],[123.98624037400009,12.878049404000024],[123.98622927200006,12.879826065000032],[123.97798486200008,12.87954478000006],[123.97626458800005,12.880991218000077],[123.9747241130001,12.879352709000045],[123.97492036300002,12.876551303000042],[123.96594311800004,12.87908101100004],[123.96302425300007,12.878454065000028],[123.9621729590001,12.876109390000067],[123.95514219100005,12.87631702300007],[123.95551824600011,12.874522213000034],[123.95285480700011,12.876419075000058],[123.94988661100001,12.876194911000027],[123.94571498000005,12.873424919000058],[123.94583789400008,12.872182020000025],[123.94038727400005,12.86958738800007],[123.93950241400012,12.867643507000025],[123.94122893600002,12.869188904000055],[123.94319511300012,12.868341520000058],[123.94162753800003,12.865351365000038],[123.94483742600005,12.859441267000022],[123.94421925800009,12.851407223000024],[123.9453916110001,12.848715362000064],[123.94354976400007,12.849265313000046],[123.94365192900011,12.847727348000035],[123.94253581100008,12.84808092000003],[123.940636777,12.852096113000073],[123.94082114800005,12.855529900000022],[123.93964706300005,12.855871775000026],[123.93642208000006,12.844484323000074],[123.93219542000008,12.845207143000039],[123.93235099000003,12.84895205600003],[123.92911012200011,12.853512652000063],[123.92714925500002,12.850097066000046],[123.9274327490001,12.846791455000073],[123.92526756900008,12.844821548000027],[123.92090376200008,12.849906163000071],[123.92059851500005,12.852633764000075],[123.91776323700003,12.851674632000027],[123.91814624100004,12.849405438000076],[123.91667643300002,12.848817459000031],[123.91434049200006,12.855200686000046],[123.91230044400004,12.857084654000062],[123.9109642630001,12.856152992000034],[123.91374228000006,12.847871114000043],[123.92328857000007,12.840609406000056],[123.92864247400007,12.828491249000024],[123.92922242100008,12.824673321000034],[123.92759738200004,12.819482952000044],[123.93286433500009,12.812567388000048],[123.93921621700008,12.79324665400003],[123.94072308000011,12.768975278000028],[123.95445907100009,12.771617027000048],[123.95411798600003,12.756196067000076],[123.95085886100003,12.732540677000031],[123.95148784600008,12.73013383600005],[123.9587978400001,12.731132729000024]]],[[[123.88664127200002,12.888577431000044],[123.88082902000008,12.885456345000023],[123.88420640900006,12.875078573000053],[123.88767847500003,12.869401653000068],[123.89186576200007,12.872715334000077],[123.8963955690001,12.868624037000075],[123.89934844600009,12.869430592000072],[123.89939023800002,12.867509286000029],[123.90366778400005,12.868740315000025],[123.90292289600006,12.872618964000026],[123.89967872500006,12.876190480000048],[123.9021445940001,12.880635960000063],[123.89264313700005,12.879095600000028],[123.89020100900007,12.887477464000028],[123.88664127200002,12.888577431000044]]]]}},{"type":"Feature","properties":{"shapeName":"Magallanes","shapeISO":"","shapeID":"30758251B24930162212883","shapeGroup":"PHL","shapeType":"ADM3","psgc_code":"0506211000","legacy_psgc_code":"056211000","province":"Sorsogon"},"geometry":{"type":"MultiPolygon","coordinates":[[[[123.80163155000002,12.839801129000023],[123.79721853,12.839044023000042],[123.79358598500005,12.836013126000068],[123.79126209700007,12.836256923000064],[123.79085481100003,12.832256036000047],[123.79904860600004,12.830343967000033],[123.80018444900008,12.827576061000059],[123.8095308500001,12.822534370000028],[123.81387248800002,12.823433863000048],[123.81735061900008,12.822097392000046],[123.81963689000008,12.817754402000048],[123.82745018300011,12.821061198000052],[123.8289336260001,12.824648204000027],[123.82682861900003,12.831451524000045],[123.82293763300004,12.832533196000043],[123.81679628200004,12.831298082000046],[123.80969853400006,12.838200290000032],[123.80163155000002,12.839801129000023]]],[[[123.94072308000011,12.768975278000028],[123.93921621700008,12.79324665400003],[123.93286433500009,12.812567388000048],[123.92759738200004,12.819482952000044],[123.92922242100008,12.824673321000034],[123.92864247400007,12.828491249000024],[123.92328857000007,12.840609406000056],[123.91374228000006,12.847871114000043],[123.9109642630001,12.856152992000034],[123.91060139100011,12.852261999000063],[123.90837955000006,12.850798603000044],[123.90645743400012,12.851311414000065],[123.90529088700009,12.853283099000066],[123.89989581700002,12.855614256000024],[123.89911164500006,12.858583],[123.89536003400008,12.85701599400005],[123.89537834400005,12.859226523000075],[123.8915721190001,12.863539186000025],[123.88262674400005,12.865611556000033],[123.87696578200007,12.870927476000077],[123.872768629,12.870609135000052],[123.86827599100002,12.873245903000054],[123.86169538700005,12.87365797800004],[123.85854429100004,12.875556940000024],[123.85902997700009,12.867048235000027],[123.86387017400011,12.859425960000067],[123.85730085600005,12.856252866000034],[123.85155235800005,12.858171070000026],[123.84712730000001,12.856972988000052],[123.84661330000006,12.854605543000048],[123.84966855300001,12.852821792000043],[123.85333992500011,12.853854553000076],[123.85539993200007,12.847550562000038],[123.85181841100007,12.846318016000055],[123.84820689500009,12.848020194000071],[123.84578956100006,12.84591047500004],[123.84632338900008,12.842979324000055],[123.84283995800001,12.840055978000066],[123.84278937600004,12.837639133000039],[123.83809536700005,12.838326938000023],[123.83574037200003,12.837301224000043],[123.84143128500011,12.831346758000052],[123.84059840300006,12.83073100100006],[123.84192159500003,12.829480904000036],[123.84067208700003,12.829772836000075],[123.84033579900006,12.827331746000027],[123.838094038,12.832983231000071],[123.83637209200003,12.831851699000026],[123.83693476200006,12.832979457000022],[123.8357651450001,12.83281874100004],[123.83575318600003,12.831160664000038],[123.8329261880001,12.829271296000059],[123.83029586500004,12.82950941300004],[123.83250403300008,12.829284651000023],[123.83045498600006,12.827844327000037],[123.83574205900004,12.824948301000063],[123.84000786800004,12.819975982000074],[123.83935641000005,12.818034509000029],[123.84306161500001,12.804940981000072],[123.84589132600001,12.802121759000045],[123.84549610800002,12.786120888000028],[123.8444723770001,12.786329525000042],[123.84589164300007,12.778761718000055],[123.84604391100004,12.754488909000031],[123.94073108100008,12.766002365000077],[123.94072308000011,12.768975278000028]]]]}},{"type":"Feature","properties":{"shapeName":"Matnog","shapeISO":"","shapeID":"30758251B19439306687504","shapeGroup":"PHL","shapeType":"ADM3","psgc_code":"0506212000","legacy_psgc_code":"056212000","province":"Sorsogon"},"geometry":{"type":"MultiPolygon","coordinates":[[[[124.08703063200005,12.548569143000066],[124.08944004600005,12.543739813000059],[124.09078907600008,12.54796346300003],[124.08703063200005,12.548569143000066]]],[[[124.10701618100006,12.550443775000076],[124.10365777600009,12.548694070000067],[124.10549293000008,12.543496523000044],[124.1024193290001,12.540265246000047],[124.10256299600007,12.542345813000054],[124.100994592,12.541947219000065],[124.09909948500001,12.544000913000048],[124.09839337300002,12.542304208000076],[124.09782543400001,12.542552642000032],[124.09754410300002,12.543544864000069],[124.09721046900006,12.543431741000063],[124.0971493400001,12.543608248000055],[124.09831701400003,12.543655514000022],[124.09753385500005,12.543737534000059],[124.09630008200008,12.543496351000044],[124.09486695700002,12.541301385000054],[124.09235591800007,12.53255267700007],[124.08896375200004,12.528344126000036],[124.090588249,12.523738798000068],[124.09727584100006,12.524830234000035],[124.10094310200009,12.528189522000048],[124.10486158200001,12.529354856000054],[124.1046349610001,12.53179214100004],[124.10609394000005,12.532443244000035],[124.10349453300012,12.535547070000064],[124.10441652600002,12.54121585300004],[124.10778044000006,12.541920826000023],[124.11025625500008,12.544498632000057],[124.11352143600004,12.542924723000056],[124.11173174300006,12.549386038000023],[124.10701618100006,12.550443775000076]]],[[[124.11515002600004,12.561003739000057],[124.11114668000005,12.558504895000056],[124.10905907800009,12.552324953000038],[124.11334221100003,12.551799930000072],[124.11506126600011,12.546814165000058],[124.11780239900008,12.544281678000061],[124.11614783300001,12.552203686000041],[124.11962272000005,12.556942351000032],[124.11839283600011,12.56010599700005],[124.11515002600004,12.561003739000057]]],[[[124.0985426950001,12.567901992000031],[124.09737615100005,12.567301049000037],[124.09858134000001,12.566206633000036],[124.09781581200002,12.565414256000054],[124.09948498200004,12.565670688000068],[124.0985426950001,12.567901992000031]]],[[[124.09809319200008,12.570969002000027],[124.09856634000005,12.568183913000041],[124.09965034800007,12.56915299700006],[124.09809319200008,12.570969002000027]]],[[[124.12424177000003,12.585133101000054],[124.12224472500009,12.581057420000036],[124.12270199500006,12.577783281000052],[124.1261990050001,12.577545666000049],[124.12885038400009,12.579039016000024],[124.12998097700006,12.58194504100004],[124.12424177000003,12.585133101000054]]],[[[123.97559849400011,12.556559481000022],[123.98332457700008,12.553913613000077],[123.98989346500002,12.54461464700006],[123.99422236900011,12.546173889000045],[123.99525392800001,12.547929423000028],[123.99837431200001,12.544928913000035],[123.99667146100012,12.542892881000057],[123.9978158130001,12.541554463000068],[124.01096867100011,12.53981823600003],[124.01261179900007,12.541596390000052],[124.01442677800003,12.539263227000049],[124.02141089300005,12.536649319000048],[124.02026740600002,12.538608345000057],[124.02088355500007,12.543554586000027],[124.02178252100009,12.542615305000027],[124.02342932800002,12.544433990000073],[124.02294494900002,12.541177781000044],[124.0216235800001,12.54206005900005],[124.02522262500008,12.534877306000055],[124.02679257200009,12.53489690500004],[124.02752256800011,12.537319086000025],[124.03192290000004,12.536221407000028],[124.03220411300003,12.540986858000053],[124.03538694500003,12.547981250000078],[124.036338709,12.543248680000033],[124.03466212800004,12.541387174000022],[124.03624479500002,12.536565119000045],[124.03767665200007,12.534521840000025],[124.04370561300004,12.532834904000026],[124.0474626780001,12.535486916000025],[124.04883352200011,12.538950440000065],[124.05257561000008,12.540014819000021],[124.0699554040001,12.53826273900006],[124.0750716660001,12.540833317000022],[124.077616755,12.539064740000072],[124.07711418800011,12.536679771000024],[124.08050883100009,12.535881932000052],[124.08145895400003,12.536729153000067],[124.08062532600002,12.543636948000028],[124.0842550100001,12.54638952700003],[124.08110584300005,12.55416086300005],[124.08405713200011,12.55489798900004],[124.08204310200006,12.556772799000044],[124.08431828200003,12.55507846300003],[124.08893376200001,12.556791382000029],[124.08964285000002,12.552177714000038],[124.09785293800007,12.557041058000038],[124.09572145000004,12.55886584500007],[124.09686936700007,12.563955157000066],[124.09527528900003,12.565924045000031],[124.09632640000007,12.56710580400005],[124.09467091600004,12.567196162000073],[124.09687048,12.571962081000038],[124.09603309600004,12.572993792000034],[124.09524000400006,12.571556876000045],[124.09423534200005,12.574707991000025],[124.08555653500002,12.579392565000035],[124.0852515140001,12.583515477000049],[124.08845010700009,12.583937098000035],[124.08668553000007,12.58478715800004],[124.08728604300006,12.585981681000021],[124.09249944600003,12.589227395000023],[124.09584480100011,12.588503699000057],[124.09826018100011,12.591857468000057],[124.10383223100007,12.591587568000023],[124.10978404100001,12.594065423000075],[124.1041900990001,12.611140713000054],[124.08842496600005,12.612445047000051],[124.083589501,12.614626703000056],[124.08255802300005,12.621473],[124.0714201190001,12.62339036700007],[124.07169366300002,12.62444266700004],[124.05902869600004,12.629145006000044],[124.056957097,12.62650126400007],[124.05127111900003,12.628744142000073],[124.04487017000008,12.636137677000022],[124.04179123000006,12.646071023000047],[124.03019621100009,12.639014561000067],[124.0071947890001,12.661321057000066],[123.99726442300005,12.667376822000051],[123.99430548100008,12.664817979000077],[123.98988337800006,12.659004734000064],[123.98845651400006,12.639481163000028],[123.97559849400011,12.556559481000022]]]]}},{"type":"Feature","properties":{"shapeName":"Pilar","shapeISO":"","shapeID":"30758251B95177734597058","shapeGroup":"PHL","shapeType":"ADM3","psgc_code":"0506213000","legacy_psgc_code":"056213000","province":"Sorsogon"},"geometry":{"type":"Polygon","coordinates":[[[123.76831921000007,12.986435139000037],[123.76215491200003,12.997107576000076],[123.7616575180001,12.995864984000036],[123.75976777700009,12.996470523000028],[123.75942068200004,12.99848707800004],[123.7578458700001,12.997144665000064],[123.75432992100002,12.998370409000074],[123.74598040500007,12.996885520000035],[123.74311072600005,13.005257490000076],[123.7364397980001,13.016215794000061],[123.73445022100009,13.026391081000043],[123.72131722200004,13.027112712000076],[123.72013705600011,13.02990554400003],[123.72250530600002,13.029942252000069],[123.72153963500011,13.031261982000046],[123.72322732100008,13.034153940000067],[123.72156271900008,13.037237720000064],[123.7192015280001,13.037243611000065],[123.7187854450001,13.039206801000034],[123.71486563300004,13.039950008000062],[123.68452626700002,13.028520850000064],[123.66198538000003,13.02173814200006],[123.663476478,13.016715430000033],[123.66099795600007,13.016416092000043],[123.66019660400002,13.014209402000063],[123.65877961000001,13.015558671000065],[123.65794687300001,13.014106833000028],[123.65696575900006,13.015916985000047],[123.65382555500003,13.011533192000059],[123.65000598900008,13.01932447300004],[123.63573265500008,13.014498333000063],[123.63574721700002,13.011033951000059],[123.6338971030001,13.010063926000043],[123.62840243000005,13.010109658000033],[123.62737492100007,13.010450376000051],[123.6274331410001,13.009223667000072],[123.63119015200004,13.00942937700006],[123.62899205400004,13.007118173000038],[123.62993308400007,13.004749915000048],[123.6278595120001,12.999038296000037],[123.62920696200001,12.998817989000031],[123.63013806900005,12.994538186000057],[123.6332621460001,12.993241526000077],[123.63109637100001,12.989106150000055],[123.63271599400002,12.986858766000068],[123.63006998100002,12.986441304000039],[123.62901848100012,12.984558021000055],[123.63143609200006,12.981340481000075],[123.63405876700006,12.981677957000045],[123.63446373900001,12.98309535900006],[123.63665251600003,12.981658673000027],[123.6376842300001,12.98310500100007],[123.63634396600003,12.980472684000063],[123.64233176500011,12.979556676000072],[123.64372988200012,12.977811440000039],[123.64261138800009,12.976056562000053],[123.6435563230001,12.976230121000071],[123.64341169000011,12.974195620000046],[123.64626577700005,12.971929705000036],[123.6427753050001,12.971486165000044],[123.6393812550001,12.965951549000067],[123.6401526300001,12.965344091000077],[123.63869666000005,12.965151247000051],[123.64150253700006,12.959925181000074],[123.64062509700011,12.95742785400006],[123.63825311900007,12.957408570000041],[123.63856166900007,12.95481482200006],[123.63744317500004,12.954824464000069],[123.64149450100001,12.952088225000068],[123.64057313700005,12.949602683000023],[123.6415630680001,12.949011296000037],[123.63944607200006,12.947279987000059],[123.63908181200009,12.943157416000076],[123.63746192400004,12.943534533000047],[123.63734621800006,12.94188893300003],[123.638764691,12.941396110000028],[123.63530207400004,12.937886353000067],[123.63759048700001,12.93433802800007],[123.63681911200001,12.931462513000042],[123.63792474900004,12.929366945000027],[123.63666483700001,12.928972686000066],[123.638349005,12.925750053000058],[123.63810473700005,12.921567486000072],[123.64261728100007,12.919373352000036],[123.64303725200011,12.916082152000058],[123.64173877000007,12.914333702000022],[123.64298582700008,12.91382373700003],[123.64093739700002,12.913180925000063],[123.64258728300001,12.911526754000022],[123.64122452000004,12.910416831000077],[123.6416830600001,12.908809800000029],[123.63813902000004,12.907627025000068],[123.63341649100005,12.910575391000066],[123.63204743400001,12.90828938900006],[123.62602132800009,12.907592291000071],[123.62510505800003,12.899719895000032],[123.6283812590001,12.898398607000047],[123.63100607700005,12.900761251000063],[123.63313218000008,12.898613454000042],[123.62708229300006,12.895671045000029],[123.62454510400005,12.894595700000025],[123.61795795500007,12.897493624000049],[123.61089295600004,12.898635683000066],[123.62400178400003,12.894126185000061],[123.6345903460001,12.887997362000021],[123.64366291500005,12.880273148000072],[123.65234342400004,12.870218184000066],[123.65559996200011,12.875227531000064],[123.6544587080001,12.877214068000058],[123.65562241500004,12.879480671000067],[123.65327291100004,12.881235369000024],[123.65695129800008,12.881512556000075],[123.6577607910001,12.885714243000052],[123.66205727300007,12.889317295000069],[123.65579785400007,12.891068947000065],[123.65345456700004,12.893976996000049],[123.65291244800005,12.897563051000077],[123.65107907100003,12.89695942700007],[123.65598761900003,12.903315881000026],[123.65353309500006,12.906352630000072],[123.6553302530001,12.906889916000068],[123.65762137200011,12.911117669000078],[123.66220402800002,12.91377746300003],[123.66213564300006,12.917684413000075],[123.66554375100009,12.917920156000037],[123.66654185000004,12.91624885300007],[123.66668656500008,12.917591823000066],[123.66997221500003,12.91842332400006],[123.67267746900006,12.921118489000037],[123.67596524600003,12.921119372000021],[123.67611247000002,12.922809748000077],[123.68066665700007,12.921824514000036],[123.68201062700007,12.92335969900006],[123.6785756920001,12.926580951000062],[123.67448949700008,12.927007885000023],[123.6738215360001,12.92575441300005],[123.67398155900003,12.926972635000027],[123.67719142900012,12.92790936700004],[123.67729719600004,12.93045077100004],[123.67909115600003,12.929040917000066],[123.68018205600004,12.930807020000032],[123.68117008500008,12.93006650700005],[123.6799185210001,12.929176931000029],[123.68051205200004,12.926744026000051],[123.68549739900004,12.92671219500005],[123.68379147100006,12.925198699000077],[123.68446287000006,12.924057547000075],[123.68242770100005,12.924439687000074],[123.68554860200004,12.921868356000061],[123.68207107600006,12.918489102000024],[123.68586561600011,12.919314017000033],[123.6856654180001,12.916655198000058],[123.68753965000008,12.918115600000021],[123.6886587250001,12.917375368000023],[123.69056996100005,12.919067258000041],[123.68988109600002,12.922020796000027],[123.69108634000008,12.922186983000074],[123.69147622500009,12.925268112000026],[123.69305283400001,12.92338081400004],[123.69500748900009,12.925365008000028],[123.69362964200002,12.930330540000057],[123.69670597800007,12.932710772000064],[123.69544567900004,12.936959194000053],[123.6969651170001,12.936723852000057],[123.69792920500004,12.933937650000075],[123.69909017500004,12.935085324000056],[123.70106045900002,12.934279901000025],[123.70258997500002,12.936520855000026],[123.70505388900006,12.935944362000043],[123.7092793920001,12.941474621000054],[123.71131235900009,12.94102687000003],[123.70907071900001,12.937295332000076],[123.71576642200012,12.938362057000063],[123.71475467500011,12.936357645000044],[123.70772065200003,12.936183357000061],[123.7081781930001,12.93292028600007],[123.70352459700007,12.93388271300006],[123.70371284200007,12.93219762900003],[123.698187791,12.92785354800003],[123.69928207800001,12.927525157000048],[123.69797087200004,12.92709273500003],[123.69704906200002,12.922482488000071],[123.69448365000005,12.919738339000048],[123.69679866000001,12.91544211200005],[123.69439525500002,12.91483898100006],[123.69367858100009,12.91706778300005],[123.68664533700007,12.91383748100003],[123.68640066400008,12.910976301000062],[123.68284895800002,12.909973371000035],[123.68400269500012,12.90604251800005],[123.68315608600005,12.904047137000077],[123.6791686570001,12.903606851000063],[123.67635200500001,12.906763392000073],[123.67461139000011,12.906411287000026],[123.672832502,12.910678524000048],[123.67272644500008,12.908037937000074],[123.67789513000002,12.901711466000052],[123.67907175200003,12.894683332000056],[123.68138208800008,12.892430698000055],[123.68111037800008,12.887630990000048],[123.68467695900006,12.881923633000042],[123.68443093300004,12.87771796900006],[123.68217230300002,12.876020809000067],[123.69257713900004,12.865094256000077],[123.69493367000007,12.866718129000049],[123.69654427300009,12.871649451000053],[123.70496379700012,12.873399114000051],[123.70594166700005,12.878693661000057],[123.70375009500003,12.877852618000077],[123.70276804900004,12.875444173000062],[123.69916473400008,12.875700129000052],[123.692767075,12.880189793000056],[123.68943765300003,12.885778876000074],[123.68706228700012,12.88572169400004],[123.68962031500007,12.88674429300005],[123.6880837860001,12.890391305000037],[123.6892821780001,12.894541935000063],[123.6922407190001,12.897090803000026],[123.6958029750001,12.894977169000072],[123.6973076700001,12.896814876000064],[123.6985585650001,12.895807370000057],[123.69588744300006,12.893178727000077],[123.69835947000001,12.888344225000026],[123.70226244500009,12.889728160000061],[123.70383121900011,12.884650376000025],[123.70818868800006,12.883019053000055],[123.70705286400005,12.884904881000068],[123.70803487600006,12.887005126000076],[123.71237019000012,12.885631525000065],[123.7142781230001,12.887697880000076],[123.71443178600009,12.885434683000028],[123.716931412,12.884533114000021],[123.71804419600005,12.887276068000062],[123.71817068500002,12.885091214000056],[123.7197832600001,12.884890297000027],[123.7199618090001,12.886878040000056],[123.72025441300002,12.885228530000063],[123.72129140200002,12.885610932000077],[123.72138486300003,12.888074304000043],[123.72209333900003,12.886558242000035],[123.72264033300007,12.887799990000076],[123.72431390300005,12.885559386000068],[123.72635089800008,12.88568262900003],[123.725132776,12.888045742000031],[123.72713715300006,12.888171647000036],[123.728324874,12.891228217000048],[123.7273280060001,12.892619522000075],[123.73044593300006,12.892335998000021],[123.73060352200002,12.895205090000047],[123.73223462100009,12.894818334000036],[123.73074242000007,12.897221761000026],[123.73249606000002,12.896426459000054],[123.73443738900005,12.897656960000063],[123.73323110400008,12.895913886000073],[123.7353377610001,12.894784343000026],[123.73311424300005,12.893648409000036],[123.73316337900008,12.891502397000068],[123.73049222800012,12.889415301000042],[123.73246324800004,12.889549830000021],[123.72986191700011,12.888684483000077],[123.73029318400006,12.88773188600004],[123.7319875930001,12.885149209000076],[123.73874216500008,12.887788451000063],[123.74163175100011,12.88529434000003],[123.73544928000001,12.885745477000057],[123.735158683,12.884106434000046],[123.7339893410001,12.88500760200003],[123.73188680500004,12.879383021000024],[123.730864343,12.884327099000075],[123.7290750090001,12.881844078000029],[123.72664974600002,12.881204743000069],[123.7263017780001,12.883544694000022],[123.72430351000003,12.88313859300007],[123.72404836100009,12.884323788000074],[123.72001803,12.882734736000032],[123.7189358170001,12.880705883000076],[123.71851620300004,12.882204787000035],[123.716131904,12.882831499000076],[123.71150865000004,12.880293696000024],[123.71011948700004,12.876069442000073],[123.71687565900004,12.874969786000065],[123.71929854000007,12.876909023000053],[123.72170135700003,12.875432415000034],[123.72330173500006,12.871977119000064],[123.72460871300007,12.872606159000043],[123.72533050200002,12.870828962000076],[123.7284708520001,12.872094439000023],[123.72898892600006,12.869773562000034],[123.73149474200011,12.869521568000039],[123.72808868000004,12.868738071000053],[123.72429770600002,12.860516201000053],[123.72297706900008,12.860204177000071],[123.72400626100011,12.856946106000066],[123.72658871200008,12.85625681700003],[123.72639767500004,12.85307725000007],[123.73201752700004,12.846549719000052],[123.73606816000006,12.844997301000035],[123.74351067200007,12.845522303000052],[123.74824657700003,12.848461868000072],[123.7516923500001,12.863582431000054],[123.75015649000011,12.871301111000037],[123.75217016600004,12.878192143000035],[123.74814149500003,12.894544665000069],[123.74798124500012,12.921401079000077],[123.75766528000008,12.930463419000034],[123.75737630300011,12.934473152000066],[123.7633065340001,12.939968436000072],[123.765352,12.94489],[123.76264176900008,12.950752388000069],[123.75861625300001,12.954039278000039],[123.7549898420001,12.95475570900004],[123.75608715300007,12.96104043500003],[123.75886744700006,12.962725186000057],[123.75828240900012,12.965561732000026],[123.760398,12.96785460700005],[123.75872451100008,12.970980717000032],[123.76187573700008,12.971838329000036],[123.76053982700012,12.977139863000048],[123.76744999700009,12.98133824100006],[123.768752,12.983165],[123.76831921000007,12.986435139000037]]]}},{"type":"Feature","properties":{"shapeName":"Prieto Diaz","shapeISO":"","shapeID":"30758251B55319475412309","shapeGroup":"PHL","shapeType":"ADM3","psgc_code":"0506214000","legacy_psgc_code":"056214000","province":"Sorsogon"},"geometry":{"type":"Polygon","coordinates":[[[124.11911109500011,13.004505494000057],[124.13528510200001,13.010696991000032],[124.13642211000001,13.012407870000061],[124.13851524200004,12.997106292000069],[124.1502369850001,12.996194591000062],[124.15648823300012,13.003306739000038],[124.16142503200001,13.005424499000071],[124.1618477080001,13.00372328800006],[124.16168476000007,13.008750801000076],[124.16319153900008,13.00899697500006],[124.16573969400008,13.006466929000055],[124.16765234200011,13.006893697000066],[124.16721184100004,13.00565025000003],[124.169654551,13.007631512000046],[124.16985328900012,13.005800446000023],[124.17270913700008,13.006671107000045],[124.17096358300012,13.004896751000047],[124.17387971000005,13.004057028000034],[124.18459413800008,13.007020262000026],[124.18509704500002,13.009842323000044],[124.18857657100011,13.009450266000044],[124.19360443000005,13.016453512000055],[124.19831856200005,13.018549655000072],[124.19659159800005,13.020066249000024],[124.1980102230001,13.019706546000066],[124.19832275600004,13.021950248000053],[124.19583312800012,13.022343252000042],[124.19679492400007,13.025579410000034],[124.19331980200002,13.024281874000053],[124.19157353600008,13.026928630000043],[124.19043999000007,13.026510181000049],[124.1907359710001,13.028935194000042],[124.18863777000001,13.02813918000004],[124.1879165360001,13.029991765000034],[124.19519701100012,13.035132976000057],[124.19629803700002,13.038053982000065],[124.19462686700001,13.047174170000062],[124.19341753100002,13.047962443000074],[124.1953451070001,13.053362655000058],[124.19355805000009,13.055750644000057],[124.19463159300005,13.056491555000036],[124.19291605900003,13.06090385500005],[124.18792691600004,13.066757998000071],[124.16241856900001,13.06965473400004],[124.1607163970001,13.067681354000058],[124.15707011300003,13.07194200500004],[124.15391414700002,13.07128048100003],[124.15010250300008,13.073088508000069],[124.14458964000005,13.070662407000043],[124.14412367800003,13.075446218000025],[124.14318590500011,13.074542042000076],[124.13464669300004,13.075517972000057],[124.13509746500006,13.073702371000024],[124.11924016300009,13.043312889000049],[124.11911109500011,13.004505494000057]]]}},{"type":"Feature","properties":{"shapeName":"Santa Magdalena","shapeISO":"","shapeID":"30758251B27542334536223","shapeGroup":"PHL","shapeType":"ADM3","psgc_code":"0506215000","legacy_psgc_code":"056215000","province":"Sorsogon"},"geometry":{"type":"Polygon","coordinates":[[[124.10528537800008,12.692905526000061],[124.07972835800001,12.681220450000069],[124.04010730900006,12.659897099000034],[124.04179123000006,12.646071023000047],[124.04487017000008,12.636137677000022],[124.05127111900003,12.628744142000073],[124.056957097,12.62650126400007],[124.05902869600004,12.629145006000044],[124.07169366300002,12.62444266700004],[124.0714201190001,12.62339036700007],[124.08255802300005,12.621473],[124.083589501,12.614626703000056],[124.08842496600005,12.612445047000051],[124.1041900990001,12.611140713000054],[124.10163589500007,12.615217947000076],[124.09451408300004,12.619290853000052],[124.09589893200007,12.634144510000056],[124.0942231570001,12.636879665000038],[124.09820160000004,12.640548993000039],[124.10534737600005,12.642595750000055],[124.1120881390001,12.649775452000029],[124.1216115950001,12.654502741000044],[124.12388722600008,12.65817691500007],[124.12877559500009,12.659095774000036],[124.13393072000008,12.662124169000037],[124.13326457300002,12.668581065000069],[124.13583573300002,12.670167818000039],[124.13461112900006,12.67515678600006],[124.13230263500009,12.676781346000041],[124.13037548900002,12.68165140800005],[124.12950601200009,12.685916888000065],[124.130766504,12.691976619000059],[124.11893837000002,12.695690266000042],[124.10528537800008,12.692905526000061]]]}},{"type":"Feature","properties":{"shapeName":"City of Sorsogon","shapeISO":"","shapeID":"30758251B39347385950217","shapeGroup":"PHL","shapeType":"ADM3","psgc_code":"0506216000","legacy_psgc_code":"056216000","province":"Sorsogon"},"geometry":{"type":"Polygon","coordinates":[[[124.0726355600001,12.926738759000045],[124.06720688900009,12.956768963000059],[124.06885968000006,12.962127365000072],[124.07211335800002,12.964561591000063],[124.080194602,12.966966723000041],[124.08451274600009,12.966750295000054],[124.11598005000008,12.99548311600006],[124.11911109500011,13.004505494000057],[124.11924016300009,13.043312889000049],[124.13509746500006,13.073702371000024],[124.13464669300004,13.075517972000057],[124.13082535100011,13.074937401000057],[124.11379094000006,13.066069473000027],[124.11185816500006,13.061969730000044],[124.10720435600001,13.059737661000042],[124.10552999900005,13.049785881000048],[124.10739749700008,13.04460812700006],[124.10513142400009,13.034893969000052],[124.09858186800011,13.02569687600004],[124.09758012000009,13.020364591000032],[124.095728258,13.019843738000077],[124.09727807900003,13.015286746000072],[124.09543597000004,13.01407387300003],[124.094327012,13.010342695000077],[124.09155494200002,13.009228531000076],[124.09073353000008,13.00379700800005],[124.0866470950001,13.00243832700005],[124.08579288300007,13.000863424000045],[124.07936941500009,13.004443554000034],[124.07500734400003,13.003549031000034],[124.07440864300008,13.007481175000066],[124.07085585100003,13.009952716000043],[124.07346753400009,13.01361961200007],[124.07651439800009,13.01484868600005],[124.0736432650001,13.013862689000064],[124.0708528670001,13.015521813000078],[124.07085737700004,13.020598127000028],[124.06527484800006,13.030597740000076],[124.06580102500004,13.032603541000071],[124.0604674110001,13.035743194000077],[124.05788905700001,13.034934931000066],[124.05155573400009,13.037177181000061],[124.04550219500004,13.041197832000023],[124.03766919000009,13.040588060000061],[124.03154604500003,13.047857843000031],[124.02243910400011,13.051948176000053],[124.02172280400009,13.057128631000069],[124.0152330200001,13.061510523000038],[124.01449095500004,13.065822355000023],[124.01025507000008,13.068988483000055],[124.0071188070001,13.076620243000036],[124.00373536300003,13.07846468300005],[123.99648750300003,13.08875577200007],[123.99180633700007,13.092337583000074],[123.98214455200002,13.091665189000025],[123.97878366800012,13.093151440000042],[123.97385682600009,13.101969009000072],[123.97210444000007,13.10933744700003],[123.96761535900009,13.104887415000064],[123.9672996600001,13.102501734000043],[123.96054452500005,13.101243313000055],[123.94831905600006,13.105841442000042],[123.9446962290001,13.112950516000069],[123.93709786400007,13.119932622000022],[123.92996390000008,13.122402546000046],[123.92676515300002,13.120887665000055],[123.92635156100005,13.118249990000038],[123.92870025000002,13.115643243000022],[123.92941781000002,13.116501974000073],[123.92994182600012,13.113848200000064],[123.92917038300004,13.102068074000044],[123.92505210500008,13.096216772000048],[123.92101326300008,13.083766269000023],[123.9155897280001,13.05492922600007],[123.91243569100004,13.047547737000059],[123.90767866600004,13.041755151000075],[123.90240365800003,13.038820376000047],[123.89212967000003,13.03800548700002],[123.88091670600011,13.041047344000049],[123.87696966100009,13.031891979000022],[123.87525861600011,13.023592543000063],[123.87950555400005,13.013848173000042],[123.87897852000003,13.007677589000025],[123.87702450000006,13.003626870000062],[123.87810839600002,12.998122485000067],[123.87570746300003,12.985243413000035],[123.87862903500002,12.978756519000058],[123.88318814000002,12.976813894000031],[123.88360889100011,12.97854301600006],[123.89207548800005,12.977782389000026],[123.89431366300005,12.975108180000063],[123.89598440800012,12.97580064300007],[123.89632933900009,12.973607014000038],[123.89937023800007,12.974536272000023],[123.90054613500001,12.972532086000058],[123.90305902800003,12.973554627000055],[123.90284236700006,12.975497974000064],[123.90680874000009,12.977032498000028],[123.91275171500001,12.97627551000005],[123.91633248500011,12.978673152000056],[123.92103312400002,12.979535708000071],[123.92432838200011,12.978508388000023],[123.92978365500005,12.972558750000076],[123.92808341200009,12.970417955000073],[123.92800323900008,12.972221440000055],[123.927628131,12.96693231300003],[123.93762041700006,12.963437235000072],[123.93769057700001,12.959890081000026],[123.93968189000009,12.958010904000048],[123.94340808600009,12.956780995000031],[123.95798637900009,12.957618720000028],[123.95910616300011,12.955214124000065],[123.96650196000007,12.95841236700005],[123.96710330200006,12.956775166000057],[123.96843736000005,12.956906764000053],[123.96814899900005,12.95471348600006],[123.97158122200005,12.957893460000037],[123.97593758900007,12.958248583000056],[123.97868788700009,12.96151597100004],[123.9816353120001,12.960977065000066],[123.98594601400009,12.963821447000043],[123.98856828600003,12.961463112000047],[123.98956223400012,12.963469200000077],[123.99298926400002,12.96287094400003],[123.99534015800009,12.966632765000043],[123.99783551000007,12.966065771000046],[123.99941330800004,12.963295576000064],[124.00460837000003,12.963692386000048],[124.00496665300011,12.96215862500003],[124.004337673,12.96774927100006],[124.00718287000007,12.967916854000066],[124.0074937710001,12.969792716000029],[124.01175547900004,12.969907163000073],[124.01205308500005,12.971573293000063],[124.01423437900007,12.972441222000043],[124.02262479900003,12.973013558000048],[124.02653553800008,12.968321771000035],[124.03414058400006,12.964080556000056],[124.0315484680001,12.962888389000057],[124.03118071100005,12.961214698000049],[124.03368270600004,12.95368538100007],[124.03674152100007,12.949947698000074],[124.0366631060001,12.947555464000061],[124.04038769200008,12.94464361100006],[124.0394386370001,12.943470700000034],[124.04069584600006,12.936238639000067],[124.054542749,12.936287165000067],[124.06805774500003,12.926807985000039],[124.0726355600001,12.926738759000045]]]}}]}
