{
  "type": "FeatureCollection",
  "source": {
    "dataset": "geoBoundaries gbOpen PHL ADM3",
    "commit": "9469f09",
    "boundary_year": 2020,
    "license": "CC BY 3.0 IGO",
    "organizations": [
      "NAMRIA",
      "Philippine Statistics Authority",
      "OCHA Philippines"
    ],
    "metadata_url": "https://www.geoboundaries.org/api/current/gbOpen/PHL/ADM3/",
    "url": "https://media.githubusercontent.com/media/wmgeolab/geoBoundaries/9469f09/releaseData/gbOpen/PHL/ADM3/geoBoundaries-PHL-ADM3_simplified.geojson",
    "retrieved_at": "2026-09-08",
    "identity_source": "https://psa.gov.ph/classification/psgc/citimuni/0306900000",
    "reference_area_source": "https://ulap-nga.georisk.gov.ph/arcgis/rest/services/PSA/Municipal/MapServer/0",
    "notice": "Approximate planning/reference municipality boundaries; not legal, cadastral, or survey-grade."
  },
  "features": [
    {
      "type": "Feature",
      "properties": {
        "shapeName": "Bamban",
        "shapeISO": "",
        "shapeID": "30758251B57034914401732",
        "shapeGroup": "PHL",
        "shapeType": "ADM3",
        "psgc_code": "0306902000",
        "legacy_psgc_code": "036902000",
        "province": "Tarlac",
        "reference_area_sqkm": 207.47839251,
        "reference_bbox": [
          120.33616555000003,
          15.166791640000042,
          120.6166080480001,
          15.32636280500003
        ]
      },
      "geometry": {
        "type": "Polygon",
        "coordinates": [
          [
            [
              120.60921231100008,
              15.324793937000038
            ],
            [
              120.60462741100002,
              15.32636280500003
            ],
            [
              120.60144674000003,
              15.324499570000057
            ],
            [
              120.59818319800002,
              15.326153254000076
            ],
            [
              120.59530246500003,
              15.323537619000035
            ],
            [
              120.59182967900006,
              15.324218038000026
            ],
            [
              120.58885294700008,
              15.315392845000076
            ],
            [
              120.57426810800007,
              15.305415452000034
            ],
            [
              120.54264444400008,
              15.302618680000023
            ],
            [
              120.51416380800003,
              15.288367901000072
            ],
            [
              120.46502849100011,
              15.278502909000053
            ],
            [
              120.43155211300007,
              15.275751425000067
            ],
            [
              120.37881535300005,
              15.252822399000024
            ],
            [
              120.3435245070001,
              15.240096003000076
            ],
            [
              120.33616555000003,
              15.235095099000034
            ],
            [
              120.36759662500003,
              15.167097115000047
            ],
            [
              120.37414010900011,
              15.169763054000043
            ],
            [
              120.37875602300005,
              15.16892722600005
            ],
            [
              120.3876070340001,
              15.170745056000044
            ],
            [
              120.39290905200005,
              15.173570846000075
            ],
            [
              120.40004242400005,
              15.180934482000055
            ],
            [
              120.41835810100008,
              15.181353086000058
            ],
            [
              120.42868077700007,
              15.191936175000023
            ],
            [
              120.44022761600002,
              15.200999072000059
            ],
            [
              120.44756009000002,
              15.20325202600003
            ],
            [
              120.47496843400006,
              15.212915097000064
            ],
            [
              120.47852653500001,
              15.215490357000022
            ],
            [
              120.48529465500008,
              15.215689186000077
            ],
            [
              120.48827991400003,
              15.219393327000034
            ],
            [
              120.48969244500006,
              15.21884478100003
            ],
            [
              120.49343638300002,
              15.222451913000043
            ],
            [
              120.49363879400005,
              15.224838987000055
            ],
            [
              120.49636398900009,
              15.224991888000034
            ],
            [
              120.49827611600006,
              15.227083138000069
            ],
            [
              120.50667031400008,
              15.227807994000045
            ],
            [
              120.50812218400006,
              15.225580642000068
            ],
            [
              120.51284662400008,
              15.22936297700005
            ],
            [
              120.51575615200011,
              15.227934192000077
            ],
            [
              120.51778235900008,
              15.22896031700003
            ],
            [
              120.52199098000006,
              15.226423853000028
            ],
            [
              120.52548769600003,
              15.227949016000025
            ],
            [
              120.52827077000006,
              15.232399728000075
            ],
            [
              120.53159670000002,
              15.231303715000024
            ],
            [
              120.53784958500012,
              15.236031012000069
            ],
            [
              120.5403126650001,
              15.235281059000044
            ],
            [
              120.54496678300006,
              15.239949882000076
            ],
            [
              120.54185476000009,
              15.239752164000038
            ],
            [
              120.54569553800002,
              15.246096016000024
            ],
            [
              120.54492805400002,
              15.249460966000072
            ],
            [
              120.54766076800001,
              15.25444006400005
            ],
            [
              120.55132632400012,
              15.255070470000078
            ],
            [
              120.55496093300007,
              15.258979470000043
            ],
            [
              120.56732752500011,
              15.263818960000037
            ],
            [
              120.57229299300002,
              15.262113928000076
            ],
            [
              120.58522132100006,
              15.267667877000065
            ],
            [
              120.58073283800002,
              15.261820020000073
            ],
            [
              120.59331824000003,
              15.265997952000077
            ],
            [
              120.60348375500007,
              15.261038916000075
            ],
            [
              120.61108711100007,
              15.26490977700007
            ],
            [
              120.6166080480001,
              15.262939516000074
            ],
            [
              120.61184442000001,
              15.281168595000054
            ],
            [
              120.61445143800006,
              15.286869115000059
            ],
            [
              120.61441382600003,
              15.294255892000024
            ],
            [
              120.60047974200006,
              15.301637819000064
            ],
            [
              120.59941571900004,
              15.307075006000048
            ],
            [
              120.59989974200005,
              15.31014086500005
            ],
            [
              120.60562336300006,
              15.316226481000058
            ],
            [
              120.60921231100008,
              15.324793937000038
            ]
          ]
        ]
      }
    },
    {
      "type": "Feature",
      "properties": {
        "shapeName": "Capas",
        "shapeISO": "",
        "shapeID": "30758251B1710226943062",
        "shapeGroup": "PHL",
        "shapeType": "ADM3",
        "psgc_code": "0306904000",
        "legacy_psgc_code": "036904000",
        "province": "Tarlac",
        "reference_area_sqkm": 446.47834915,
        "reference_bbox": [
          120.2413135270001,
          15.235095099000034,
          120.61553528200011,
          15.424707715000068
        ]
      },
      "geometry": {
        "type": "Polygon",
        "coordinates": [
          [
            [
              120.60921231100008,
              15.324793937000038
            ],
            [
              120.61553528200011,
              15.329951683000047
            ],
            [
              120.60924021300002,
              15.33823883100007
            ],
            [
              120.60236218600005,
              15.340408410000066
            ],
            [
              120.60355238200009,
              15.35414954600003
            ],
            [
              120.60210489700012,
              15.364825386000064
            ],
            [
              120.5982093880001,
              15.376242881000053
            ],
            [
              120.60202632500011,
              15.408805875000041
            ],
            [
              120.59315426400008,
              15.405121692000023
            ],
            [
              120.58700229300007,
              15.405407831000048
            ],
            [
              120.58374747100004,
              15.407053125000061
            ],
            [
              120.57907589700005,
              15.403585441000075
            ],
            [
              120.57238120000011,
              15.403729801000054
            ],
            [
              120.56875415500008,
              15.404614006000031
            ],
            [
              120.55869904100007,
              15.412130903000048
            ],
            [
              120.54487639500007,
              15.404619998000044
            ],
            [
              120.53689037600009,
              15.404839796000033
            ],
            [
              120.53154462900011,
              15.409463241000026
            ],
            [
              120.52205396400007,
              15.405059595000068
            ],
            [
              120.50246438600004,
              15.410771089000036
            ],
            [
              120.4839137130001,
              15.420333871000025
            ],
            [
              120.46597774600002,
              15.424707715000068
            ],
            [
              120.4572417070001,
              15.418713144000037
            ],
            [
              120.4075205480001,
              15.394404977000022
            ],
            [
              120.35053634100007,
              15.362890304000075
            ],
            [
              120.34006132000002,
              15.359641574000023
            ],
            [
              120.3211862490001,
              15.348925362000045
            ],
            [
              120.31834826800002,
              15.35171120700005
            ],
            [
              120.2413135270001,
              15.314832387000024
            ],
            [
              120.28224524300003,
              15.289590427000064
            ],
            [
              120.33616555000003,
              15.235095099000034
            ],
            [
              120.3435245070001,
              15.240096003000076
            ],
            [
              120.37881535300005,
              15.252822399000024
            ],
            [
              120.43155211300007,
              15.275751425000067
            ],
            [
              120.46502849100011,
              15.278502909000053
            ],
            [
              120.51416380800003,
              15.288367901000072
            ],
            [
              120.54264444400008,
              15.302618680000023
            ],
            [
              120.57426810800007,
              15.305415452000034
            ],
            [
              120.58885294700008,
              15.315392845000076
            ],
            [
              120.59182967900006,
              15.324218038000026
            ],
            [
              120.59530246500003,
              15.323537619000035
            ],
            [
              120.59818319800002,
              15.326153254000076
            ],
            [
              120.60144674000003,
              15.324499570000057
            ],
            [
              120.60462741100002,
              15.32636280500003
            ],
            [
              120.60921231100008,
              15.324793937000038
            ]
          ]
        ]
      }
    },
    {
      "type": "Feature",
      "properties": {
        "shapeName": "Gerona",
        "shapeISO": "",
        "shapeID": "30758251B71774891580031",
        "shapeGroup": "PHL",
        "shapeType": "ADM3",
        "psgc_code": "0306906000",
        "legacy_psgc_code": "036906000",
        "province": "Tarlac",
        "reference_area_sqkm": 122.34883302,
        "reference_bbox": [
          120.48856761200011,
          15.539160491000075,
          120.63340754100011,
          15.650440015000072
        ]
      },
      "geometry": {
        "type": "Polygon",
        "coordinates": [
          [
            [
              120.6155901620001,
              15.549884127000041
            ],
            [
              120.6149832540001,
              15.551734900000042
            ],
            [
              120.62160980800002,
              15.56070435600003
            ],
            [
              120.63340754100011,
              15.564037793000068
            ],
            [
              120.63265150900008,
              15.570544160000054
            ],
            [
              120.62727513900006,
              15.579941781000059
            ],
            [
              120.6274346890001,
              15.591098330000023
            ],
            [
              120.62938612300002,
              15.596247018000042
            ],
            [
              120.62532152000006,
              15.605999419000057
            ],
            [
              120.62669160700011,
              15.609371940000074
            ],
            [
              120.62676846800002,
              15.625669935000076
            ],
            [
              120.62963752900009,
              15.633574014000033
            ],
            [
              120.62936909300004,
              15.650440015000072
            ],
            [
              120.61389986900008,
              15.643037157000037
            ],
            [
              120.60965773300006,
              15.64713948700006
            ],
            [
              120.60600956200005,
              15.645828705000042
            ],
            [
              120.59487836000005,
              15.636813285000073
            ],
            [
              120.58801344800008,
              15.633915953000042
            ],
            [
              120.57210788600003,
              15.630635518000076
            ],
            [
              120.56487230100004,
              15.625777115000062
            ],
            [
              120.55232268700001,
              15.625520489000053
            ],
            [
              120.54949580800007,
              15.62378788500007
            ],
            [
              120.53506933200003,
              15.630583596000065
            ],
            [
              120.52926975200012,
              15.629141061000041
            ],
            [
              120.52505990500003,
              15.630112565000047
            ],
            [
              120.51282938300005,
              15.629362181000033
            ],
            [
              120.49275813500003,
              15.626559016000044
            ],
            [
              120.49131611900009,
              15.62425816700005
            ],
            [
              120.48945303200003,
              15.626012725000066
            ],
            [
              120.48896100700006,
              15.61923278100005
            ],
            [
              120.49108734900005,
              15.606063765000044
            ],
            [
              120.49517836900009,
              15.60115077200004
            ],
            [
              120.49361972600002,
              15.57323436300004
            ],
            [
              120.49956438100003,
              15.567924933000029
            ],
            [
              120.50969281400012,
              15.562802222000073
            ],
            [
              120.51691920000007,
              15.55455366600006
            ],
            [
              120.5158745330001,
              15.552633594000042
            ],
            [
              120.52117628000008,
              15.545019627000045
            ],
            [
              120.52572091000002,
              15.539197010000066
            ],
            [
              120.52629303600008,
              15.542361964000065
            ],
            [
              120.52882676000002,
              15.542505185000039
            ],
            [
              120.53113358400003,
              15.548264618000076
            ],
            [
              120.53522473400005,
              15.548845713000048
            ],
            [
              120.53775062500006,
              15.554262873000027
            ],
            [
              120.53972050100003,
              15.555247812000061
            ],
            [
              120.53900562700005,
              15.557090599000048
            ],
            [
              120.54061012300008,
              15.556788763000043
            ],
            [
              120.54091305700001,
              15.559497165000039
            ],
            [
              120.54323530400006,
              15.560512169000049
            ],
            [
              120.54615816900002,
              15.559382851000066
            ],
            [
              120.548353786,
              15.563678401000061
            ],
            [
              120.54951994700002,
              15.562072297000043
            ],
            [
              120.552879232,
              15.562544526000067
            ],
            [
              120.5532532740001,
              15.560940878000054
            ],
            [
              120.56275320300006,
              15.565038381000022
            ],
            [
              120.5704975110001,
              15.56077328400005
            ],
            [
              120.57400244500002,
              15.55541830900006
            ],
            [
              120.58136322900009,
              15.55638256900005
            ],
            [
              120.58428725300007,
              15.554279099000041
            ],
            [
              120.59224829900006,
              15.553251959000022
            ],
            [
              120.5962621430001,
              15.55127499100007
            ],
            [
              120.60427091200006,
              15.552000057000043
            ],
            [
              120.60886660800008,
              15.550635122000074
            ],
            [
              120.61350151400006,
              15.551269053000055
            ],
            [
              120.6155901620001,
              15.549884127000041
            ]
          ]
        ]
      }
    },
    {
      "type": "Feature",
      "properties": {
        "shapeName": "La Paz",
        "shapeISO": "",
        "shapeID": "30758251B69162702482749",
        "shapeGroup": "PHL",
        "shapeType": "ADM3",
        "psgc_code": "0306907000",
        "legacy_psgc_code": "036907000",
        "province": "Tarlac",
        "reference_area_sqkm": 115.70271156,
        "reference_bbox": [
          120.65992643300001,
          15.358813220000059,
          120.76449512200008,
          15.529319003000069
        ]
      },
      "geometry": {
        "type": "Polygon",
        "coordinates": [
          [
            [
              120.65992643300001,
              15.413100806000045
            ],
            [
              120.67093474800004,
              15.404298265000023
            ],
            [
              120.68638685000008,
              15.400045104000071
            ],
            [
              120.6949274540001,
              15.389561429000025
            ],
            [
              120.6993524500001,
              15.389017435000028
            ],
            [
              120.704540414,
              15.383954717000051
            ],
            [
              120.70759240400002,
              15.382617781000022
            ],
            [
              120.71430641400002,
              15.384495620000052
            ],
            [
              120.72279034400003,
              15.374509189000037
            ],
            [
              120.7300003250001,
              15.37206029500004
            ],
            [
              120.73285330600004,
              15.369349446000058
            ],
            [
              120.73955929600004,
              15.36816447700005
            ],
            [
              120.73872024000002,
              15.359910997000043
            ],
            [
              120.74079541800006,
              15.360505359000058
            ],
            [
              120.74140045100012,
              15.358813220000059
            ],
            [
              120.74313688500001,
              15.35904748300004
            ],
            [
              120.74198702700005,
              15.363566881000054
            ],
            [
              120.74549506800008,
              15.369066684000074
            ],
            [
              120.74515527900007,
              15.37791889700003
            ],
            [
              120.74275638200004,
              15.378928649000045
            ],
            [
              120.74187423800004,
              15.381475093000063
            ],
            [
              120.74274261300002,
              15.384070224000027
            ],
            [
              120.74711252600002,
              15.386656925000068
            ],
            [
              120.74892400700003,
              15.389975470000024
            ],
            [
              120.74993883200011,
              15.39774215500006
            ],
            [
              120.7536256200001,
              15.399396641000067
            ],
            [
              120.75392125000008,
              15.40082727500004
            ],
            [
              120.75244695800006,
              15.403652596000029
            ],
            [
              120.76449512200008,
              15.419183756000052
            ],
            [
              120.76163975200006,
              15.420069983000076
            ],
            [
              120.76119990500001,
              15.428053162000026
            ],
            [
              120.75882626200007,
              15.429181497000059
            ],
            [
              120.7616061870001,
              15.435547245000066
            ],
            [
              120.75737051800002,
              15.43947173600003
            ],
            [
              120.75182110700007,
              15.441495316000044
            ],
            [
              120.75072628100008,
              15.444626070000027
            ],
            [
              120.74826600600011,
              15.444175211000072
            ],
            [
              120.74343555100006,
              15.451414533000047
            ],
            [
              120.74342501800004,
              15.454733262000047
            ],
            [
              120.74632916000007,
              15.45714035800006
            ],
            [
              120.74354097100002,
              15.465465472000062
            ],
            [
              120.74636181400001,
              15.46573649100003
            ],
            [
              120.7454386170001,
              15.467475096000044
            ],
            [
              120.74906812300003,
              15.472625994000055
            ],
            [
              120.74766322900007,
              15.473693410000067
            ],
            [
              120.75066682600004,
              15.48073080200004
            ],
            [
              120.74927381100008,
              15.486531575000072
            ],
            [
              120.74701530800007,
              15.486301231000027
            ],
            [
              120.74986239900011,
              15.48892134700003
            ],
            [
              120.7487210590001,
              15.489461779000067
            ],
            [
              120.7494922940001,
              15.492009555000038
            ],
            [
              120.74389273000008,
              15.49630700800003
            ],
            [
              120.746042353,
              15.49750266600006
            ],
            [
              120.74434027100006,
              15.499779527000044
            ],
            [
              120.7458837800001,
              15.504357350000078
            ],
            [
              120.74342004300001,
              15.506122494000067
            ],
            [
              120.74387010600003,
              15.509781358000055
            ],
            [
              120.73841227900004,
              15.511247429000036
            ],
            [
              120.7348164660001,
              15.51671324800003
            ],
            [
              120.73808826600009,
              15.520330433000026
            ],
            [
              120.73712163800008,
              15.521599054000035
            ],
            [
              120.7354671710001,
              15.520835523000073
            ],
            [
              120.73573340700011,
              15.522907924000037
            ],
            [
              120.73421236700005,
              15.522878837000064
            ],
            [
              120.73384821400009,
              15.525538706000077
            ],
            [
              120.73287195500006,
              15.524287358000038
            ],
            [
              120.73152774400012,
              15.527064144000065
            ],
            [
              120.72221684400006,
              15.529319003000069
            ],
            [
              120.71710985200002,
              15.528219035000063
            ],
            [
              120.7129996650001,
              15.529277921000073
            ],
            [
              120.70845628400002,
              15.523381426000071
            ],
            [
              120.70171106500004,
              15.524021719000075
            ],
            [
              120.69674721600006,
              15.526334969000061
            ],
            [
              120.69322914800011,
              15.525371115000041
            ],
            [
              120.68915336400005,
              15.521827234000057
            ],
            [
              120.68243935600003,
              15.520387367000069
            ],
            [
              120.67659618900007,
              15.521484560000033
            ],
            [
              120.67769223500011,
              15.516778012000032
            ],
            [
              120.68253652400006,
              15.513314989000037
            ],
            [
              120.68232330800004,
              15.506184158000053
            ],
            [
              120.68334370900004,
              15.505011661000026
            ],
            [
              120.68976733800002,
              15.50579822800006
            ],
            [
              120.69107828300002,
              15.500510751000036
            ],
            [
              120.69991474300002,
              15.492226005000077
            ],
            [
              120.69882201900009,
              15.49103615100006
            ],
            [
              120.70112314000005,
              15.48976914900004
            ],
            [
              120.70336610700008,
              15.485033429000055
            ],
            [
              120.70233608700005,
              15.482157615000062
            ],
            [
              120.70411616800004,
              15.479351570000063
            ],
            [
              120.69764823800006,
              15.471047508000026
            ],
            [
              120.69258590100003,
              15.468629675000045
            ],
            [
              120.6927683990001,
              15.466055986000072
            ],
            [
              120.68746449500009,
              15.460161911000057
            ],
            [
              120.68395872600001,
              15.452487352000048
            ],
            [
              120.68018146100007,
              15.45049676800005
            ],
            [
              120.67258443600008,
              15.439827051000066
            ],
            [
              120.66839532400002,
              15.440731176000043
            ],
            [
              120.65992643300001,
              15.413100806000045
            ]
          ]
        ]
      }
    },
    {
      "type": "Feature",
      "properties": {
        "shapeName": "Mayantoc",
        "shapeISO": "",
        "shapeID": "30758251B27820731210135",
        "shapeGroup": "PHL",
        "shapeType": "ADM3",
        "psgc_code": "0306908000",
        "legacy_psgc_code": "036908000",
        "province": "Tarlac",
        "reference_area_sqkm": 240.08967425,
        "reference_bbox": [
          120.18330680400004,
          15.488963045000048,
          120.41082249700003,
          15.647393316000034
        ]
      },
      "geometry": {
        "type": "Polygon",
        "coordinates": [
          [
            [
              120.32026513400001,
              15.622826373000066
            ],
            [
              120.31489605100012,
              15.610779153000067
            ],
            [
              120.30258702000003,
              15.606112522000046
            ],
            [
              120.28072193100002,
              15.592945479000036
            ],
            [
              120.2704069340001,
              15.59335352100004
            ],
            [
              120.26404654900011,
              15.59769398900005
            ],
            [
              120.22258195600011,
              15.57523956700004
            ],
            [
              120.19082940100009,
              15.519115079000073
            ],
            [
              120.18910368800005,
              15.516064781000068
            ],
            [
              120.18330680400004,
              15.488963045000048
            ],
            [
              120.19659922500011,
              15.489883408000026
            ],
            [
              120.24736529000006,
              15.49987746000005
            ],
            [
              120.29065434800009,
              15.508889621000037
            ],
            [
              120.33900942600008,
              15.520900562000065
            ],
            [
              120.36922235100008,
              15.510633003000066
            ],
            [
              120.38807465600007,
              15.49899784400003
            ],
            [
              120.38997690000008,
              15.504898023000067
            ],
            [
              120.39024841000003,
              15.519480318000035
            ],
            [
              120.39714412800004,
              15.55083931200005
            ],
            [
              120.40528723800003,
              15.552217437000024
            ],
            [
              120.40419462200009,
              15.556751791000067
            ],
            [
              120.41082249700003,
              15.56669400100003
            ],
            [
              120.4101294840001,
              15.579505321000056
            ],
            [
              120.40583907200005,
              15.57984820300004
            ],
            [
              120.40821689200004,
              15.589647852000041
            ],
            [
              120.40611989000001,
              15.60513897100003
            ],
            [
              120.40226995300009,
              15.608788391000076
            ],
            [
              120.40595321400008,
              15.609288307000043
            ],
            [
              120.40261568500011,
              15.617463695000026
            ],
            [
              120.40421265100008,
              15.618871830000046
            ],
            [
              120.40354203100003,
              15.626304016000063
            ],
            [
              120.40467051300004,
              15.627415934000055
            ],
            [
              120.40261150700007,
              15.62836687400005
            ],
            [
              120.39821622400007,
              15.630965825000033
            ],
            [
              120.40111159800006,
              15.64044115300004
            ],
            [
              120.39844245000006,
              15.644751668000026
            ],
            [
              120.39413882800011,
              15.647393316000034
            ],
            [
              120.37991665000004,
              15.64066426100004
            ],
            [
              120.37301071400009,
              15.633747137000057
            ],
            [
              120.36691172400003,
              15.632625565000069
            ],
            [
              120.36603162400002,
              15.630504165000048
            ],
            [
              120.3672230740001,
              15.626070970000058
            ],
            [
              120.35816680100004,
              15.621097774000077
            ],
            [
              120.35690396000007,
              15.622237952000035
            ],
            [
              120.35282586000005,
              15.618320845000028
            ],
            [
              120.34371013400005,
              15.623165199000027
            ],
            [
              120.33402656500004,
              15.625240433000045
            ],
            [
              120.32026513400001,
              15.622826373000066
            ]
          ]
        ]
      }
    },
    {
      "type": "Feature",
      "properties": {
        "shapeName": "Moncada",
        "shapeISO": "",
        "shapeID": "30758251B50379489571525",
        "shapeGroup": "PHL",
        "shapeType": "ADM3",
        "psgc_code": "0306909000",
        "legacy_psgc_code": "036909000",
        "province": "Tarlac",
        "reference_area_sqkm": 101.74105474,
        "reference_bbox": [
          120.46759425200003,
          15.689617910000038,
          120.60191211900008,
          15.813969975000077
        ]
      },
      "geometry": {
        "type": "Polygon",
        "coordinates": [
          [
            [
              120.57174081200003,
              15.81298662000006
            ],
            [
              120.5612958050001,
              15.793118110000023
            ],
            [
              120.55756651100012,
              15.781373302000077
            ],
            [
              120.55703871300011,
              15.772209704000034
            ],
            [
              120.55799385500006,
              15.771483971000066
            ],
            [
              120.55103785800009,
              15.763746918000038
            ],
            [
              120.54088170800003,
              15.759205767000026
            ],
            [
              120.52367794700001,
              15.756471077000072
            ],
            [
              120.46759425200003,
              15.722242866000045
            ],
            [
              120.46991009400006,
              15.718656924000072
            ],
            [
              120.46880079100004,
              15.709799470000064
            ],
            [
              120.47037370500004,
              15.706600253000033
            ],
            [
              120.48315365600001,
              15.69940682500004
            ],
            [
              120.48786207800003,
              15.698438224000029
            ],
            [
              120.4992222080001,
              15.696488557000066
            ],
            [
              120.50867949200006,
              15.690196654000033
            ],
            [
              120.51200369600008,
              15.690135368000028
            ],
            [
              120.51747351000006,
              15.693391716000065
            ],
            [
              120.52539876000003,
              15.689619229000073
            ],
            [
              120.55313757300007,
              15.693578013000035
            ],
            [
              120.55580923000002,
              15.697035386000039
            ],
            [
              120.5600271620001,
              15.695307283000034
            ],
            [
              120.56509059400003,
              15.696068695000065
            ],
            [
              120.56415712800003,
              15.699790342000028
            ],
            [
              120.56997870600003,
              15.699436782000078
            ],
            [
              120.56998216000011,
              15.703727640000068
            ],
            [
              120.57391432800011,
              15.701786268000035
            ],
            [
              120.58073599400007,
              15.703431659000046
            ],
            [
              120.58344507700008,
              15.700875562000022
            ],
            [
              120.5835899870001,
              15.697830064000073
            ],
            [
              120.5909946480001,
              15.698349867000047
            ],
            [
              120.59811965600011,
              15.70932857200006
            ],
            [
              120.59649987300008,
              15.722590645000025
            ],
            [
              120.59827281700007,
              15.727541078000058
            ],
            [
              120.59751784600007,
              15.731664828000078
            ],
            [
              120.60191211900008,
              15.740815375000068
            ],
            [
              120.60135929500007,
              15.751268670000059
            ],
            [
              120.59978363300002,
              15.75299413600004
            ],
            [
              120.60016785000005,
              15.757590776000029
            ],
            [
              120.59724918800009,
              15.75929981400003
            ],
            [
              120.594246386,
              15.766707791000044
            ],
            [
              120.5957089640001,
              15.770569654000042
            ],
            [
              120.59914247900008,
              15.773595215000057
            ],
            [
              120.58879113400008,
              15.788884836000022
            ],
            [
              120.5884142430001,
              15.793108515000029
            ],
            [
              120.57998266900006,
              15.800766248000059
            ],
            [
              120.57912184400004,
              15.806986836000021
            ],
            [
              120.57526871800007,
              15.810710347000054
            ],
            [
              120.5741227630001,
              15.813969975000077
            ],
            [
              120.57174081200003,
              15.81298662000006
            ]
          ]
        ]
      }
    },
    {
      "type": "Feature",
      "properties": {
        "shapeName": "Pura",
        "shapeISO": "",
        "shapeID": "30758251B36664202091084",
        "shapeGroup": "PHL",
        "shapeType": "ADM3",
        "psgc_code": "0306911000",
        "legacy_psgc_code": "036911000",
        "province": "Tarlac",
        "reference_area_sqkm": 32.11953092,
        "reference_bbox": [
          120.62532152000006,
          15.568179951000047,
          120.68394610700011,
          15.66168930200007
        ]
      },
      "geometry": {
        "type": "Polygon",
        "coordinates": [
          [
            [
              120.63265150900008,
              15.570544160000054
            ],
            [
              120.63550293500009,
              15.568179951000047
            ],
            [
              120.63884109800006,
              15.572129326000038
            ],
            [
              120.64245635800012,
              15.580957729000033
            ],
            [
              120.64927471900012,
              15.587675428000068
            ],
            [
              120.64742094000007,
              15.603354444000047
            ],
            [
              120.64824124400002,
              15.608197220000022
            ],
            [
              120.653927199,
              15.613324012000078
            ],
            [
              120.66145635900011,
              15.613451625000039
            ],
            [
              120.66746965400012,
              15.616379992000077
            ],
            [
              120.68394610700011,
              15.630727482000054
            ],
            [
              120.68188733000011,
              15.632628336000039
            ],
            [
              120.682328675,
              15.634846130000028
            ],
            [
              120.67333140500011,
              15.639969131000043
            ],
            [
              120.67275506800001,
              15.644083541000043
            ],
            [
              120.6673559940001,
              15.649747304000073
            ],
            [
              120.66760105700007,
              15.65447686500005
            ],
            [
              120.66141109900002,
              15.657679771000062
            ],
            [
              120.65820326000005,
              15.66168930200007
            ],
            [
              120.63763956800005,
              15.651093976000027
            ],
            [
              120.62936909300004,
              15.650440015000072
            ],
            [
              120.62963752900009,
              15.633574014000033
            ],
            [
              120.62676846800002,
              15.625669935000076
            ],
            [
              120.62669160700011,
              15.609371940000074
            ],
            [
              120.62532152000006,
              15.605999419000057
            ],
            [
              120.62938612300002,
              15.596247018000042
            ],
            [
              120.6274346890001,
              15.591098330000023
            ],
            [
              120.62727513900006,
              15.579941781000059
            ],
            [
              120.63265150900008,
              15.570544160000054
            ]
          ]
        ]
      }
    },
    {
      "type": "Feature",
      "properties": {
        "shapeName": "San Clemente",
        "shapeISO": "",
        "shapeID": "30758251B85209892464019",
        "shapeGroup": "PHL",
        "shapeType": "ADM3",
        "psgc_code": "0306913000",
        "legacy_psgc_code": "036913000",
        "province": "Tarlac",
        "reference_area_sqkm": 71.27505251000001,
        "reference_bbox": [
          120.25285678300008,
          15.592945479000036,
          120.4136298190001,
          15.756030042000077
        ]
      },
      "geometry": {
        "type": "Polygon",
        "coordinates": [
          [
            [
              120.39426220300004,
              15.75567779100004
            ],
            [
              120.38531501300008,
              15.750394017000076
            ],
            [
              120.38341285500007,
              15.745251145000054
            ],
            [
              120.37859424500004,
              15.74830558900004
            ],
            [
              120.37629341400009,
              15.74690473000004
            ],
            [
              120.37634129500009,
              15.744897113000036
            ],
            [
              120.37326310900005,
              15.74288127400007
            ],
            [
              120.37362224600008,
              15.73952627400007
            ],
            [
              120.37181188700004,
              15.73688296000006
            ],
            [
              120.36621851500001,
              15.737352556000076
            ],
            [
              120.36005956600002,
              15.733280028000024
            ],
            [
              120.36130374200002,
              15.731531419000078
            ],
            [
              120.35808421900003,
              15.729847599000038
            ],
            [
              120.35873602800007,
              15.723365453000042
            ],
            [
              120.35675655800003,
              15.72205402700007
            ],
            [
              120.35633347700002,
              15.718694257000038
            ],
            [
              120.35762592900005,
              15.717084760000034
            ],
            [
              120.35631880900007,
              15.714581285000065
            ],
            [
              120.35809177400006,
              15.714116456000056
            ],
            [
              120.35839257500004,
              15.711756747000038
            ],
            [
              120.35009905600009,
              15.704306805000044
            ],
            [
              120.35060505800004,
              15.701460162000046
            ],
            [
              120.34299911500011,
              15.701118464000047
            ],
            [
              120.344746729,
              15.700261099000045
            ],
            [
              120.34291411400011,
              15.698439808000046
            ],
            [
              120.34322218200009,
              15.696081793000076
            ],
            [
              120.3356580300001,
              15.689831691000052
            ],
            [
              120.33523703900005,
              15.685060476000046
            ],
            [
              120.3278619250001,
              15.680753150000044
            ],
            [
              120.32744614700005,
              15.671447116000024
            ],
            [
              120.32310839000002,
              15.663454366000053
            ],
            [
              120.31590463200007,
              15.657227592000027
            ],
            [
              120.3165434010001,
              15.651022047000026
            ],
            [
              120.31439872700003,
              15.647246697000071
            ],
            [
              120.31116236500009,
              15.644613677000052
            ],
            [
              120.30268576600008,
              15.643235383000047
            ],
            [
              120.29843151000011,
              15.644996438000078
            ],
            [
              120.29575561200011,
              15.644584838000071
            ],
            [
              120.28871381400006,
              15.640647440000066
            ],
            [
              120.28706041900011,
              15.642985860000067
            ],
            [
              120.2857298020001,
              15.642330410000056
            ],
            [
              120.28368711500002,
              15.643883823000067
            ],
            [
              120.27767442100003,
              15.644296911000026
            ],
            [
              120.27051507800002,
              15.64246505400007
            ],
            [
              120.26539332200002,
              15.639273167000056
            ],
            [
              120.25285678300008,
              15.617769571000053
            ],
            [
              120.26404654900011,
              15.59769398900005
            ],
            [
              120.2704069340001,
              15.59335352100004
            ],
            [
              120.28072193100002,
              15.592945479000036
            ],
            [
              120.30258702000003,
              15.606112522000046
            ],
            [
              120.31489605100012,
              15.610779153000067
            ],
            [
              120.32026513400001,
              15.622826373000066
            ],
            [
              120.31807601900005,
              15.631553308000036
            ],
            [
              120.31896909000011,
              15.635893388000056
            ],
            [
              120.31705654400002,
              15.643181465000055
            ],
            [
              120.31787166200002,
              15.64769074000003
            ],
            [
              120.33335889900002,
              15.648653987000046
            ],
            [
              120.33737366500009,
              15.647629306000056
            ],
            [
              120.35113003900005,
              15.654115579000063
            ],
            [
              120.35393827400003,
              15.66056767200007
            ],
            [
              120.35971472500012,
              15.66534150900003
            ],
            [
              120.36032923500011,
              15.672162570000069
            ],
            [
              120.36278727500007,
              15.67732445300004
            ],
            [
              120.37373256300009,
              15.685326160000045
            ],
            [
              120.37801947900005,
              15.686654934000046
            ],
            [
              120.38061362100007,
              15.693784592000043
            ],
            [
              120.38125697400005,
              15.711600692000047
            ],
            [
              120.38647437300006,
              15.713724424000077
            ],
            [
              120.3932175970001,
              15.71966952200006
            ],
            [
              120.3926748990001,
              15.733707049000031
            ],
            [
              120.39733897100007,
              15.74401238200005
            ],
            [
              120.4136298190001,
              15.751902104000067
            ],
            [
              120.4067417330001,
              15.75335536600005
            ],
            [
              120.40586084000006,
              15.755669368000042
            ],
            [
              120.39426220300004,
              15.75567779100004
            ]
          ]
        ]
      }
    },
    {
      "type": "Feature",
      "properties": {
        "shapeName": "San Jose",
        "shapeISO": "",
        "shapeID": "30758251B86793831645374",
        "shapeGroup": "PHL",
        "shapeType": "ADM3",
        "psgc_code": "0306918000",
        "legacy_psgc_code": "036918000",
        "province": "Tarlac",
        "reference_area_sqkm": 595.8301351800001,
        "reference_bbox": [
          120.16519461000007,
          15.314832387000024,
          120.52904578200003,
          15.543781195000065
        ]
      },
      "geometry": {
        "type": "Polygon",
        "coordinates": [
          [
            [
              120.2413135270001,
              15.314832387000024
            ],
            [
              120.31834826800002,
              15.35171120700005
            ],
            [
              120.3211862490001,
              15.348925362000045
            ],
            [
              120.34006132000002,
              15.359641574000023
            ],
            [
              120.35053634100007,
              15.362890304000075
            ],
            [
              120.4075205480001,
              15.394404977000022
            ],
            [
              120.4572417070001,
              15.418713144000037
            ],
            [
              120.46597774600002,
              15.424707715000068
            ],
            [
              120.4839137130001,
              15.420333871000025
            ],
            [
              120.50246438600004,
              15.410771089000036
            ],
            [
              120.52205396400007,
              15.405059595000068
            ],
            [
              120.52415076200009,
              15.413322710000045
            ],
            [
              120.52781292700001,
              15.419974399000068
            ],
            [
              120.52820832700002,
              15.436051211000063
            ],
            [
              120.52560992100007,
              15.442600657000071
            ],
            [
              120.52731136600005,
              15.455719688000045
            ],
            [
              120.52882700700002,
              15.456182155000022
            ],
            [
              120.52690228300003,
              15.46223363300004
            ],
            [
              120.52440786600005,
              15.462764303000029
            ],
            [
              120.51920981100011,
              15.473169601000052
            ],
            [
              120.51104420700005,
              15.497826531000044
            ],
            [
              120.51293882900006,
              15.49911249400003
            ],
            [
              120.51716980600008,
              15.492022211000062
            ],
            [
              120.52621333200011,
              15.497806410000067
            ],
            [
              120.52870070400002,
              15.507785973000068
            ],
            [
              120.52904578200003,
              15.516870147000077
            ],
            [
              120.51318197500007,
              15.508087466000063
            ],
            [
              120.50821914300002,
              15.507510392000029
            ],
            [
              120.50441045800005,
              15.509530150000046
            ],
            [
              120.50457383900005,
              15.512659693000046
            ],
            [
              120.50094801600005,
              15.518359375000045
            ],
            [
              120.49985157700007,
              15.526438404000032
            ],
            [
              120.50895254000011,
              15.53049892100006
            ],
            [
              120.50566359200002,
              15.538100419000045
            ],
            [
              120.49779851900007,
              15.541587547000063
            ],
            [
              120.48516656200002,
              15.543781195000065
            ],
            [
              120.47407254600012,
              15.541443951000076
            ],
            [
              120.42459637700006,
              15.515543340000022
            ],
            [
              120.41759511900011,
              15.514305444000058
            ],
            [
              120.40958933800005,
              15.509500812000056
            ],
            [
              120.38997690000008,
              15.504898023000067
            ],
            [
              120.38807465600007,
              15.49899784400003
            ],
            [
              120.36922235100008,
              15.510633003000066
            ],
            [
              120.33900942600008,
              15.520900562000065
            ],
            [
              120.29065434800009,
              15.508889621000037
            ],
            [
              120.24736529000006,
              15.49987746000005
            ],
            [
              120.19659922500011,
              15.489883408000026
            ],
            [
              120.18330680400004,
              15.488963045000048
            ],
            [
              120.1724779860001,
              15.438335885000072
            ],
            [
              120.16838659000007,
              15.395327532000067
            ],
            [
              120.16532977500003,
              15.36319459300006
            ],
            [
              120.16519461000007,
              15.361773752000033
            ],
            [
              120.2413135270001,
              15.314832387000024
            ]
          ]
        ]
      }
    },
    {
      "type": "Feature",
      "properties": {
        "shapeName": "San Manuel",
        "shapeISO": "",
        "shapeID": "30758251B40197742842529",
        "shapeGroup": "PHL",
        "shapeType": "ADM3",
        "psgc_code": "0306914000",
        "legacy_psgc_code": "036914000",
        "province": "Tarlac",
        "reference_area_sqkm": 32.678553,
        "reference_bbox": [
          120.57348046400011,
          15.770767554000031,
          120.62231146800002,
          15.862431135000065
        ]
      },
      "geometry": {
        "type": "Polygon",
        "coordinates": [
          [
            [
              120.5741227630001,
              15.813969975000077
            ],
            [
              120.57526871800007,
              15.810710347000054
            ],
            [
              120.57912184400004,
              15.806986836000021
            ],
            [
              120.57998266900006,
              15.800766248000059
            ],
            [
              120.5884142430001,
              15.793108515000029
            ],
            [
              120.58879113400008,
              15.788884836000022
            ],
            [
              120.59914247900008,
              15.773595215000057
            ],
            [
              120.60407411000006,
              15.770767554000031
            ],
            [
              120.60832912,
              15.770971329000076
            ],
            [
              120.61110686100005,
              15.772878940000055
            ],
            [
              120.6196713920001,
              15.772006915000077
            ],
            [
              120.62231146800002,
              15.773243401000059
            ],
            [
              120.62131643300006,
              15.77761468600005
            ],
            [
              120.62227065000002,
              15.780003493000038
            ],
            [
              120.6150636640001,
              15.815561238000043
            ],
            [
              120.61138623700003,
              15.83726073300005
            ],
            [
              120.60363091200009,
              15.860894016000032
            ],
            [
              120.5900943040001,
              15.862431135000065
            ],
            [
              120.5801044100001,
              15.84129036400003
            ],
            [
              120.58036818900007,
              15.829906405000031
            ],
            [
              120.57466477500009,
              15.822953426000026
            ],
            [
              120.5763191210001,
              15.818205586000033
            ],
            [
              120.57617837100008,
              15.816798083000037
            ],
            [
              120.57348046400011,
              15.815873214000078
            ],
            [
              120.5741227630001,
              15.813969975000077
            ]
          ]
        ]
      }
    },
    {
      "type": "Feature",
      "properties": {
        "shapeName": "Santa Ignacia",
        "shapeISO": "",
        "shapeID": "30758251B1064490572832",
        "shapeGroup": "PHL",
        "shapeType": "ADM3",
        "psgc_code": "0306915000",
        "legacy_psgc_code": "036915000",
        "province": "Tarlac",
        "reference_area_sqkm": 131.45882842999998,
        "reference_bbox": [
          120.38997690000008,
          15.504898023000067,
          120.52130543300007,
          15.657731048000073
        ]
      },
      "geometry": {
        "type": "Polygon",
        "coordinates": [
          [
            [
              120.40261150700007,
              15.62836687400005
            ],
            [
              120.40467051300004,
              15.627415934000055
            ],
            [
              120.40354203100003,
              15.626304016000063
            ],
            [
              120.40421265100008,
              15.618871830000046
            ],
            [
              120.40261568500011,
              15.617463695000026
            ],
            [
              120.40595321400008,
              15.609288307000043
            ],
            [
              120.40226995300009,
              15.608788391000076
            ],
            [
              120.40611989000001,
              15.60513897100003
            ],
            [
              120.40821689200004,
              15.589647852000041
            ],
            [
              120.40583907200005,
              15.57984820300004
            ],
            [
              120.4101294840001,
              15.579505321000056
            ],
            [
              120.41082249700003,
              15.56669400100003
            ],
            [
              120.40419462200009,
              15.556751791000067
            ],
            [
              120.40528723800003,
              15.552217437000024
            ],
            [
              120.39714412800004,
              15.55083931200005
            ],
            [
              120.39024841000003,
              15.519480318000035
            ],
            [
              120.38997690000008,
              15.504898023000067
            ],
            [
              120.40958933800005,
              15.509500812000056
            ],
            [
              120.41759511900011,
              15.514305444000058
            ],
            [
              120.42459637700006,
              15.515543340000022
            ],
            [
              120.47407254600012,
              15.541443951000076
            ],
            [
              120.48516656200002,
              15.543781195000065
            ],
            [
              120.49779851900007,
              15.541587547000063
            ],
            [
              120.50566359200002,
              15.538100419000045
            ],
            [
              120.51167095700009,
              15.544476951000036
            ],
            [
              120.52117628000008,
              15.545019627000045
            ],
            [
              120.5158745330001,
              15.552633594000042
            ],
            [
              120.51691920000007,
              15.55455366600006
            ],
            [
              120.50969281400012,
              15.562802222000073
            ],
            [
              120.49956438100003,
              15.567924933000029
            ],
            [
              120.49361972600002,
              15.57323436300004
            ],
            [
              120.49517836900009,
              15.60115077200004
            ],
            [
              120.49108734900005,
              15.606063765000044
            ],
            [
              120.48896100700006,
              15.61923278100005
            ],
            [
              120.48647813600007,
              15.620573167000032
            ],
            [
              120.48120793500004,
              15.62926751200007
            ],
            [
              120.47552383200002,
              15.646243410000068
            ],
            [
              120.47611246100007,
              15.650995204000026
            ],
            [
              120.47312641200006,
              15.657731048000073
            ],
            [
              120.45629537200011,
              15.655791495000074
            ],
            [
              120.44820323200008,
              15.65738142500004
            ],
            [
              120.4472043070001,
              15.656382500000063
            ],
            [
              120.44808578300001,
              15.654849085000023
            ],
            [
              120.44218474600007,
              15.652403008000022
            ],
            [
              120.44224305700004,
              15.654801966000036
            ],
            [
              120.43516553400002,
              15.652644425000062
            ],
            [
              120.43573475500011,
              15.63687436500004
            ],
            [
              120.43291864800005,
              15.63729670600003
            ],
            [
              120.43150995000008,
              15.634159753000063
            ],
            [
              120.425947962,
              15.633029689000068
            ],
            [
              120.42263735300003,
              15.633761508000077
            ],
            [
              120.42033527000001,
              15.632169795000038
            ],
            [
              120.41567428400003,
              15.631796179000048
            ],
            [
              120.40972703000011,
              15.632837622000068
            ],
            [
              120.40261150700007,
              15.62836687400005
            ]
          ]
        ]
      }
    },
    {
      "type": "Feature",
      "properties": {
        "shapeName": "Victoria",
        "shapeISO": "",
        "shapeID": "30758251B28872871222208",
        "shapeGroup": "PHL",
        "shapeType": "ADM3",
        "psgc_code": "0306917000",
        "legacy_psgc_code": "036917000",
        "province": "Tarlac",
        "reference_area_sqkm": 109.66356898,
        "reference_bbox": [
          120.6149832540001,
          15.51820574900006,
          120.75510839900005,
          15.630727482000054
        ]
      },
      "geometry": {
        "type": "Polygon",
        "coordinates": [
          [
            [
              120.67659618900007,
              15.521484560000033
            ],
            [
              120.68243935600003,
              15.520387367000069
            ],
            [
              120.68915336400005,
              15.521827234000057
            ],
            [
              120.69322914800011,
              15.525371115000041
            ],
            [
              120.69674721600006,
              15.526334969000061
            ],
            [
              120.70171106500004,
              15.524021719000075
            ],
            [
              120.70845628400002,
              15.523381426000071
            ],
            [
              120.7129996650001,
              15.529277921000073
            ],
            [
              120.71710985200002,
              15.528219035000063
            ],
            [
              120.72221684400006,
              15.529319003000069
            ],
            [
              120.73152774400012,
              15.527064144000065
            ],
            [
              120.73334635000003,
              15.527286813000046
            ],
            [
              120.73293765200003,
              15.529016821000027
            ],
            [
              120.73572625500003,
              15.531226558000071
            ],
            [
              120.73374421300002,
              15.532434373000058
            ],
            [
              120.73451631800003,
              15.533849692000047
            ],
            [
              120.73276809800007,
              15.533920575000025
            ],
            [
              120.7344224740001,
              15.537180933000059
            ],
            [
              120.73066303100006,
              15.537817705000066
            ],
            [
              120.72978653300004,
              15.539347193000026
            ],
            [
              120.73058588300012,
              15.541559324000048
            ],
            [
              120.72912336700006,
              15.545395233000022
            ],
            [
              120.72572699300008,
              15.545596571000033
            ],
            [
              120.72099495400005,
              15.550356954000051
            ],
            [
              120.72489847800011,
              15.553030500000034
            ],
            [
              120.72147710000002,
              15.558444137000038
            ],
            [
              120.72841507600003,
              15.559703659000036
            ],
            [
              120.7289133270001,
              15.566384194000022
            ],
            [
              120.73072483400006,
              15.567952435000052
            ],
            [
              120.73146472300004,
              15.573414178000064
            ],
            [
              120.72899524400009,
              15.576719756000045
            ],
            [
              120.73179281500006,
              15.582452793000073
            ],
            [
              120.73522834200003,
              15.583499240000037
            ],
            [
              120.73545655900011,
              15.585361229000057
            ],
            [
              120.74267465600008,
              15.589816613000039
            ],
            [
              120.74596829300003,
              15.590330470000026
            ],
            [
              120.75073832900011,
              15.599620040000048
            ],
            [
              120.75507579900011,
              15.60366444400006
            ],
            [
              120.75359866200006,
              15.612864238000043
            ],
            [
              120.74439029300004,
              15.615879413000073
            ],
            [
              120.74239889700004,
              15.618778710000072
            ],
            [
              120.726683277,
              15.617028226000059
            ],
            [
              120.719061484,
              15.620512831000042
            ],
            [
              120.71505516200011,
              15.617866583000023
            ],
            [
              120.69795495400001,
              15.61926956800005
            ],
            [
              120.69694031000006,
              15.618043090000072
            ],
            [
              120.68394610700011,
              15.630727482000054
            ],
            [
              120.66746965400012,
              15.616379992000077
            ],
            [
              120.66145635900011,
              15.613451625000039
            ],
            [
              120.653927199,
              15.613324012000078
            ],
            [
              120.64824124400002,
              15.608197220000022
            ],
            [
              120.64742094000007,
              15.603354444000047
            ],
            [
              120.64927471900012,
              15.587675428000068
            ],
            [
              120.64245635800012,
              15.580957729000033
            ],
            [
              120.63884109800006,
              15.572129326000038
            ],
            [
              120.63550293500009,
              15.568179951000047
            ],
            [
              120.63265150900008,
              15.570544160000054
            ],
            [
              120.63340754100011,
              15.564037793000068
            ],
            [
              120.62160980800002,
              15.56070435600003
            ],
            [
              120.6149832540001,
              15.551734900000042
            ],
            [
              120.6155901620001,
              15.549884127000041
            ],
            [
              120.61856153200006,
              15.549884127000041
            ],
            [
              120.62748586900011,
              15.544201136000027
            ],
            [
              120.63977447200011,
              15.533412946000055
            ],
            [
              120.64693081900009,
              15.524742864000075
            ],
            [
              120.66397546900009,
              15.529284244000053
            ],
            [
              120.66450932100008,
              15.524058111000045
            ],
            [
              120.66750252600002,
              15.518447068000057
            ],
            [
              120.67659618900007,
              15.521484560000033
            ]
          ]
        ]
      }
    }
  ]
}
