{
    "type": "FeatureCollection",
    "source": {
        "dataset": "geoBoundaries gbOpen Philippines ADM3",
        "commit": "9469f09",
        "boundary_year": 2020,
        "license": "CC BY 3.0 IGO",
        "url": "https://media.githubusercontent.com/media/wmgeolab/geoBoundaries/9469f09/releaseData/gbOpen/PHL/ADM3/geoBoundaries-PHL-ADM3_simplified.geojson",
        "retrieved": "2026-09-03"
    },
    "features": [
        {
            "type": "Feature",
            "properties": {
                "shapeName": "City of Tarlac",
                "shapeISO": "",
                "shapeID": "30758251B41951653344210",
                "shapeGroup": "PHL",
                "shapeType": "ADM3"
            },
            "geometry": {
                "type": "Polygon",
                "coordinates": [
                    [
                        [
                            120.60202632500011,
                            15.408805875000041
                        ],
                        [
                            120.60888704600006,
                            15.410342469000057
                        ],
                        [
                            120.61096231700003,
                            15.412334722000026
                        ],
                        [
                            120.61635183400006,
                            15.41029347500006
                        ],
                        [
                            120.62368193100008,
                            15.41077152500003
                        ],
                        [
                            120.63031088800005,
                            15.414723403000039
                        ],
                        [
                            120.63378471700003,
                            15.414882753000029
                        ],
                        [
                            120.64098901800003,
                            15.420680831000027
                        ],
                        [
                            120.64509290700005,
                            15.421459079000044
                        ],
                        [
                            120.65992643300001,
                            15.413100806000045
                        ],
                        [
                            120.66839532400002,
                            15.440731176000043
                        ],
                        [
                            120.67258443600008,
                            15.439827051000066
                        ],
                        [
                            120.68018146100007,
                            15.45049676800005
                        ],
                        [
                            120.68395872600001,
                            15.452487352000048
                        ],
                        [
                            120.68746449500009,
                            15.460161911000057
                        ],
                        [
                            120.6927683990001,
                            15.466055986000072
                        ],
                        [
                            120.69258590100003,
                            15.468629675000045
                        ],
                        [
                            120.69764823800006,
                            15.471047508000026
                        ],
                        [
                            120.70411616800004,
                            15.479351570000063
                        ],
                        [
                            120.70233608700005,
                            15.482157615000062
                        ],
                        [
                            120.70336610700008,
                            15.485033429000055
                        ],
                        [
                            120.70112314000005,
                            15.48976914900004
                        ],
                        [
                            120.69882201900009,
                            15.49103615100006
                        ],
                        [
                            120.69991474300002,
                            15.492226005000077
                        ],
                        [
                            120.69107828300002,
                            15.500510751000036
                        ],
                        [
                            120.68976733800002,
                            15.50579822800006
                        ],
                        [
                            120.68334370900004,
                            15.505011661000026
                        ],
                        [
                            120.68232330800004,
                            15.506184158000053
                        ],
                        [
                            120.68253652400006,
                            15.513314989000037
                        ],
                        [
                            120.67769223500011,
                            15.516778012000032
                        ],
                        [
                            120.67659618900007,
                            15.521484560000033
                        ],
                        [
                            120.66750252600002,
                            15.518447068000057
                        ],
                        [
                            120.66450932100008,
                            15.524058111000045
                        ],
                        [
                            120.66397546900009,
                            15.529284244000053
                        ],
                        [
                            120.64693081900009,
                            15.524742864000075
                        ],
                        [
                            120.63977447200011,
                            15.533412946000055
                        ],
                        [
                            120.62748586900011,
                            15.544201136000027
                        ],
                        [
                            120.61856153200006,
                            15.549884127000041
                        ],
                        [
                            120.6155901620001,
                            15.549884127000041
                        ],
                        [
                            120.61350151400006,
                            15.551269053000055
                        ],
                        [
                            120.60886660800008,
                            15.550635122000074
                        ],
                        [
                            120.60427091200006,
                            15.552000057000043
                        ],
                        [
                            120.5962621430001,
                            15.55127499100007
                        ],
                        [
                            120.59224829900006,
                            15.553251959000022
                        ],
                        [
                            120.58428725300007,
                            15.554279099000041
                        ],
                        [
                            120.58136322900009,
                            15.55638256900005
                        ],
                        [
                            120.57400244500002,
                            15.55541830900006
                        ],
                        [
                            120.5704975110001,
                            15.56077328400005
                        ],
                        [
                            120.56275320300006,
                            15.565038381000022
                        ],
                        [
                            120.5532532740001,
                            15.560940878000054
                        ],
                        [
                            120.552879232,
                            15.562544526000067
                        ],
                        [
                            120.54951994700002,
                            15.562072297000043
                        ],
                        [
                            120.548353786,
                            15.563678401000061
                        ],
                        [
                            120.54615816900002,
                            15.559382851000066
                        ],
                        [
                            120.54323530400006,
                            15.560512169000049
                        ],
                        [
                            120.54091305700001,
                            15.559497165000039
                        ],
                        [
                            120.54061012300008,
                            15.556788763000043
                        ],
                        [
                            120.53900562700005,
                            15.557090599000048
                        ],
                        [
                            120.53972050100003,
                            15.555247812000061
                        ],
                        [
                            120.53775062500006,
                            15.554262873000027
                        ],
                        [
                            120.53522473400005,
                            15.548845713000048
                        ],
                        [
                            120.53113358400003,
                            15.548264618000076
                        ],
                        [
                            120.52882676000002,
                            15.542505185000039
                        ],
                        [
                            120.52629303600008,
                            15.542361964000065
                        ],
                        [
                            120.52572091000002,
                            15.539197010000066
                        ],
                        [
                            120.52117628000008,
                            15.545019627000045
                        ],
                        [
                            120.51167095700009,
                            15.544476951000036
                        ],
                        [
                            120.50566359200002,
                            15.538100419000045
                        ],
                        [
                            120.50895254000011,
                            15.53049892100006
                        ],
                        [
                            120.49985157700007,
                            15.526438404000032
                        ],
                        [
                            120.50094801600005,
                            15.518359375000045
                        ],
                        [
                            120.50457383900005,
                            15.512659693000046
                        ],
                        [
                            120.50441045800005,
                            15.509530150000046
                        ],
                        [
                            120.50821914300002,
                            15.507510392000029
                        ],
                        [
                            120.51318197500007,
                            15.508087466000063
                        ],
                        [
                            120.52904578200003,
                            15.516870147000077
                        ],
                        [
                            120.52870070400002,
                            15.507785973000068
                        ],
                        [
                            120.52621333200011,
                            15.497806410000067
                        ],
                        [
                            120.51716980600008,
                            15.492022211000062
                        ],
                        [
                            120.51293882900006,
                            15.49911249400003
                        ],
                        [
                            120.51104420700005,
                            15.497826531000044
                        ],
                        [
                            120.51920981100011,
                            15.473169601000052
                        ],
                        [
                            120.52440786600005,
                            15.462764303000029
                        ],
                        [
                            120.52690228300003,
                            15.46223363300004
                        ],
                        [
                            120.52882700700002,
                            15.456182155000022
                        ],
                        [
                            120.52731136600005,
                            15.455719688000045
                        ],
                        [
                            120.52560992100007,
                            15.442600657000071
                        ],
                        [
                            120.52820832700002,
                            15.436051211000063
                        ],
                        [
                            120.52781292700001,
                            15.419974399000068
                        ],
                        [
                            120.52415076200009,
                            15.413322710000045
                        ],
                        [
                            120.52205396400007,
                            15.405059595000068
                        ],
                        [
                            120.53154462900011,
                            15.409463241000026
                        ],
                        [
                            120.53689037600009,
                            15.404839796000033
                        ],
                        [
                            120.54487639500007,
                            15.404619998000044
                        ],
                        [
                            120.55869904100007,
                            15.412130903000048
                        ],
                        [
                            120.56875415500008,
                            15.404614006000031
                        ],
                        [
                            120.57238120000011,
                            15.403729801000054
                        ],
                        [
                            120.57907589700005,
                            15.403585441000075
                        ],
                        [
                            120.58374747100004,
                            15.407053125000061
                        ],
                        [
                            120.58700229300007,
                            15.405407831000048
                        ],
                        [
                            120.59315426400008,
                            15.405121692000023
                        ],
                        [
                            120.60202632500011,
                            15.408805875000041
                        ]
                    ]
                ]
            }
        },
        {
            "type": "Feature",
            "properties": {
                "shapeName": "Concepcion",
                "shapeISO": "",
                "shapeID": "30758251B96121562186522",
                "shapeGroup": "PHL",
                "shapeType": "ADM3"
            },
            "geometry": {
                "type": "Polygon",
                "coordinates": [
                    [
                        [
                            120.6166080480001,
                            15.262939516000074
                        ],
                        [
                            120.62521773300011,
                            15.262498089000076
                        ],
                        [
                            120.63261738900007,
                            15.259523647000037
                        ],
                        [
                            120.64104780500008,
                            15.260926176000055
                        ],
                        [
                            120.65281420300005,
                            15.273419936000039
                        ],
                        [
                            120.66337176900004,
                            15.278676208000036
                        ],
                        [
                            120.66793663200008,
                            15.27776013700003
                        ],
                        [
                            120.67504463800003,
                            15.268812095000044
                        ],
                        [
                            120.69336023000005,
                            15.262664268000037
                        ],
                        [
                            120.70234398200012,
                            15.264247830000045
                        ],
                        [
                            120.70335736000004,
                            15.270514801000047
                        ],
                        [
                            120.70611240500011,
                            15.274087277000035
                        ],
                        [
                            120.72342415500009,
                            15.27596055600003
                        ],
                        [
                            120.72751186000005,
                            15.274497784000062
                        ],
                        [
                            120.73421095200001,
                            15.27715833800005
                        ],
                        [
                            120.74068670100007,
                            15.28074293000003
                        ],
                        [
                            120.74335533400006,
                            15.275742684000022
                        ],
                        [
                            120.7495589020001,
                            15.274115519000077
                        ],
                        [
                            120.74884701700012,
                            15.288149819000068
                        ],
                        [
                            120.74201197700006,
                            15.300804309000057
                        ],
                        [
                            120.75572014200009,
                            15.319438281000032
                        ],
                        [
                            120.7553515410001,
                            15.323333416000025
                        ],
                        [
                            120.7530612920001,
                            15.324952410000037
                        ],
                        [
                            120.74483669800009,
                            15.32621160900004
                        ],
                        [
                            120.74175236500002,
                            15.329038409000077
                        ],
                        [
                            120.742345053,
                            15.330581377000044
                        ],
                        [
                            120.7384524040001,
                            15.333535906000066
                        ],
                        [
                            120.73899844700009,
                            15.335248329000024
                        ],
                        [
                            120.73731254100005,
                            15.337543457000038
                        ],
                        [
                            120.73879729500004,
                            15.342096032000029
                        ],
                        [
                            120.73660991100007,
                            15.349449526000058
                        ],
                        [
                            120.73776160400007,
                            15.352537409000035
                        ],
                        [
                            120.7394384160001,
                            15.35272638300006
                        ],
                        [
                            120.74140045100012,
                            15.358813220000059
                        ],
                        [
                            120.74079541800006,
                            15.360505359000058
                        ],
                        [
                            120.73872024000002,
                            15.359910997000043
                        ],
                        [
                            120.73955929600004,
                            15.36816447700005
                        ],
                        [
                            120.73285330600004,
                            15.369349446000058
                        ],
                        [
                            120.7300003250001,
                            15.37206029500004
                        ],
                        [
                            120.72279034400003,
                            15.374509189000037
                        ],
                        [
                            120.71430641400002,
                            15.384495620000052
                        ],
                        [
                            120.70759240400002,
                            15.382617781000022
                        ],
                        [
                            120.704540414,
                            15.383954717000051
                        ],
                        [
                            120.6993524500001,
                            15.389017435000028
                        ],
                        [
                            120.6949274540001,
                            15.389561429000025
                        ],
                        [
                            120.68638685000008,
                            15.400045104000071
                        ],
                        [
                            120.67093474800004,
                            15.404298265000023
                        ],
                        [
                            120.65992643300001,
                            15.413100806000045
                        ],
                        [
                            120.64509290700005,
                            15.421459079000044
                        ],
                        [
                            120.64098901800003,
                            15.420680831000027
                        ],
                        [
                            120.63378471700003,
                            15.414882753000029
                        ],
                        [
                            120.63031088800005,
                            15.414723403000039
                        ],
                        [
                            120.62368193100008,
                        15.41077152500003
                        ],
                        [
                            120.61635183400006,
                        15.41029347500006
                        ],
                        [
                            120.61096231700003,
                            15.412334722000026
                        ],
                        [
                            120.60888704600006,
                            15.410342469000057
                        ],
                        [
                            120.60202632500011,
                            15.408805875000041
                        ],
                        [
                            120.5982093880001,
                            15.376242881000053
                        ],
                        [
                            120.60210489700012,
                            15.364825386000064
                        ],
                        [
                            120.60355238200009,
                            15.35414954600003
                        ],
                        [
                            120.60236218600005,
                            15.340408410000066
                        ],
                        [
                            120.60924021300002,
                            15.33823883100007
                        ],
                        [
                            120.61553528200011,
                            15.329951683000047
                        ],
                        [
                            120.60921231100008,
                            15.324793937000038
                        ],
                        [
                            120.60562336300006,
                            15.316226481000058
                        ],
                        [
                            120.59989974200005,
                            15.31014086500005
                        ],
                        [
                            120.59941571900004,
                            15.307075006000048
                        ],
                        [
                            120.60047974200006,
                            15.301637819000064
                        ],
                        [
                            120.61441382600003,
                            15.294255892000024
                        ],
                        [
                            120.61445143800006,
                            15.286869115000059
                        ],
                        [
                            120.61184442000001,
                            15.281168595000054
                        ],
                        [
                            120.6166080480001,
                            15.262939516000074
                        ]
                    ]
                ]
            }
        }
    ]
}
