{"type":"FeatureCollection","source":{"dataset":"geoBoundaries gbOpen PHL ADM3","commit":"9469f09","url":"https://media.githubusercontent.com/media/wmgeolab/geoBoundaries/9469f09/releaseData/gbOpen/PHL/ADM3/geoBoundaries-PHL-ADM3_simplified.geojson","api":"https://www.geoboundaries.org/api/current/gbOpen/PHL/ADM3/","boundaryYear":2020,"license":"CC BY 3.0 IGO","sourceOrganizations":["NAMRIA","PSA","OCHA Philippines"],"retrievedAt":"2026-09-03","notice":"Approximate planning/reference boundaries; not legal, cadastral, or survey-grade boundaries."},"features":[{"type":"Feature","properties":{"shapeName":"Anao","shapeISO":"","shapeID":"30758251B97244135669664","shapeGroup":"PHL","shapeType":"ADM3"},"geometry":{"type":"Polygon","coordinates":[[[120.62231146800002,15.773243401000059],[120.6196713920001,15.772006915000077],[120.61110686100005,15.772878940000055],[120.60832912,15.770971329000076],[120.60407411000006,15.770767554000031],[120.59914247900008,15.773595215000057],[120.5957089640001,15.770569654000042],[120.594246386,15.766707791000044],[120.59724918800009,15.75929981400003],[120.60016785000005,15.757590776000029],[120.59978363300002,15.75299413600004],[120.60135929500007,15.751268670000059],[120.60191211900008,15.740815375000068],[120.59751784600007,15.731664828000078],[120.59827281700007,15.727541078000058],[120.59649987300008,15.722590645000025],[120.59811965600011,15.70932857200006],[120.60828909000008,15.708289688000036],[120.61040424300006,15.705543215000034],[120.61484352600007,15.703650044000028],[120.61562770100011,15.705982274000064],[120.61909364000007,15.702936463000071],[120.62312165600008,15.705275292000067],[120.62375021600008,15.704115943000033],[120.62799389500003,15.705801869000027],[120.63101927200012,15.702674513000034],[120.63492463600005,15.702909360000035],[120.64170017100002,15.699918340000067],[120.63869492200001,15.707285131000049],[120.63879161200009,15.716402509000034],[120.63374427800011,15.727567763000025],[120.62973031900003,15.72813910900004],[120.62756126400006,15.733447392000073],[120.62867135500005,15.73472072100003],[120.62831087200004,15.741896405000034],[120.624449518,15.762827406000042],[120.62231146800002,15.773243401000059]]]}},{"type":"Feature","properties":{"shapeName":"Camiling","shapeISO":"","shapeID":"30758251B23459833682053","shapeGroup":"PHL","shapeType":"ADM3"},"geometry":{"type":"Polygon","coordinates":[[[120.4136298190001,15.751902104000067],[120.39733897100007,15.74401238200005],[120.3926748990001,15.733707049000031],[120.3932175970001,15.71966952200006],[120.38647437300006,15.713724424000077],[120.38125697400005,15.711600692000047],[120.38061362100007,15.693784592000043],[120.37801947900005,15.686654934000046],[120.37373256300009,15.685326160000045],[120.36278727500007,15.67732445300004],[120.36032923500011,15.672162570000069],[120.35971472500012,15.66534150900003],[120.35393827400003,15.66056767200007],[120.35113003900005,15.654115579000063],[120.33737366500009,15.647629306000056],[120.33335889900002,15.648653987000046],[120.31787166200002,15.64769074000003],[120.31705654400002,15.643181465000055],[120.31896909000011,15.635893388000056],[120.31807601900005,15.631553308000036],[120.32026513400001,15.622826373000066],[120.33402656500004,15.625240433000045],[120.34371013400005,15.623165199000027],[120.35282586000005,15.618320845000028],[120.35690396000007,15.622237952000035],[120.35816680100004,15.621097774000077],[120.3672230740001,15.626070970000058],[120.36603162400002,15.630504165000048],[120.36691172400003,15.632625565000069],[120.37301071400009,15.633747137000057],[120.37991665000004,15.64066426100004],[120.39413882800011,15.647393316000034],[120.39844245000006,15.644751668000026],[120.40111159800006,15.64044115300004],[120.39821622400007,15.630965825000033],[120.40261150700007,15.62836687400005],[120.40972703000011,15.632837622000068],[120.41567428400003,15.631796179000048],[120.42033527000001,15.632169795000038],[120.42263735300003,15.633761508000077],[120.425947962,15.633029689000068],[120.43150995000008,15.634159753000063],[120.43291864800005,15.63729670600003],[120.43573475500011,15.63687436500004],[120.43516553400002,15.652644425000062],[120.44224305700004,15.654801966000036],[120.44218474600007,15.652403008000022],[120.44808578300001,15.654849085000023],[120.4472043070001,15.656382500000063],[120.44820323200008,15.65738142500004],[120.45629537200011,15.655791495000074],[120.47312641200006,15.657731048000073],[120.4705183960001,15.663564871000062],[120.47157140200011,15.664404812000043],[120.47070144300005,15.670239457000037],[120.47269351000011,15.679914846000031],[120.48786207800003,15.698438224000029],[120.48315365600001,15.69940682500004],[120.47037370500004,15.706600253000033],[120.46880079100004,15.709799470000064],[120.46991009400006,15.718656924000072],[120.46759425200003,15.722242866000045],[120.46446933000004,15.725034295000057],[120.46376871200005,15.727751282000042],[120.45749039500004,15.731376074000025],[120.45271039900001,15.738662435000037],[120.43314231600004,15.751574314000038],[120.42743393600006,15.753827950000073],[120.42469993600002,15.751572992000035],[120.42056025900001,15.752771336000023],[120.4223573700001,15.75005956800004],[120.4136298190001,15.751902104000067]]]}},{"type":"Feature","properties":{"shapeName":"Paniqui","shapeISO":"","shapeID":"30758251B69585850409571","shapeGroup":"PHL","shapeType":"ADM3"},"geometry":{"type":"Polygon","coordinates":[[[120.59811965600011,15.70932857200006],[120.5909946480001,15.698349867000047],[120.5835899870001,15.697830064000073],[120.58344507700008,15.700875562000022],[120.58073599400007,15.703431659000046],[120.57391432800011,15.701786268000035],[120.56998216000011,15.703727640000068],[120.56997870600003,15.699436782000078],[120.56415712800003,15.699790342000028],[120.56509059400003,15.696068695000065],[120.5600271620001,15.695307283000034],[120.55580923000002,15.697035386000039],[120.55313757300007,15.693578013000035],[120.52539876000003,15.689619229000073],[120.51747351000006,15.693391716000065],[120.51200369600008,15.690135368000028],[120.50867949200006,15.690196654000033],[120.4992222080001,15.696488557000066],[120.48786207800003,15.698438224000029],[120.47269351000011,15.679914846000031],[120.47070144300005,15.670239457000037],[120.47157140200011,15.664404812000043],[120.4705183960001,15.663564871000062],[120.47312641200006,15.657731048000073],[120.47611246100007,15.650995204000026],[120.47552383200002,15.646243410000068],[120.48120793500004,15.62926751200007],[120.48647813600007,15.620573167000032],[120.48896100700006,15.61923278100005],[120.48945303200003,15.626012725000066],[120.49131611900009,15.62425816700005],[120.49275813500003,15.626559016000044],[120.51282938300005,15.629362181000033],[120.52505990500003,15.630112565000047],[120.52926975200012,15.629141061000041],[120.53506933200003,15.630583596000065],[120.54949580800007,15.62378788500007],[120.55232268700001,15.625520489000053],[120.56487230100004,15.625777115000062],[120.57210788600003,15.630635518000076],[120.58801344800008,15.633915953000042],[120.59487836000005,15.636813285000073],[120.60600956200005,15.645828705000042],[120.60965773300006,15.64713948700006],[120.60824007400004,15.650821020000024],[120.60246795300009,15.65498419100004],[120.6014999570001,15.660543447000066],[120.60769433700011,15.663231211000038],[120.61038013500001,15.666995135000036],[120.61286627600009,15.677104235000058],[120.61788620700008,15.678565566000032],[120.61940895600003,15.680804948000059],[120.61553183700005,15.685864499000047],[120.61244642200006,15.685552133000044],[120.61041005300001,15.687048426000047],[120.60854276700002,15.691445012000031],[120.60976693500004,15.69637681100005],[120.61409706500001,15.699778280000032],[120.61484352600007,15.703650044000028],[120.61040424300006,15.705543215000034],[120.60828909000008,15.708289688000036],[120.59811965600011,15.70932857200006]]]}},{"type":"Feature","properties":{"shapeName":"Ramos","shapeISO":"","shapeID":"30758251B37101241671575","shapeGroup":"PHL","shapeType":"ADM3"},"geometry":{"type":"Polygon","coordinates":[[[120.61484352600007,15.703650044000028],[120.61409706500001,15.699778280000032],[120.60976693500004,15.69637681100005],[120.60854276700002,15.691445012000031],[120.61041005300001,15.687048426000047],[120.61244642200006,15.685552133000044],[120.61553183700005,15.685864499000047],[120.61940895600003,15.680804948000059],[120.61788620700008,15.678565566000032],[120.61286627600009,15.677104235000058],[120.61038013500001,15.666995135000036],[120.60769433700011,15.663231211000038],[120.6014999570001,15.660543447000066],[120.60246795300009,15.65498419100004],[120.60824007400004,15.650821020000024],[120.60965773300006,15.64713948700006],[120.61389986900008,15.643037157000037],[120.62936909300004,15.650440015000072],[120.63763956800005,15.651093976000027],[120.65820326000005,15.66168930200007],[120.656631478,15.669147538000061],[120.65840369700004,15.672482424000066],[120.65654515400001,15.677218476000064],[120.65471535600011,15.676743043000045],[120.65331411700004,15.680714156000022],[120.64858540500006,15.683040508000033],[120.64170017100002,15.699918340000067],[120.63492463600005,15.702909360000035],[120.63101927200012,15.702674513000034],[120.62799389500003,15.705801869000027],[120.62375021600008,15.704115943000033],[120.62312165600008,15.705275292000067],[120.61909364000007,15.702936463000071],[120.61562770100011,15.705982274000064],[120.61484352600007,15.703650044000028]]]}}]}
