{"type":"FeatureCollection","source":{"dataset":"geoBoundaries gbOpen PHL ADM3","commit":"9469f09","license":"CC BY 3.0 IGO","boundary_year":2020,"url":"https://media.githubusercontent.com/media/wmgeolab/geoBoundaries/9469f09/releaseData/gbOpen/PHL/ADM3/geoBoundaries-PHL-ADM3_simplified.geojson","upstream_sources":["NAMRIA","PSA","OCHA Philippines"],"reference":"https://ulap-nga.georisk.gov.ph/arcgis/rest/services/PSA/Municipal/MapServer/0","psgc_reference":"https://psa.gov.ph/classification/psgc/citimuni/0300000000","notice":"Approximate planning/reference boundaries, not legal, cadastral, or survey-grade."},"features":[{"type":"Feature","properties":{"shapeName":"Botolan","shapeISO":"","shapeID":"30758251B29617351777930","shapeGroup":"PHL","shapeType":"ADM3","psgc_code":"0307101000","legacy_psgc_code":"037101000","province":"Zambales"},"geometry":{"type":"Polygon","coordinates":[[[120.33616555000003,15.235095099000034],[120.28224524300003,15.289590427000064],[120.2413135270001,15.314832387000024],[120.16519461000007,15.361773752000033],[120.16532977500003,15.36319459300006],[120.07928537100008,15.36317368500005],[120.07572061300004,15.359481559000074],[120.06807076500002,15.359852807000038],[120.06369652700005,15.356297368000071],[120.06198298000004,15.358876186000032],[120.05799720700008,15.355931811000062],[120.05756369700009,15.353827366000075],[120.05345258800003,15.354860831000053],[120.05078182400007,15.351608646000045],[120.04764168500003,15.352793790000078],[120.04287509900007,15.327880581000045],[120.03334850100009,15.326524260000042],[120.0309695740001,15.329724831000021],[120.02626254000006,15.32912918900007],[120.025664978,15.330811951000044],[120.02175874800002,15.33138294400004],[120.02043614400009,15.32575070400003],[120.01854590700009,15.325016709000067],[120.01740619600002,15.326517705000072],[120.01702962600007,15.323300415000062],[120.01193823100004,15.321757778000062],[120.01119882000012,15.319018993000043],[120.00846482500003,15.319621443000074],[120.007884826,15.317358972000022],[120.00184453000008,15.314722620000055],[119.99747996200006,15.306649578000076],[119.99187293300008,15.302658258000065],[119.9875535110001,15.301703979000024],[120.00863809000009,15.27357743400006],[120.01570831600009,15.266141874000027],[120.0158768880001,15.261870861000034],[120.01384293000001,15.257792190000032],[120.01231972300002,15.257771915000035],[120.014472339,15.25726944400003],[120.01444584900003,15.248983559000067],[120.0103278140001,15.23704684200004],[120.02261150100003,15.207258977000038],[120.04303358000004,15.221540638000022],[120.05156060900003,15.219404619000045],[120.08639489500001,15.235979324000027],[120.14138871000011,15.20624239600005],[120.16558239400001,15.19453500700007],[120.18270737900002,15.18875352300006],[120.19537896100007,15.170369582000035],[120.2038157930001,15.129247659000043],[120.20355138800005,15.119434033000061],[120.19677176700009,15.100379554000028],[120.21382045000007,15.100339908000024],[120.37321399300004,15.101486373000057],[120.36503970000001,15.108136663000039],[120.35605737500009,15.135023511000043],[120.36759662500003,15.167097115000047],[120.33616555000003,15.235095099000034]]]}},{"type":"Feature","properties":{"shapeName":"Cabangan","shapeISO":"","shapeID":"30758251B86660970091013","shapeGroup":"PHL","shapeType":"ADM3","psgc_code":"0307102000","legacy_psgc_code":"037102000","province":"Zambales"},"geometry":{"type":"Polygon","coordinates":[[[120.02261150100003,15.207258977000038],[120.0312420250001,15.183932207000055],[120.04237499900012,15.13404799500006],[120.04855899900008,15.114043437000078],[120.06181750300004,15.11868468700004],[120.05973355900005,15.124990754000066],[120.07216015900008,15.124141919000067],[120.07400474000008,15.119011842000077],[120.08224554500009,15.118249185000025],[120.09285324100006,15.113310502000047],[120.09634194300008,15.11500185400007],[120.10351761800007,15.111719805000064],[120.11111286300002,15.105962427000065],[120.1135473710001,15.107359563000045],[120.11818472800007,15.106906001000027],[120.119972404,15.10566398700007],[120.119979,15.101548446000038],[120.12481529000002,15.103462213000057],[120.12693904900004,15.101851143000033],[120.13120643800005,15.10224088800004],[120.13714095600005,15.100593538000055],[120.13908418800008,15.09811778900007],[120.1441642640001,15.097768120000069],[120.14683070800004,15.094217403000073],[120.15533347000007,15.088142448000042],[120.16616731600004,15.09127122600006],[120.17988031800007,15.10437574100007],[120.18228890000012,15.104157870000051],[120.18354477300011,15.098944071000062],[120.18779987800008,15.09645462900005],[120.19105070300009,15.096706896000057],[120.19335827200007,15.099924714000053],[120.19677176700009,15.100379554000028],[120.20355138800005,15.119434033000061],[120.2038157930001,15.129247659000043],[120.19537896100007,15.170369582000035],[120.18270737900002,15.18875352300006],[120.16558239400001,15.19453500700007],[120.14138871000011,15.20624239600005],[120.08639489500001,15.235979324000027],[120.05156060900003,15.219404619000045],[120.04303358000004,15.221540638000022],[120.02261150100003,15.207258977000038]]]}},{"type":"Feature","properties":{"shapeName":"Candelaria","shapeISO":"","shapeID":"30758251B19895305686626","shapeGroup":"PHL","shapeType":"ADM3","psgc_code":"0307103000","legacy_psgc_code":"037103000","province":"Zambales"},"geometry":{"type":"Polygon","coordinates":[[[120.215071996,15.681738971000073],[120.09035737500005,15.697824137000055],[120.07179815600011,15.694866865000051],[120.0542545940001,15.694265983000037],[120.04719947700005,15.691166707000036],[120.0201734310001,15.68952014000007],[119.99658998600012,15.691444623000052],[119.99088017500003,15.68607643300004],[119.98580338600004,15.684439502000032],[119.982156056,15.684779874000071],[119.97284188300011,15.689179783000043],[119.96586204800008,15.682654188000072],[119.96376838000003,15.682537870000033],[119.96106993800004,15.67828626100004],[119.9570381420001,15.677356204000034],[119.9556834550001,15.678755863000049],[119.951403475,15.678354608000063],[119.9488033130001,15.681145265000055],[119.94651660300008,15.68037713700005],[119.93941338400009,15.682719083000052],[119.93559766300007,15.687203410000052],[119.93351206000011,15.687964253000075],[119.93500779200008,15.680728201000022],[119.93126643200003,15.674095474000069],[119.93107034000002,15.664035641000055],[119.92966659300009,15.661791030000074],[119.92536460100007,15.66053331300003],[119.92256121300011,15.654726241000049],[119.9250489960001,15.645402132000072],[119.92398336600002,15.639687156000036],[119.91318390000004,15.622866367000029],[119.91099885000006,15.62169670700007],[119.90600444200004,15.623239899000055],[119.90350150200004,15.622307922000061],[119.9106175070001,15.609747566000067],[119.9110249260001,15.607313935000036],[119.90987214100005,15.607107549000034],[119.91157059900002,15.604628985000033],[119.91178248100005,15.598535450000043],[119.91939277400002,15.598695556000052],[119.91861722600004,15.59738154400003],[119.91738306800005,15.598375693000037],[119.91716319400007,15.596178311000074],[119.92349739600002,15.58758675200005],[119.92710465000005,15.586810812000067],[119.92909346700003,15.58809076500006],[119.93209765200004,15.596662904000027],[119.93988788400009,15.598346768000056],[119.94595808800011,15.595238769000048],[119.95100200600007,15.583487433000073],[119.96763941100005,15.576870234000069],[119.96966935300009,15.577693889000045],[119.97338882000008,15.584341791000043],[119.98046850100002,15.585739559000046],[119.9830857610001,15.58881662300007],[119.98315288000003,15.592854362000026],[119.99076815800004,15.593770199000062],[119.99853988000007,15.590716615000076],[119.99906080100004,15.586148284000046],[120.00333564900006,15.583304011000052],[120.00262427200005,15.578944313000022],[120.00371914200002,15.576371703000063],[120.00801683800012,15.57379568400006],[120.01391126500005,15.576365672000065],[120.02091426100003,15.574767852000036],[120.02318652300005,15.570740585000067],[120.02725149100002,15.56913683700003],[120.03285242700008,15.569756200000029],[120.03546450800002,15.575012122000032],[120.04330290700011,15.575005683000029],[120.04837253900007,15.573383903000035],[120.05350563500008,15.577454255000077],[120.07087242600005,15.583028435000074],[120.08375968300004,15.579320298000027],[120.08505851300004,15.573339654000051],[120.09335189700005,15.568551884000044],[120.09960787300008,15.567555890000051],[120.10102053900005,15.563705011000025],[120.10058434000007,15.559263483000052],[120.10550161600008,15.559768576000067],[120.11126885800002,15.55695594100007],[120.114777978,15.559098420000055],[120.1173091500001,15.557340236000073],[120.12104629300006,15.558526205000078],[120.13701499000001,15.57202372200004],[120.14138754800001,15.573484949000033],[120.1484093470001,15.572411270000032],[120.15043876400011,15.573670374000073],[120.22258195600011,15.57523956700004],[120.26404654900011,15.59769398900005],[120.25285678300008,15.617769571000053],[120.215071996,15.681738971000073]]]}},{"type":"Feature","properties":{"shapeName":"Castillejos","shapeISO":"","shapeID":"30758251B55463127923623","shapeGroup":"PHL","shapeType":"ADM3","psgc_code":"0307104000","legacy_psgc_code":"037104000","province":"Zambales"},"geometry":{"type":"Polygon","coordinates":[[[120.33075398000005,14.932004928000026],[120.3134319180001,14.940841524000064],[120.29126834300007,14.95694523000003],[120.27621883400002,14.964417188000027],[120.26046545100007,14.970404909000024],[120.25803414100005,14.969964314000038],[120.25449894600001,14.973400856000069],[120.25164250300008,14.972834369000054],[120.24873698400006,14.96908210500004],[120.24499279300005,14.967980963000059],[120.24213624300012,14.964407455000071],[120.23829108200005,14.962703765000072],[120.2177078950001,14.967088028000035],[120.19432577500004,14.966059520000044],[120.19066585500002,14.961325733000024],[120.18008446600004,14.958399177000047],[120.17267349100007,14.952717235000023],[120.1601384600001,14.94929464200004],[120.15422163700009,14.94482479100003],[120.15526817700004,14.93828370700004],[120.14801345300009,14.935372333000032],[120.14485744800004,14.929721538000024],[120.1409373670001,14.927856180000049],[120.1207605400001,14.90322896300006],[120.13616437000007,14.877854949000039],[120.17435206100004,14.884893500000032],[120.181950217,14.882700358000022],[120.20349235900005,14.888376078000022],[120.21519072700005,14.888830356000028],[120.21928206400003,14.897666795000077],[120.21824678100006,14.906993328000055],[120.21616517000007,14.91126054700004],[120.20763376100001,14.919413553000027],[120.21444037000003,14.918538545000047],[120.21603723200008,14.924405849000038],[120.21865872400008,14.92654678200006],[120.21777699000006,14.931184287000065],[120.22017349400005,14.933505059000026],[120.33075398000005,14.932004928000026]]]}},{"type":"Feature","properties":{"shapeName":"Iba","shapeISO":"","shapeID":"30758251B62062623216979","shapeGroup":"PHL","shapeType":"ADM3","psgc_code":"0307105000","legacy_psgc_code":"037105000","province":"Zambales"},"geometry":{"type":"Polygon","coordinates":[[[120.16532977500003,15.36319459300006],[120.16838659000007,15.395327532000067],[120.02667585400002,15.40160667300006],[120.02689549400009,15.398870505000048],[119.98486119000006,15.398958856000036],[119.97755731500001,15.40100564200003],[119.97301044100004,15.39884545800004],[119.96699038000008,15.399036306000028],[119.96415631100001,15.39500421400004],[119.95552836600007,15.393431803000055],[119.9502365190001,15.395131374000073],[119.94987644200012,15.390884936000077],[119.948026561,15.389156135000064],[119.94606391000002,15.389435840000033],[119.9427132190001,15.394279422000068],[119.92991276900011,15.387993836000078],[119.92873917200006,15.386262086000045],[119.9376155430001,15.37954634700003],[119.94007124200004,15.376606128000049],[119.94015368900011,15.373836335000021],[119.94568902700007,15.368552596000029],[119.95049447300005,15.366464026000074],[119.95249272700005,15.355604648000053],[119.96035008700005,15.353221134000023],[119.96510613600003,15.34889392100007],[119.96745294700008,15.343288895000057],[119.96406052500004,15.335233308000056],[119.9641821670001,15.327106978000074],[119.9875535110001,15.301703979000024],[119.99187293300008,15.302658258000065],[119.99747996200006,15.306649578000076],[120.00184453000008,15.314722620000055],[120.007884826,15.317358972000022],[120.00846482500003,15.319621443000074],[120.01119882000012,15.319018993000043],[120.01193823100004,15.321757778000062],[120.01702962600007,15.323300415000062],[120.01740619600002,15.326517705000072],[120.01854590700009,15.325016709000067],[120.02043614400009,15.32575070400003],[120.02175874800002,15.33138294400004],[120.025664978,15.330811951000044],[120.02626254000006,15.32912918900007],[120.0309695740001,15.329724831000021],[120.03334850100009,15.326524260000042],[120.04287509900007,15.327880581000045],[120.04764168500003,15.352793790000078],[120.05078182400007,15.351608646000045],[120.05345258800003,15.354860831000053],[120.05756369700009,15.353827366000075],[120.05799720700008,15.355931811000062],[120.06198298000004,15.358876186000032],[120.06369652700005,15.356297368000071],[120.06807076500002,15.359852807000038],[120.07572061300004,15.359481559000074],[120.07928537100008,15.36317368500005],[120.16532977500003,15.36319459300006]]]}},{"type":"Feature","properties":{"shapeName":"Masinloc","shapeISO":"","shapeID":"30758251B39623995446640","shapeGroup":"PHL","shapeType":"ADM3","psgc_code":"0307106000","legacy_psgc_code":"037106000","province":"Zambales"},"geometry":{"type":"MultiPolygon","coordinates":[[[[119.92429243900006,15.52948652200007],[119.91821096300009,15.528978878000032],[119.9109760550001,15.526248572000043],[119.90469960100006,15.528027104000046],[119.90337376500008,15.519577453000068],[119.90785733700011,15.507867210000029],[119.91479623600003,15.508319742000026],[119.92030137800009,15.511524019000035],[119.92182997900011,15.513773809000043],[119.9196223020001,15.519114112000068],[119.93118838300006,15.524471695000045],[119.92429243900006,15.52948652200007]]],[[[119.91345169200008,15.59672910100005],[119.91715574500006,15.586815627000021],[119.91833768300012,15.57882487300003],[119.91452504100005,15.567764015000023],[119.91628905000005,15.563948420000031],[119.91871837300005,15.562307066000074],[119.921019655,15.562660318000042],[119.91716676200008,15.559589541000037],[119.921436158,15.562264950000042],[119.92384214800006,15.562221],[119.92924106900011,15.555305517000022],[119.92389682900011,15.56254302800005],[119.9255303760001,15.567000471000028],[119.92845974800002,15.565515436000055],[119.92556605900006,15.567398660000038],[119.92681660800008,15.570905304000064],[119.93557584700011,15.571972390000042],[119.94325750300004,15.57466456000003],[119.94644681900002,15.573960170000078],[119.95002011500003,15.570325455000045],[119.95065956700012,15.571337219000043],[119.94968445300003,15.569180681000034],[119.95175622700003,15.56706071800005],[119.9505807270001,15.562056189000032],[119.9453314540001,15.55826490000004],[119.93997353000009,15.558144939000044],[119.93715118900002,15.554858359000036],[119.94152506900002,15.551680439000052],[119.94441856200001,15.551596350000068],[119.94314111400001,15.550620897000044],[119.944244679,15.549504171000024],[119.94063007500006,15.546245012000043],[119.94580215700012,15.547271377000072],[119.94900562500004,15.542109827000047],[119.95060976900004,15.544532071000049],[119.95122165100008,15.541485923000039],[119.94659073900004,15.538778046000061],[119.94499202600002,15.532921723000072],[119.94714031500007,15.534528957000077],[119.95094240900005,15.532079986000042],[119.95403388700004,15.52523934900006],[119.95917447900001,15.521048594000035],[119.96289566500002,15.522077527000022],[119.96786640700009,15.51944002600004],[119.9660451090001,15.518735916000026],[119.96630687200002,15.51521116500004],[119.96046903800004,15.517214473000024],[119.96100547800006,15.513829602000044],[119.96770972600007,15.510491132000027],[119.96807426200007,15.505334943000037],[119.96645899500004,15.504752684000039],[119.96416803500006,15.508366567000053],[119.95904900900007,15.507997627000066],[119.96154224600002,15.504217231000041],[119.95869942800005,15.503357528000038],[119.95637483700011,15.504924033000066],[119.9558689160001,15.50222474900005],[119.9503000520001,15.500550943000064],[119.94595839600004,15.496947714000044],[119.9454789340001,15.493705085000045],[119.94921989500006,15.490813770000045],[119.94706729400002,15.484413815000039],[119.94867787400005,15.484071666000034],[119.94559942300009,15.479305254000053],[119.95087082300006,15.478737304000049],[119.95560453600001,15.480512004000047],[119.95820578300004,15.47762076600003],[119.95967282700008,15.47799781200007],[119.96200184600002,15.473997542000063],[119.97824296100009,15.472064820000071],[119.97979561900001,15.473739488000035],[119.98366516800002,15.473633326000026],[120.00139516200011,15.487628614000073],[120.02136839100001,15.48722248200005],[120.02921952200006,15.489789010000038],[120.0599939120001,15.493657861000031],[120.11268102100007,15.504804783000054],[120.14426465300005,15.509217317000036],[120.19082940100009,15.519115079000073],[120.22258195600011,15.57523956700004],[120.15043876400011,15.573670374000073],[120.1484093470001,15.572411270000032],[120.14138754800001,15.573484949000033],[120.13701499000001,15.57202372200004],[120.12104629300006,15.558526205000078],[120.1173091500001,15.557340236000073],[120.114777978,15.559098420000055],[120.11126885800002,15.55695594100007],[120.10550161600008,15.559768576000067],[120.10058434000007,15.559263483000052],[120.10102053900005,15.563705011000025],[120.09960787300008,15.567555890000051],[120.09335189700005,15.568551884000044],[120.08505851300004,15.573339654000051],[120.08375968300004,15.579320298000027],[120.07087242600005,15.583028435000074],[120.05350563500008,15.577454255000077],[120.04837253900007,15.573383903000035],[120.04330290700011,15.575005683000029],[120.03546450800002,15.575012122000032],[120.03285242700008,15.569756200000029],[120.02725149100002,15.56913683700003],[120.02318652300005,15.570740585000067],[120.02091426100003,15.574767852000036],[120.01391126500005,15.576365672000065],[120.00801683800012,15.57379568400006],[120.00371914200002,15.576371703000063],[120.00262427200005,15.578944313000022],[120.00333564900006,15.583304011000052],[119.99906080100004,15.586148284000046],[119.99853988000007,15.590716615000076],[119.99076815800004,15.593770199000062],[119.98315288000003,15.592854362000026],[119.9830857610001,15.58881662300007],[119.98046850100002,15.585739559000046],[119.97338882000008,15.584341791000043],[119.96966935300009,15.577693889000045],[119.96763941100005,15.576870234000069],[119.95100200600007,15.583487433000073],[119.94595808800011,15.595238769000048],[119.93988788400009,15.598346768000056],[119.93209765200004,15.596662904000027],[119.92909346700003,15.58809076500006],[119.92710465000005,15.586810812000067],[119.92349739600002,15.58758675200005],[119.91716319400007,15.596178311000074],[119.91519330400001,15.595844643000078],[119.91428990300005,15.597103192000077],[119.91345169200008,15.59672910100005]]]]}},{"type":"Feature","properties":{"shapeName":"Palauig","shapeISO":"","shapeID":"30758251B57141645891791","shapeGroup":"PHL","shapeType":"ADM3","psgc_code":"0307108000","legacy_psgc_code":"037108000","province":"Zambales"},"geometry":{"type":"MultiPolygon","coordinates":[[[[119.89875117600002,15.496401053000056],[119.89681324100002,15.498247781000032],[119.89300196800002,15.497988410000062],[119.890829359,15.495485319000068],[119.89199386700011,15.490705947000038],[119.899860106,15.494025183000076],[119.89875117600002,15.496401053000056]]],[[[119.92859641600012,15.386109316000045],[119.92873917200006,15.386262086000045],[119.92991276900011,15.387993836000078],[119.9427132190001,15.394279422000068],[119.94606391000002,15.389435840000033],[119.948026561,15.389156135000064],[119.94987644200012,15.390884936000077],[119.9502365190001,15.395131374000073],[119.95552836600007,15.393431803000055],[119.96415631100001,15.39500421400004],[119.96699038000008,15.399036306000028],[119.97301044100004,15.39884545800004],[119.97755731500001,15.40100564200003],[119.98486119000006,15.398958856000036],[120.02689549400009,15.398870505000048],[120.02667585400002,15.40160667300006],[120.16838659000007,15.395327532000067],[120.1724779860001,15.438335885000072],[120.18330680400004,15.488963045000048],[120.18910368800005,15.516064781000068],[120.19082940100009,15.519115079000073],[120.14426465300005,15.509217317000036],[120.11268102100007,15.504804783000054],[120.0599939120001,15.493657861000031],[120.02921952200006,15.489789010000038],[120.02136839100001,15.48722248200005],[120.00139516200011,15.487628614000073],[119.98366516800002,15.473633326000026],[119.97979561900001,15.473739488000035],[119.97824296100009,15.472064820000071],[119.96200184600002,15.473997542000063],[119.95967282700008,15.47799781200007],[119.95820578300004,15.47762076600003],[119.95560453600001,15.480512004000047],[119.95087082300006,15.478737304000049],[119.94559942300009,15.479305254000053],[119.9423159690001,15.477655728000059],[119.93348218000006,15.477463293000028],[119.92817258900004,15.475068012000065],[119.92596774800006,15.47601761900006],[119.92377088500007,15.474838993000049],[119.91746985400005,15.477155215000039],[119.91263213700006,15.482078669000032],[119.91081385000007,15.481973498000059],[119.90724398300006,15.484908975000053],[119.90630844200007,15.49301160400006],[119.90295717300012,15.491807336000022],[119.90439826200009,15.485983636000071],[119.89980405200004,15.477575829000045],[119.90203717300005,15.470023195000067],[119.90846968700009,15.456396738000024],[119.91061449400001,15.456841072000032],[119.91407572600008,15.454991575000065],[119.91505483700007,15.450575101000027],[119.91817831100002,15.449893425000027],[119.91854115100011,15.448509676000072],[119.91565658900004,15.448943777000068],[119.913984647,15.443331443000034],[119.9030931310001,15.437785569000027],[119.90009863800003,15.438112214000057],[119.89689395700009,15.440805858000033],[119.89628287800008,15.434486909000043],[119.89284863800003,15.434509632000072],[119.89007731100003,15.431124860000068],[119.89228239800002,15.426506546000041],[119.8962627950001,15.425732932000074],[119.89900841400004,15.421326466000039],[119.90525503200001,15.42278161300004],[119.90405901300005,15.420831183000075],[119.90736552500005,15.418915843000036],[119.90916146600011,15.415847494000047],[119.90468779300011,15.412122940000074],[119.90224861400009,15.407396513000037],[119.90372163800009,15.402668908000066],[119.90828932200009,15.399724439000067],[119.91187736300003,15.400256832000025],[119.91673628900003,15.398708843000065],[119.92020302700007,15.392570463000027],[119.92847748000008,15.385983809000038],[119.92859641600012,15.386109316000045]]]]}},{"type":"Feature","properties":{"shapeName":"San Antonio","shapeISO":"","shapeID":"30758251B44301326667503","shapeGroup":"PHL","shapeType":"ADM3","psgc_code":"0307109000","legacy_psgc_code":"037109000","province":"Zambales"},"geometry":{"type":"MultiPolygon","coordinates":[[[[120.11686801200005,14.763089660000048],[120.1144169800001,14.76327410500005],[120.1141188690001,14.76173039200006],[120.11855632600009,14.761547782000036],[120.11686801200005,14.763089660000048]]],[[[120.10269233400004,14.768858092000073],[120.09970182100005,14.762606799000025],[120.10062422500005,14.759625171000039],[120.1035477160001,14.759015279000039],[120.1036466700001,14.757284063000043],[120.10627804800004,14.757440549000023],[120.10834997000006,14.760089029000028],[120.10995098800004,14.759603414000026],[120.1108903820001,14.761759164000068],[120.11339592600007,14.762259739000058],[120.1143228520001,14.764044093000052],[120.11082793700007,14.766412499000069],[120.10440722700002,14.767400235000025],[120.10269233400004,14.768858092000073]]],[[[120.1601384600001,14.94929464200004],[120.15584656300007,14.951428884000052],[120.13308347300006,14.949995197000021],[120.133333149,14.959481013000072],[120.12457683700006,14.961405459000048],[120.1274972760001,14.962854769000046],[120.1250474530001,14.968885128000068],[120.12696332700011,14.975137801000074],[120.12115784500008,14.979040945000065],[120.11469170600003,14.979621484000063],[120.11317496900006,14.978147472000046],[120.09407576700005,14.975993832000029],[120.08939580600008,14.977450117000046],[120.0788883030001,14.97587803700003],[120.07291418000011,14.977684502000045],[120.0628836190001,14.97808929000007],[120.05970116600008,14.95636305000005],[120.05688307000003,14.949562580000077],[120.05609412100011,14.937582888000065],[120.05768398700002,14.928409271000078],[120.06232009500002,14.917325145000063],[120.06101348400011,14.91457620500006],[120.05850495200002,14.91536426600004],[120.05794920000005,14.914381147000029],[120.05897651500004,14.909766529000024],[120.05801330500003,14.906160228000033],[120.05917778000003,14.907234643000038],[120.05727948300012,14.904838966000057],[120.05954880900003,14.902949335000073],[120.05812025500006,14.90065811900007],[120.05890137000006,14.897382082000036],[120.05558253700008,14.89503847900005],[120.05230723700004,14.89583555400003],[120.05237419600007,14.893939876000047],[120.0543201800001,14.893539052000051],[120.05521868500011,14.891616057000022],[120.05348222000009,14.887066391000076],[120.05714857400005,14.885017705000053],[120.0578430270001,14.879506627000069],[120.0604226580001,14.878986198000064],[120.06519590000005,14.881859899000062],[120.06862139700002,14.881225280000024],[120.07072626800004,14.87847473200003],[120.0676844300001,14.871531790000063],[120.06415249100007,14.870746731000054],[120.06497281700001,14.866432883000073],[120.06827423100003,14.86697388400006],[120.06897302800007,14.865072974000043],[120.07203001200003,14.864028269000073],[120.07174319700005,14.862763801000028],[120.07462935100011,14.861882685000069],[120.07117698800005,14.856156694000049],[120.071367312,14.854028415000073],[120.07004015500002,14.853553414000032],[120.0733270820001,14.852957724000078],[120.07906261900007,14.857207064000022],[120.08382352400008,14.853718772000036],[120.08241524300001,14.841758525000046],[120.0787593450001,14.835842994000075],[120.07868342800009,14.83367501500004],[120.08093907700004,14.832222693000062],[120.0826459330001,14.827711803000057],[120.08199877700008,14.822377466000034],[120.079704622,14.820874482000022],[120.07865198700006,14.817856303000042],[120.08006060500009,14.814417026000058],[120.09393080100006,14.822757737000074],[120.10664261000011,14.821642782000026],[120.10934331500005,14.817475497000032],[120.10899351300009,14.815018222000049],[120.10688437200008,14.814770987000031],[120.10699550800007,14.812312869000039],[120.10242097100002,14.807281756000066],[120.09290681400012,14.805072607000056],[120.0918549810001,14.802536019000058],[120.08649815500007,14.799890678000054],[120.08760174300005,14.793484462000038],[120.08372359100008,14.79040470800004],[120.08339710900009,14.786804799000038],[120.08565274500006,14.78382070500004],[120.08856383000011,14.783305],[120.08996047800008,14.780137812000078],[120.0925378280001,14.782448643000066],[120.09612352200008,14.781001379000031],[120.10077323300004,14.782826528000044],[120.10206730200002,14.781500692000066],[120.10500469600004,14.782481373000053],[120.10640799400005,14.779911691000052],[120.11450558600006,14.784617611000044],[120.11670787100002,14.783063846000061],[120.12095347800005,14.782885400000055],[120.12623981000002,14.776950357000032],[120.13083897500007,14.775664694000056],[120.13361947800001,14.769053107000047],[120.1316291490001,14.763783628000056],[120.12807884800009,14.76448490000007],[120.12186761200007,14.76165332000005],[120.11856754700011,14.763060645000053],[120.118944757,14.758344212000054],[120.12386643100001,14.759034710000037],[120.12597914300011,14.756824085000062],[120.12521625800002,14.755958502000055],[120.13005756700011,14.752884796000046],[120.1330781800001,14.75362313100004],[120.13858563600002,14.752006816000062],[120.14246683400006,14.754711025000063],[120.14858144200002,14.756312832000049],[120.15329409900005,14.74799696100007],[120.1556373410001,14.746669652000037],[120.15527520300009,14.743768179000028],[120.15770449600006,14.742348363000076],[120.15826541400008,14.738421114000062],[120.15937748300007,14.738406130000044],[120.14348403000008,14.825001193000048],[120.13616437000007,14.877854949000039],[120.1207605400001,14.90322896300006],[120.1409373670001,14.927856180000049],[120.14485744800004,14.929721538000024],[120.14801345300009,14.935372333000032],[120.15526817700004,14.93828370700004],[120.15422163700009,14.94482479100003],[120.1601384600001,14.94929464200004]]]]}},{"type":"Feature","properties":{"shapeName":"San Felipe","shapeISO":"","shapeID":"30758251B59257355730786","shapeGroup":"PHL","shapeType":"ADM3","psgc_code":"0307110000","legacy_psgc_code":"037110000","province":"Zambales"},"geometry":{"type":"Polygon","coordinates":[[[120.19677176700009,15.100379554000028],[120.19335827200007,15.099924714000053],[120.19105070300009,15.096706896000057],[120.18779987800008,15.09645462900005],[120.18354477300011,15.098944071000062],[120.18228890000012,15.104157870000051],[120.17988031800007,15.10437574100007],[120.16616731600004,15.09127122600006],[120.15533347000007,15.088142448000042],[120.14683070800004,15.094217403000073],[120.1441642640001,15.097768120000069],[120.13908418800008,15.09811778900007],[120.13714095600005,15.100593538000055],[120.13120643800005,15.10224088800004],[120.12693904900004,15.101851143000033],[120.12481529000002,15.103462213000057],[120.119979,15.101548446000038],[120.119972404,15.10566398700007],[120.11818472800007,15.106906001000027],[120.1135473710001,15.107359563000045],[120.11111286300002,15.105962427000065],[120.10351761800007,15.111719805000064],[120.09634194300008,15.11500185400007],[120.09285324100006,15.113310502000047],[120.08224554500009,15.118249185000025],[120.07400474000008,15.119011842000077],[120.07216015900008,15.124141919000067],[120.05973355900005,15.124990754000066],[120.06181750300004,15.11868468700004],[120.04855899900008,15.114043437000078],[120.05000379100011,15.102042342000061],[120.0494798090001,15.099763107000058],[120.04715789400007,15.098954258000049],[120.04817847900006,15.098271146000059],[120.04969710800003,15.099592028000075],[120.05100298200011,15.098145329000033],[120.05727727700003,15.076946019000047],[120.05930491000004,15.064894112000047],[120.05868972000007,15.052415990000043],[120.05449384500002,15.042857308000066],[120.0536131020001,15.037253576000069],[120.0549645530001,15.03247132100006],[120.05740744400009,15.030141737000065],[120.06133575400008,15.03057386300003],[120.06130182800007,15.033412816000066],[120.06583688700005,15.031190418000051],[120.0720275220001,15.030646226000044],[120.08241042400005,15.034098929000038],[120.10117249900009,15.028865625000037],[120.0986760080001,15.035704181000028],[120.10249523700008,15.038226274000067],[120.10899360700012,15.03955361100003],[120.114706006,15.037529472000074],[120.13947837500007,15.043061482000041],[120.18101144500008,15.041956692000042],[120.21382045000007,15.100339908000024],[120.19677176700009,15.100379554000028]]]}},{"type":"Feature","properties":{"shapeName":"San Marcelino","shapeISO":"","shapeID":"30758251B2790468349785","shapeGroup":"PHL","shapeType":"ADM3","psgc_code":"0307111000","legacy_psgc_code":"037111000","province":"Zambales"},"geometry":{"type":"Polygon","coordinates":[[[120.21382045000007,15.100339908000024],[120.18101144500008,15.041956692000042],[120.17348785900003,15.029130101000021],[120.18079374500007,15.019449155000075],[120.17231528900004,15.00592662400004],[120.17170183700011,15.000901734000024],[120.15910780900003,14.997822086000042],[120.15372010300007,14.993595754000069],[120.1409947730001,14.991386126000066],[120.1424069090001,14.984371273000022],[120.12696332700011,14.975137801000074],[120.1250474530001,14.968885128000068],[120.1274972760001,14.962854769000046],[120.12457683700006,14.961405459000048],[120.133333149,14.959481013000072],[120.13308347300006,14.949995197000021],[120.15584656300007,14.951428884000052],[120.1601384600001,14.94929464200004],[120.17267349100007,14.952717235000023],[120.18008446600004,14.958399177000047],[120.19066585500002,14.961325733000024],[120.19432577500004,14.966059520000044],[120.2177078950001,14.967088028000035],[120.23829108200005,14.962703765000072],[120.24213624300012,14.964407455000071],[120.24499279300005,14.967980963000059],[120.24873698400006,14.96908210500004],[120.25164250300008,14.972834369000054],[120.25449894600001,14.973400856000069],[120.25803414100005,14.969964314000038],[120.26046545100007,14.970404909000024],[120.27621883400002,14.964417188000027],[120.29126834300007,14.95694523000003],[120.3134319180001,14.940841524000064],[120.33075398000005,14.932004928000026],[120.40170784700001,14.950102448000052],[120.4046074470001,14.952184918000057],[120.41025961800005,14.952999265000074],[120.41197382400003,14.957764603000044],[120.42139442100006,14.965694196000072],[120.424546082,14.967011501000059],[120.42782482500002,14.964602984000066],[120.43378821300007,14.966655139000068],[120.43661286000008,14.969119263000039],[120.42422098100008,14.975998620000041],[120.42439436100005,14.98047921500006],[120.41978590300005,14.985040784000034],[120.4219665490001,15.029677780000043],[120.422285224,15.041691793000041],[120.406873,15.074102701000072],[120.37321399300004,15.101486373000057],[120.21382045000007,15.100339908000024]]]}},{"type":"Feature","properties":{"shapeName":"San Narciso","shapeISO":"","shapeID":"30758251B59328560779443","shapeGroup":"PHL","shapeType":"ADM3","psgc_code":"0307112000","legacy_psgc_code":"037112000","province":"Zambales"},"geometry":{"type":"Polygon","coordinates":[[[120.12696332700011,14.975137801000074],[120.1424069090001,14.984371273000022],[120.1409947730001,14.991386126000066],[120.15372010300007,14.993595754000069],[120.15910780900003,14.997822086000042],[120.17170183700011,15.000901734000024],[120.17231528900004,15.00592662400004],[120.18079374500007,15.019449155000075],[120.17348785900003,15.029130101000021],[120.18101144500008,15.041956692000042],[120.13947837500007,15.043061482000041],[120.114706006,15.037529472000074],[120.10899360700012,15.03955361100003],[120.10249523700008,15.038226274000067],[120.0986760080001,15.035704181000028],[120.10117249900009,15.028865625000037],[120.08241042400005,15.034098929000038],[120.0720275220001,15.030646226000044],[120.06583688700005,15.031190418000051],[120.06130182800007,15.033412816000066],[120.06133575400008,15.03057386300003],[120.05740744400009,15.030141737000065],[120.0606964530001,15.026476574000071],[120.0640462230001,15.016722539000057],[120.06459150600006,14.992102190000026],[120.0628836190001,14.97808929000007],[120.07291418000011,14.977684502000045],[120.0788883030001,14.97587803700003],[120.08939580600008,14.977450117000046],[120.09407576700005,14.975993832000029],[120.11317496900006,14.978147472000046],[120.11469170600003,14.979621484000063],[120.12115784500008,14.979040945000065],[120.12696332700011,14.975137801000074]]]}},{"type":"Feature","properties":{"shapeName":"Santa Cruz","shapeISO":"","shapeID":"30758251B81450613900201","shapeGroup":"PHL","shapeType":"ADM3","psgc_code":"0307113000","legacy_psgc_code":"037113000","province":"Zambales"},"geometry":{"type":"MultiPolygon","coordinates":[[[[119.82683722900003,15.741964443000029],[119.82067338400009,15.738453101000061],[119.820435255,15.72897172300003],[119.82189529200002,15.728608744000041],[119.82939653100004,15.733813948000034],[119.83305001500003,15.740261813000075],[119.82683722900003,15.741964443000029]]],[[[119.78803981300007,15.811973864000038],[119.78606784200008,15.810547202000066],[119.7858732950001,15.806317805000049],[119.78890334800008,15.794284873000038],[119.7885690380001,15.784278033000078],[119.79105173100004,15.77986323500005],[119.79445039600012,15.777968250000072],[119.79771351000011,15.779567933000067],[119.80083362200003,15.783483767000064],[119.80264450400011,15.795658412000023],[119.80178432500009,15.803057531000036],[119.80331972200008,15.804750451000075],[119.80520883600002,15.804525803000047],[119.78803981300007,15.811973864000038]]],[[[119.86388672300006,15.812573862000022],[119.86462100100005,15.811181263000037],[119.86610479,15.812580896000043],[119.86388672300006,15.812573862000022]]],[[[120.12637772000005,15.826255600000025],[120.12210736200007,15.82899001900006],[120.11638417200004,15.826339542000028],[120.11269519000007,15.828933962000065],[120.10533566400011,15.823140587000069],[120.10367083100004,15.824908587000039],[120.1017182490001,15.824686664000069],[120.10131216000002,15.829722847000028],[120.09000947400011,15.829611735000071],[120.09073151000007,15.833249009000042],[120.08612629400011,15.835577656000055],[120.07718811200004,15.835891738000043],[120.07801198000004,15.833360982000045],[120.07646877200011,15.832614756000055],[120.07347103900008,15.836005658000033],[120.07253734000005,15.841330497000058],[120.06756340200002,15.842125460000034],[120.06638228400004,15.83857203100007],[120.0634731560001,15.842775389000053],[120.06075375300009,15.843099855000048],[120.06055518100004,15.849381383000036],[120.05785503000004,15.847869424000066],[120.05549877700003,15.848462722000022],[120.05071890400006,15.854675432000022],[120.04664999900001,15.852476306000028],[120.04863209500002,15.858669802000065],[120.0403211040001,15.864853587000027],[120.040601293,15.869440574000066],[120.03888525200011,15.873336485000038],[120.03471133200003,15.874044964000063],[120.02730735300008,15.872155202000044],[120.02153131900002,15.872900635000065],[120.01789980600006,15.870560757000078],[120.01838095700009,15.863630103000048],[120.01693769300005,15.85939763700003],[120.00752239000008,15.85303871800005],[120.00776329900009,15.848592058000065],[120.00627026300003,15.846610454000029],[120.01286630400011,15.844948288000069],[120.01462612600005,15.84135505200004],[120.01191433000008,15.840174169000022],[120.00706874800005,15.841775426000027],[120.00489066900002,15.84058931100003],[120.0047457500001,15.83614394500006],[119.99993665900001,15.835243159000072],[120.00387801200009,15.827791399000034],[120.00302885200006,15.823770464000063],[119.9979248630001,15.819099378000033],[119.98941644800004,15.818377332000068],[119.98568363700008,15.81524037500003],[119.9819645440001,15.807559754000067],[119.97287141600009,15.804883215000075],[119.96396183400009,15.809305516000052],[119.95822206900004,15.806261307000057],[119.9533084850001,15.810683536000056],[119.94881904800002,15.806244242000048],[119.94230055700007,15.804499561000057],[119.94145820800009,15.807847459000072],[119.93788713300012,15.809979888000044],[119.93750450000005,15.812773693000054],[119.93131757200001,15.808116608000034],[119.92661789400006,15.807085525000048],[119.92526734900002,15.810067650000065],[119.92630128300004,15.81467821700005],[119.92403211200008,15.816078809000032],[119.92171039100003,15.815327996000065],[119.91651850100004,15.808331327000076],[119.9106474140001,15.809334703000047],[119.90308285000003,15.806918068000073],[119.89141148100009,15.810836636000033],[119.89109782900005,15.809764227000073],[119.88662189900003,15.811636692000036],[119.88538425700006,15.809613185000046],[119.89114933300004,15.802311469000074],[119.89233532900005,15.802475092000066],[119.89430631100004,15.790242602000035],[119.89816166300011,15.781132950000028],[119.90019964500004,15.77112112900005],[119.90268322100007,15.771439735000058],[119.90560425700005,15.769405696000035],[119.90712757500012,15.760260973000072],[119.91115541600004,15.759198930000025],[119.90880709700002,15.757874653000044],[119.90976405200001,15.755858251000063],[119.908517157,15.752624424000032],[119.903985422,15.748594088000061],[119.90490967900007,15.746229597000024],[119.90165128300009,15.749484016000054],[119.89628831800007,15.74792771500006],[119.89471329800006,15.750742177000063],[119.891079138,15.748995534000073],[119.8902745040001,15.750273483000058],[119.881039901,15.744123178000052],[119.87193335100005,15.742110988000036],[119.86955917000012,15.737672693000036],[119.86963370400008,15.732620521000058],[119.87557293300006,15.724579506000055],[119.88094301400008,15.723711036000054],[119.88792053600002,15.717301230000032],[119.89398465300008,15.707303316000036],[119.89120584600005,15.714597037000033],[119.89248790400006,15.71500373200007],[119.89686717200004,15.706223039000065],[119.89368856300007,15.706479814000033],[119.89996340200003,15.701029465000033],[119.90389839500006,15.700933427000052],[119.90888417700012,15.705798346000051],[119.91307954100012,15.706912224000064],[119.91790591400002,15.705935988000022],[119.92192627500003,15.703258465000033],[119.92592905100003,15.69752763100007],[119.93221053600007,15.694479948000037],[119.93559766300007,15.687203410000052],[119.93941338400009,15.682719083000052],[119.94651660300008,15.68037713700005],[119.9488033130001,15.681145265000055],[119.951403475,15.678354608000063],[119.9556834550001,15.678755863000049],[119.9570381420001,15.677356204000034],[119.96106993800004,15.67828626100004],[119.96376838000003,15.682537870000033],[119.96586204800008,15.682654188000072],[119.97284188300011,15.689179783000043],[119.982156056,15.684779874000071],[119.98580338600004,15.684439502000032],[119.99088017500003,15.68607643300004],[119.99658998600012,15.691444623000052],[120.0201734310001,15.68952014000007],[120.04719947700005,15.691166707000036],[120.0542545940001,15.694265983000037],[120.07179815600011,15.694866865000051],[120.09035737500005,15.697824137000055],[120.215071996,15.681738971000073],[120.21245195000006,15.687199554000074],[120.20263549600008,15.697763308000049],[120.18635825800004,15.725367191000032],[120.1777761410001,15.735479338000061],[120.17219788500006,15.746569737000073],[120.159556973,15.769265243000063],[120.15644934300008,15.778000553000027],[120.15352514800009,15.788376782000057],[120.15059775300006,15.815911991000064],[120.14766179100002,15.823549146000062],[120.14013089700006,15.827268377000053],[120.1332764760001,15.827747986000077],[120.12637772000005,15.826255600000025]]]]}},{"type":"Feature","properties":{"shapeName":"Subic","shapeISO":"","shapeID":"30758251B42276045150270","shapeGroup":"PHL","shapeType":"ADM3","psgc_code":"0307114000","legacy_psgc_code":"037114000","province":"Zambales"},"geometry":{"type":"MultiPolygon","coordinates":[[[[120.23247823800011,14.85601738300005],[120.2330553270001,14.856824988000028],[120.23051046500007,14.855490602000032],[120.23040732600009,14.85391284900004],[120.23097307500007,14.851685329000077],[120.23362808400009,14.851069581000047],[120.23212986400006,14.851969964000034],[120.23247823800011,14.85601738300005]]],[[[120.13616437000007,14.877854949000039],[120.14348403000008,14.825001193000048],[120.15937748300007,14.738406130000044],[120.16055095000002,14.738053552000054],[120.16375086900007,14.743928529000073],[120.16953657400006,14.748007464000068],[120.17156762000002,14.747804597000027],[120.17282147000003,14.744366969000055],[120.17620868000006,14.743819573000053],[120.17619638300005,14.741658779000034],[120.17797611300011,14.740761884000051],[120.17910488500002,14.744376786000032],[120.18358178000005,14.745857473000058],[120.18373458000008,14.748768429000052],[120.18975093200004,14.750811124000052],[120.19306254300011,14.756345157000055],[120.19237429700001,14.760617015000037],[120.20037065000008,14.775351105000027],[120.19971829200006,14.782837070000028],[120.20311049100007,14.79723425900005],[120.20835753300003,14.803886153000064],[120.20814665400007,14.80759686500005],[120.20900936500004,14.80647385900005],[120.20889277800006,14.807782945000042],[120.21047197000007,14.808237949000045],[120.21085249500004,14.807041962000028],[120.21523077100005,14.809095295000077],[120.21261156000003,14.819685248000042],[120.2083891750001,14.818634461000045],[120.20801575700011,14.819729256000073],[120.21296975100006,14.82136300600007],[120.21489121600007,14.827470353000024],[120.21286304700004,14.827598024000054],[120.21234108400006,14.830697606000058],[120.21307723900009,14.835269163000078],[120.21129759000007,14.840406856000072],[120.21247380700004,14.846725456000058],[120.2100386950001,14.852173143000073],[120.20700480300002,14.85473931000007],[120.20515723200003,14.860167324000031],[120.2036188510001,14.860800103000031],[120.20697253800006,14.867799479000041],[120.20605468300005,14.87297155300007],[120.20827176500006,14.874577177000049],[120.21102886100005,14.874157657000069],[120.21325429800004,14.876401627000064],[120.21565342100007,14.876899696000066],[120.21806081900002,14.875443208000036],[120.22171320900009,14.87757476400003],[120.22295012300003,14.874800949000075],[120.22305702500012,14.87799620800007],[120.22521349500005,14.877982965000058],[120.22527001600008,14.875327158000061],[120.22650906900003,14.875279335000073],[120.22903378400008,14.878650716000038],[120.22883059100002,14.87640532100005],[120.23329641900011,14.87608857400005],[120.23400534300004,14.874640704000058],[120.23455830400007,14.863396800000032],[120.2433466330001,14.859419926000044],[120.24146369800008,14.853890641000078],[120.24439801400001,14.849462836000043],[120.24586485400005,14.849855493000064],[120.25025097200012,14.852259355000058],[120.25219490000006,14.850260128000059],[120.25392351900007,14.850544888000059],[120.2581445620001,14.855812528000058],[120.25753738700007,14.859967362000077],[120.26462344600009,14.863219732000061],[120.27018469100005,14.868647686000031],[120.27314707100004,14.875622812000074],[120.27847917600002,14.882358383000053],[120.28122666100012,14.896660255000029],[120.3103299920001,14.911775680000062],[120.34549383100011,14.910387398000069],[120.34962467500009,14.891449152000064],[120.34618065900008,14.860527562000073],[120.37166500100011,14.872229120000043],[120.37718078500006,14.873312132000024],[120.3816082400001,14.872383910000053],[120.38866433900012,14.87536287200004],[120.39973272300006,14.884227821000025],[120.40665743800002,14.88570509300007],[120.40774005800006,14.888552831000027],[120.40603959000009,14.89043229500004],[120.40797872000007,14.89978486800004],[120.41186574900007,14.900298614000064],[120.41366665300006,14.904916577000051],[120.42280570000003,14.914471035000076],[120.42658594200009,14.915052610000032],[120.43360639200012,14.912103191000028],[120.44389110700001,14.920270428000038],[120.44646870500003,14.91852271700003],[120.45260200400003,14.917580469000029],[120.45540784600007,14.919217907000075],[120.46302714300009,14.917770368000049],[120.46126986800004,14.921266418000073],[120.4621665190001,14.928311204000067],[120.4476922,14.960627217000024],[120.44297591100008,14.96000011700005],[120.43623309200007,14.962316904000033],[120.43378821300007,14.966655139000068],[120.42782482500002,14.964602984000066],[120.424546082,14.967011501000059],[120.42139442100006,14.965694196000072],[120.41197382400003,14.957764603000044],[120.41025961800005,14.952999265000074],[120.4046074470001,14.952184918000057],[120.40170784700001,14.950102448000052],[120.33075398000005,14.932004928000026],[120.22017349400005,14.933505059000026],[120.21777699000006,14.931184287000065],[120.21865872400008,14.92654678200006],[120.21603723200008,14.924405849000038],[120.21444037000003,14.918538545000047],[120.20763376100001,14.919413553000027],[120.21616517000007,14.91126054700004],[120.21824678100006,14.906993328000055],[120.21928206400003,14.897666795000077],[120.21519072700005,14.888830356000028],[120.20349235900005,14.888376078000022],[120.181950217,14.882700358000022],[120.17435206100004,14.884893500000032],[120.13616437000007,14.877854949000039]]]]}}]}
